{"type":"FeatureCollection","features":[{"type":"Feature","geometry":{"type":"LineString","coordinates":[[111.8735478,35.3630894,670.74],[111.8735857,35.3631717,670.74],[111.8736752,35.3632612,669.99],[111.8737083,35.3633506,668.65],[111.8737556,35.3634331,666.9],[111.8737862,35.3635223,666.53],[111.8738584,35.3635911,666.05],[111.8739286,35.3636647,665.54],[111.8740073,35.3637372,665.39],[111.8740598,35.3638024,657.83],[111.8740662,35.3638915,652.66],[111.8741093,35.3639723,656.41],[111.8741252,35.3639936,658.41],[111.8741746,35.3640507,659.55],[111.8742738,35.3641079,660.23],[111.8743898,35.3641494,660.77],[111.8745055,35.3641763,661.48],[111.8746171,35.3642267,661.49],[111.8746971,35.3642587,661.49],[111.8747929,35.3642965,665.22],[111.8748982,35.364343,670.24],[111.8750026,35.3643994,673.12],[111.8751085,35.3644577,675.78],[111.875187,35.3645376,677.8],[111.8752845,35.3645953,678.97],[111.8753622,35.3646647,679.63],[111.8754278,35.3647461,680.01],[111.875473,35.3648327,680.22],[111.8755121,35.3649184,680.34],[111.8755134,35.365015,680.41],[111.8755142,35.3651333,683.57],[111.875538,35.3652307,687.11],[111.8755591,35.3653285,688.57],[111.875605,35.3654124,689.11],[111.8754869,35.3654287,689.69],[111.8755933,35.3654671,689.79],[111.8756912,35.3655226,689.87],[111.875761,35.3656037,689.4],[111.8758297,35.36568,688.74],[111.8758666,35.3657771,688.21],[111.875915,35.3658589,687.86],[111.8759926,35.3659377,687.66],[111.8760951,35.3659882,687.58],[111.8761953,35.3660501,689.4],[111.8762787,35.3660803,689.05],[111.8763621,35.3661314,688.84],[111.8764465,35.3662104,688.72],[111.8765429,35.3663038,688.65],[111.876586,35.3663361,689.41],[111.8766427,35.3663947,692.18],[111.8767114,35.3664631,691.47],[111.8767829,35.366549,691.39],[111.8768751,35.3666045,691.59],[111.8769811,35.366643,691.83],[111.8770645,35.3667105,691.97],[111.8771143,35.3667538,692.62],[111.8771832,35.3668115,693.34],[111.8772984,35.3668236,693.92],[111.8774058,35.3667831,694.9],[111.8775172,35.3667713,695.66],[111.8776008,35.3668425,698.55],[111.8777241,35.3668482,701.08],[111.877817,35.3669115,702.75],[111.8779057,35.366978,705.14],[111.8780074,35.3670485,706.51],[111.8781243,35.3670988,710.68],[111.878221,35.3671638,713.97],[111.878319,35.3672136,715.49],[111.8784096,35.3672779,716.39],[111.878472,35.3673606,717.01],[111.8785561,35.3673865,717.36],[111.8786612,35.367406,717.4],[111.8787121,35.3674155,717.55],[111.8788065,35.3674377,717.66],[111.8789215,35.3674466,717.25],[111.879031,35.3674711,717.41],[111.8791443,35.3674732,717.92],[111.8792554,35.3674828,718.66],[111.8793373,35.3675417,719.58],[111.8794481,35.3675465,722.05],[111.8795469,35.3674927,726.58],[111.8796644,35.3675036,728.38],[111.8797626,35.367556,729.41],[111.8798758,35.3675744,730],[111.8799672,35.3675923,730.45],[111.8800531,35.3675454,731.47],[111.880165,35.3675517,739.36],[111.8802781,35.3675377,744.53],[111.8803249,35.3675415,747.48],[111.8804143,35.3675304,749.16],[111.8804693,35.3675728,750.13],[111.8805519,35.3676252,750.67],[111.8805914,35.3676395,750.97],[111.8806707,35.367678,751.15],[111.8806945,35.3676886,754.01],[111.8807694,35.3677341,756.65],[111.8808736,35.367757,759.59],[111.8809909,35.367786,761.71],[111.8811088,35.3677867,764.19],[111.8812245,35.3677964,767.07],[111.8813356,35.3678156,756.63],[111.8813679,35.3677501,751.22],[111.8814504,35.3677386,755.42],[111.8814556,35.3676519,757.92],[111.8814284,35.3677402,759.03],[111.8815047,35.3678135,769.67],[111.8816142,35.3678147,775.77],[111.881695,35.3677445,779.11],[111.8817863,35.3676812,781.63],[111.8818067,35.3677289,784.15],[111.8818054,35.3678186,786.64],[111.8818364,35.3679146,788.66],[111.8818213,35.3680169,792.33],[111.8817209,35.3680569,795.87],[111.8817519,35.3681041,800.32],[111.8818181,35.3681723,805.53],[111.8817994,35.3682481,814.09],[111.881877,35.3683052,820.49],[111.8819876,35.3683015,829.3],[111.8819653,35.3683774,834.81],[111.8820493,35.3684128,838.5],[111.8820581,35.3685035,841.89],[111.8819933,35.3685952,852.6],[111.8819884,35.3686968,857.87],[111.8820133,35.3687888,858.33],[111.8819711,35.3688875,859.01],[111.881998,35.3689443,859.27],[111.8821108,35.3689508,859.19],[111.8822455,35.3689279,858.41],[111.8823765,35.3689346,857.44],[111.8825487,35.369017,857.51],[111.882675,35.3690813,857.3],[111.8827694,35.3691501,855.9],[111.8827753,35.3692385,854.98],[111.8827092,35.3693198,854.34],[111.8826262,35.369397,854.44],[111.8826699,35.3694554,855.58],[111.8827566,35.3695229,856.94],[111.8827666,35.3696052,859.28],[111.882796,35.3696965,863.11],[111.8828855,35.3697062,866.76],[111.8829981,35.3696824,872.64],[111.8831103,35.369634,876.92],[111.8832206,35.3695724,879.89],[111.8833319,35.3695154,881.65],[111.8834529,35.3695056,882.76],[111.8835609,35.3694751,883.35],[111.8836597,35.3694302,884.53],[111.8837682,35.3693956,884.54],[111.88388,35.369396,883.77],[111.8839892,35.3693784,882.85],[111.8841451,35.3693993,882.26],[111.8842648,35.3694489,883.54],[111.8843307,35.3695332,884],[111.8843992,35.3696232,884.31],[111.8844684,35.3697052,884.8],[111.8845191,35.3697969,885.1],[111.8846108,35.3698452,885.38],[111.8847108,35.3698921,885.16],[111.8848299,35.3699101,884.69],[111.8849941,35.3700377,884.32],[111.8845289,35.3701279,885.9],[111.8850802,35.3700999,888.66],[111.8852711,35.3700928,890.18],[111.8853666,35.3700438,894.89],[111.8854144,35.3699667,898.77],[111.885479,35.3699169,905.03],[111.8855559,35.3698555,907.89],[111.8856323,35.3697905,909.16],[111.8856881,35.3697137,911.33],[111.8856972,35.3696825,912.82],[111.885674,35.3696045,913.85],[111.8856596,35.3695676,914.98],[111.8856504,35.3694916,915.69],[111.885655,35.3694618,916.32],[111.8857305,35.3694112,916.73],[111.8858437,35.369378,917.32],[111.8858838,35.3693636,918.69],[111.8859264,35.3692943,919.59],[111.885999,35.3692105,920.45],[111.8860827,35.3691414,921.35],[111.8861476,35.3691059,925.12],[111.8862024,35.3690385,927.42],[111.8862593,35.3689488,927.33],[111.8863547,35.3688989,927.54],[111.8864773,35.3688828,927.89],[111.8865903,35.368918,931.18],[111.8867144,35.3689292,932.17],[111.8867801,35.3689602,934.3],[111.8868749,35.3689515,935.87],[111.8869374,35.3688861,935],[111.8869437,35.3688441,936.9],[111.8869426,35.368759,937.99],[111.886933,35.3686557,937.98],[111.8868655,35.368569,938.07],[111.886816,35.3684673,938.33],[111.8868577,35.3683865,938.57],[111.8869049,35.3683002,938.26],[111.8869342,35.3682071,937.98],[111.8870247,35.3681709,937.23],[111.8871396,35.3681536,936.14],[111.8872463,35.3681165,934.89],[111.8872914,35.3680325,934.13],[111.8873661,35.3679604,933.67],[111.8874779,35.3679528,933.36],[111.8876546,35.3680125,932.45],[111.8876781,35.3679676,933.76],[111.8876976,35.3680283,934.45],[111.8877582,35.3681043,934.18],[111.8878488,35.3681668,933.66],[111.8879369,35.3682296,933.02],[111.8879961,35.3683103,928.92],[111.8880907,35.3683708,924.04],[111.8881264,35.3683982,922.67],[111.8882105,35.3683309,925.23],[111.8882842,35.3682551,926.48],[111.8883435,35.3681774,926.96],[111.8884383,35.3681246,925.84],[111.8885495,35.3681191,925.42],[111.888622,35.3681256,924.63],[111.8887104,35.3681743,924.17],[111.8887682,35.3682637,924.22],[111.8888674,35.3683171,924.03],[111.8889834,35.3683471,924.03],[111.8890271,35.3683728,921.71],[111.8890811,35.368436,920.38],[111.8891877,35.3684767,919.61],[111.8893228,35.3684795,920.38],[111.8894466,35.3684743,920.83],[111.8895649,35.3684913,921.1],[111.8896069,35.3684896,921.29],[111.8896224,35.3683922,921.33],[111.8897177,35.3683463,921.04],[111.8898343,35.3683288,920.51],[111.8899494,35.3683136,920.16],[111.8900863,35.3683217,920.11],[111.8902083,35.3683337,920.34],[111.8903171,35.3683009,919.25],[111.8904438,35.3682824,918.15],[111.8905641,35.3682831,918.07],[111.8906368,35.3682519,918.44],[111.8906935,35.3681766,918.43],[111.8907168,35.3680833,918.16],[111.8907804,35.3679524,917.74],[111.8908458,35.3678566,917.8],[111.8909655,35.3678349,916.15],[111.8910787,35.3678363,914.89],[111.8911651,35.3678979,914.1],[111.8912585,35.3679551,914.2],[111.8913376,35.3679395,911.36],[111.891341,35.3678617,911.79],[111.8914209,35.3678053,912.47],[111.8915321,35.367796,912.85],[111.8916394,35.3678437,912.89],[111.8917446,35.3679239,912.7],[111.8918677,35.3679831,912.43],[111.8919607,35.3679527,911.92],[111.8920756,35.3679514,911.56],[111.8921886,35.3679716,911.27],[111.8922916,35.3680169,911.03],[111.8923887,35.3680802,910.85],[111.8924817,35.3681463,910.75],[111.8925938,35.3681991,909.78],[111.8926992,35.3682398,908.05],[111.8928267,35.3682569,907.05],[111.8929467,35.3682399,906.35],[111.89304,35.3682318,905.91],[111.893036,35.3683005,905.19],[111.8930226,35.36833,903.84],[111.8929355,35.3683661,902.8],[111.8928312,35.368398,902.04],[111.8927547,35.3684706,900.03],[111.8927468,35.368562,898.9],[111.8928232,35.3686461,898.49],[111.8929486,35.3687042,900.05],[111.8930777,35.3687621,900.75],[111.8931538,35.3688228,901.05],[111.8932446,35.3688759,901.54],[111.8933068,35.3688857,901.97],[111.8933705,35.368936,902.3],[111.8934492,35.3689959,903.47],[111.8935581,35.3690297,901.74],[111.893636,35.3690931,899.06],[111.8936585,35.3691825,897.79],[111.8935817,35.3692493,897.16],[111.8935176,35.3693376,897.08],[111.8934693,35.3694325,896.66],[111.8935226,35.36951,896.29],[111.8935786,35.3695929,890.71],[111.8936759,35.369645,887.3],[111.8937884,35.3697023,890.01],[111.8939022,35.3697575,891.48],[111.8939703,35.3698238,892.32],[111.8940557,35.3698882,895.08],[111.894148,35.3699414,895.97],[111.8941857,35.3699566,896.45],[111.8942742,35.3699551,896.74],[111.8943688,35.3699947,896.91],[111.8944608,35.3700493,897.11],[111.8945586,35.3700658,897.48],[111.8946363,35.3701262,895.28],[111.8946915,35.3702069,894.24],[111.8947712,35.3702843,893.8],[111.8948653,35.3703373,893.88],[111.8949116,35.3704162,895.33],[111.8949244,35.3704582,896.4],[111.894941,35.3705381,897.01],[111.8949659,35.3706136,897.36],[111.8950502,35.370689,896.43],[111.8951397,35.3707554,895.38],[111.895161,35.3707901,894.79],[111.8952498,35.3708197,894.45],[111.8953614,35.3708277,895.19],[111.8954467,35.3708819,895.78],[111.8954674,35.3709117,896.03],[111.8954583,35.3709959,896.18],[111.895451,35.3710271,896.26],[111.8955053,35.3710827,896.3],[111.8955238,35.37113,896.39],[111.8955795,35.3710795,898.82],[111.8955926,35.3710406,900.18],[111.8955075,35.3710104,901.01],[111.895595,35.3710351,901.88],[111.8953245,35.3710829,903.36],[111.8952834,35.3712169,900.92],[111.8952684,35.3711578,902.67],[111.8952228,35.3711845,903.14],[111.8952558,35.3711815,902.67],[111.8953502,35.3711333,902.67],[111.89544,35.371032,902.66],[111.8954966,35.3711096,903.29],[111.895383,35.371098,904.23],[111.8954582,35.3710199,904.95],[111.8953263,35.3710521,905.83],[111.8954463,35.371036,907.09],[111.8953681,35.3710368,909.69],[111.8954496,35.3710697,910.43],[111.8955412,35.3711316,911.1],[111.8955038,35.3712098,911.76],[111.8955573,35.3712893,912.78],[111.8956378,35.3713604,913.48],[111.8957092,35.3714537,913.75],[111.8957894,35.3715388,913.89],[111.8959026,35.3715787,913.85],[111.8959983,35.3716326,913.73],[111.8960661,35.3717056,913.65],[111.8960613,35.3716472,913.76],[111.8961322,35.3716696,913.68],[111.8961474,35.3716954,914.03],[111.8961886,35.3717728,914.11],[111.896242,35.3718546,913.57],[111.896284,35.3719452,913.34],[111.8963811,35.3719609,913.1],[111.8964938,35.3719751,912.83],[111.896607,35.3720197,912.69],[111.8966949,35.3720828,912.56],[111.8967116,35.3721149,912.48],[111.8967978,35.3721439,912.44],[111.8968659,35.3721904,909.36],[111.8969308,35.372268,911.25],[111.8969373,35.3723723,911.5],[111.8969237,35.3724846,912.99],[111.8969095,35.3725852,914.62],[111.8968962,35.3726846,913.56],[111.8968475,35.3727677,913.39],[111.8968917,35.3728371,913.8],[111.8969817,35.3728902,914.17],[111.8970851,35.372937,914.78],[111.897176,35.3729965,915.28],[111.8972722,35.373053,915.63],[111.8973139,35.3731548,915.86],[111.8973542,35.3732587,916.14],[111.8974414,35.3733135,916.19],[111.89749,35.3733906,916.18],[111.8975761,35.3734367,915.94],[111.8976936,35.3734675,915.81],[111.8978076,35.3734968,916.06],[111.8979235,35.3735165,916.51],[111.8980333,35.3734783,917.04],[111.8981367,35.3734988,917.36],[111.898242,35.3734729,917.6],[111.8983287,35.37341,917.91],[111.8983953,35.373451,918.04],[111.8984545,35.3734051,918.19],[111.8987072,35.3731927,916.17],[111.8986425,35.3733375,914.98],[111.8985888,35.373455,913.94],[111.8984778,35.3735056,913.78],[111.8984359,35.3734162,913.87],[111.8983622,35.3734872,914.57],[111.8984728,35.3734527,915.69],[111.8984728,35.3734527,915.69],[111.8984728,35.3734527,915.69],[111.8984728,35.3734527,915.69]]},"properties":{"id":"LS-19","name":"LS-19","reserve_code":"SXNR-06","reserve_name":"历山国家级自然保护区","match_type":"strict","match_distance_km":null,"point_count":394,"distance_meters":3991.46,"elevation_min":652.66,"elevation_max":938.57,"elevation_gain":379.63,"elevation_loss":134.68,"start_point":{"lng":111.8735478,"lat":35.3630894},"end_point":{"lng":111.8984728,"lat":35.3734527},"bbox":[111.8735478,35.3630894,111.8987072,35.3735165],"start_time":null,"end_time":null,"duration_seconds":null,"extra":{"pos_start_name":"历山风景区","pos_end_name":"历山风景区","track_tags":"徒步","creator":"_"}}}]}