{"type":"FeatureCollection","features":[{"type":"Feature","geometry":{"type":"LineString","coordinates":[[111.8744915,35.3609835,672.41],[111.8746089,35.3610216,672.41],[111.8747105,35.3610559,671.54],[111.8748159,35.3610902,670.13],[111.8749304,35.3611263,669.17],[111.875045,35.3611487,668.95],[111.8751755,35.3611812,668.99],[111.8753041,35.3612305,668.15],[111.8754398,35.3612685,666.87],[111.8755738,35.3612962,665.9],[111.87569,35.3613082,664.58],[111.8758045,35.3613117,665.37],[111.8759241,35.3613214,665.64],[111.8760348,35.3613509,665.43],[111.8761477,35.3614011,665.78],[111.8762604,35.3613852,665.55],[111.8763768,35.3613638,665.8],[111.8764907,35.3613637,667.54],[111.8766209,35.3613681,668.72],[111.8767444,35.3613951,669.16],[111.8768317,35.3614613,668.31],[111.8768005,35.3613904,668.14],[111.8768364,35.3615317,668.73],[111.876829,35.3615258,669.07],[111.8767461,35.361456,669.5],[111.8768615,35.361428,670.19],[111.8769694,35.3614708,670.27],[111.8770667,35.3615402,670.95],[111.8771825,35.3615819,670.08],[111.8772969,35.3616059,669.87],[111.8774288,35.3616273,669.1],[111.8775603,35.361605,667.85],[111.8776819,35.3615917,666.1],[111.8778042,35.3615626,665.64],[111.8779261,35.3615568,666.31],[111.8780497,35.3615368,666.75],[111.8781589,35.3615532,667.46],[111.8782593,35.3615141,669.8],[111.8782876,35.3614276,670.62],[111.878394,35.3613987,671.53],[111.8785223,35.3613968,673.62],[111.8786366,35.3614354,675.79],[111.8787543,35.3614589,674.93],[111.8788674,35.3614711,674.16],[111.8789779,35.3615077,673.12],[111.8790807,35.3615863,672.11],[111.8791864,35.3616122,673.16],[111.8792855,35.3616745,672.48],[111.8793978,35.3617005,673.69],[111.8795161,35.3617318,674.24],[111.8796337,35.3617359,674.8],[111.8797517,35.3617363,676.35],[111.8798696,35.3617299,675.65],[111.8799806,35.36175,675.88],[111.880099,35.361763,677.15],[111.8802137,35.3617619,678.21],[111.8803243,35.3617385,678.61],[111.8804364,35.3617171,679.33],[111.8805426,35.3616831,679.74],[111.8806502,35.3616487,679.98],[111.8807503,35.3616029,679.81],[111.8808583,35.3615934,679.09],[111.8809341,35.3615303,682.77],[111.8810567,35.3614997,684.49],[111.881169,35.3614651,684.6],[111.8812746,35.3614338,685.99],[111.8813753,35.3613874,687.32],[111.8814427,35.3613085,685.73],[111.8815253,35.3612386,686.44],[111.8816452,35.3612459,689.85],[111.8816982,35.361156,691.86],[111.881767,35.3610742,692.25],[111.8818557,35.3609998,689.74],[111.881956,35.3609512,687.07],[111.8820739,35.3609368,685.83],[111.8821921,35.3609432,684.26],[111.8822878,35.3609032,683.43],[111.8824044,35.3608924,688.79],[111.8825083,35.3608611,691.38],[111.882619,35.3608287,693.89],[111.8827069,35.3608751,695.3],[111.8827867,35.360945,697.32],[111.8828808,35.3609968,699.74],[111.8829915,35.3610441,700.59],[111.8831012,35.3610846,701.85],[111.883209,35.3611226,702.42],[111.883319,35.361157,704.47],[111.8834334,35.3611567,705.17],[111.8835493,35.3611276,703.64],[111.8836764,35.3611138,702.31],[111.8837972,35.3611441,701.9],[111.8839192,35.3611349,707.86],[111.884021,35.3610907,711.9],[111.8841292,35.3610661,714.65],[111.8842455,35.3610382,716.55],[111.884371,35.3610208,717.53],[111.8844834,35.361042,718.04],[111.8845448,35.360961,717.89],[111.8846154,35.3610451,719.79],[111.8847035,35.3611085,719.53],[111.8848162,35.3611423,717.25],[111.8849297,35.361184,718.58],[111.8850279,35.3612445,720.41],[111.8851145,35.3613096,720.64],[111.8852115,35.3613573,721.25],[111.8853066,35.3614094,721.59],[111.885414,35.3614391,720.98],[111.8855289,35.3614329,719.96],[111.8856521,35.3614246,719.18],[111.8857597,35.3613926,722.44],[111.8857697,35.3613008,726.91],[111.885884,35.3613111,729.2],[111.8859887,35.361278,730.6],[111.8860951,35.3612382,731.51],[111.8862062,35.361245,730.48],[111.8863134,35.3612303,730.06],[111.886375,35.3613176,730.86],[111.8864855,35.3613373,733.26],[111.8865949,35.361371,734.87],[111.8866996,35.3614169,739.61],[111.8868094,35.3614326,744.82],[111.8869189,35.3614579,748.9],[111.8870185,35.3614297,753.01],[111.8871253,35.3613851,757.62],[111.8871924,35.3614614,761.52],[111.8873041,35.3614522,763.61],[111.8874162,35.3614703,770.5],[111.8873873,35.3615394,775.92],[111.8874431,35.3616023,780.42],[111.8875394,35.3616443,785.43],[111.8875008,35.3616933,790.62],[111.8874677,35.3617743,794.33],[111.8873975,35.3618553,798.37],[111.8874172,35.361947,802.37],[111.8875171,35.3620063,807.93],[111.8875933,35.3620745,812.83],[111.887705,35.3621081,819.01],[111.8878247,35.3621156,825.44],[111.8878601,35.3621106,830.43],[111.887944,35.362119,833.25],[111.8880526,35.362148,836.14],[111.8881751,35.3621537,835.34],[111.8882794,35.3621929,834.78],[111.8883664,35.362253,835.49],[111.8884391,35.3623236,835.36],[111.8884986,35.3624041,835.76],[111.8885798,35.3624731,836.54],[111.8886843,35.3624989,836.99],[111.8888147,35.3625114,837.41],[111.8889405,35.3624969,839],[111.8890003,35.3624199,843.01],[111.8890468,35.362324,845.59],[111.8891182,35.3622463,848.54],[111.8891392,35.3621552,850.78],[111.8891493,35.3620571,851.65],[111.8891627,35.3619589,852.21],[111.8892121,35.3618744,851.87],[111.8892648,35.3617902,851.34],[111.8893202,35.3617064,851.05],[111.8893029,35.361619,852.04],[111.889221,35.3616809,854.89],[111.8892875,35.3616083,859.12],[111.8891995,35.3615368,860.55],[111.8892243,35.3614482,861.41],[111.8892954,35.3613684,864.35],[111.8893917,35.3613034,866.61],[111.8895209,35.3612762,869.15],[111.8895097,35.3613663,873.43],[111.889495,35.3614586,876.42],[111.8895738,35.3615229,879.76],[111.8896476,35.3615942,882.88],[111.8897435,35.3616513,885.58],[111.8898381,35.3617092,887.96],[111.8899126,35.3617819,889.98],[111.8899966,35.3618424,891.83],[111.8901092,35.3618746,893.45],[111.890231,35.3618459,894.39],[111.890342,35.361846,896.22],[111.8904543,35.3618305,898.69],[111.8905795,35.3618473,901.3],[111.8906789,35.3619049,902.38],[111.8907716,35.3619693,903.54],[111.8908581,35.3620363,904.07],[111.8909733,35.3619883,905.53],[111.8910699,35.3619377,907.47],[111.8911611,35.361866,907.48],[111.8912659,35.3618237,907.38],[111.8913636,35.3618666,907.17],[111.8914455,35.361941,907.38],[111.8915594,35.36199,908.36],[111.8916617,35.3620408,909.29],[111.891708,35.3621207,906.5],[111.8917768,35.3621937,904.1],[111.8918498,35.3622766,900.93],[111.8919169,35.3623562,898.79],[111.8919754,35.3624347,897.13],[111.8920424,35.3625133,896.13],[111.8921342,35.3625808,894.81],[111.8922329,35.3626384,897.54],[111.8923461,35.3626706,899.04],[111.8924645,35.362631,900.17],[111.892543,35.3625518,901.39],[111.8925836,35.3624514,903.37],[111.8926603,35.362381,904.78],[111.8927545,35.3624308,902.37],[111.8928733,35.3624682,900.06],[111.8929919,35.3624588,900.2],[111.8930895,35.3624051,900.8],[111.8931865,35.3623545,902.21],[111.8932606,35.3622847,905.01],[111.8933154,35.3621875,907.38],[111.8933382,35.3620903,908.47],[111.893408,35.3620083,908.82],[111.8935136,35.3619875,909.8],[111.8936045,35.3619406,911.17],[111.893712,35.3619053,911.27],[111.8938049,35.3618491,911.4],[111.8938815,35.3617756,911.36],[111.8939336,35.3616861,911.72],[111.8939613,35.3615902,911.46],[111.8939679,35.3614879,911.1],[111.8939244,35.3613914,910.53],[111.8939491,35.3613062,911.19],[111.8939812,35.3612816,912.73],[111.8941048,35.3613001,913.57],[111.8942113,35.3612715,914.26],[111.8943209,35.3612301,914.03],[111.8944119,35.3611612,913.88],[111.8944984,35.3610957,914.24],[111.8945703,35.3610182,914.34],[111.8946337,35.3609392,914],[111.8947176,35.3608669,912.84],[111.8948265,35.3608359,912.09],[111.8949411,35.360877,911.8],[111.8950672,35.3609097,911.73],[111.8951876,35.3609421,911.67],[111.8952735,35.3610208,911.35],[111.8953756,35.361076,909.95],[111.8954836,35.361053,909],[111.8955818,35.3610005,909.32],[111.8956896,35.3609577,910.24],[111.8957992,35.36093,911.17],[111.895919,35.3609067,912.84],[111.8960435,35.3608975,913.26],[111.8961595,35.3608999,914.15],[111.8962797,35.3608904,914.92],[111.8964067,35.360885,915.07],[111.8965317,35.3608964,915.34],[111.8966454,35.36093,914.44],[111.8967571,35.3609364,913.66],[111.8968444,35.3608899,913.16],[111.8969297,35.3608196,912.74],[111.8970225,35.3607559,912.44],[111.8971018,35.3606853,913.16],[111.8971742,35.3606138,914.29],[111.8972734,35.3605559,914.87],[111.897392,35.3605167,915.59],[111.8975194,35.3604871,916.34],[111.897589,35.3604154,916.7],[111.897589,35.3604154,916.7]]},"properties":{"id":"LS-20","name":"LS-20","reserve_code":"SXNR-06","reserve_name":"历山国家级自然保护区","match_type":"approximate","match_distance_km":1.065,"point_count":260,"distance_meters":2750.14,"elevation_min":664.58,"elevation_max":916.7,"elevation_gain":317.12,"elevation_loss":72.83,"start_point":{"lng":111.8744915,"lat":35.3609835},"end_point":{"lng":111.897589,"lat":35.3604154},"bbox":[111.8744915,35.3604154,111.897589,35.3626706],"start_time":null,"end_time":null,"duration_seconds":null,"extra":{"pos_start_name":"历山风景区","pos_end_name":"历山风景区","track_tags":"徒步","creator":"_"}}}]}