{"type":"FeatureCollection","features":[{"type":"Feature","geometry":{"type":"LineString","coordinates":[[112.0003124,35.3643847,864.98],[112.0003094,35.3643266,864.98],[112.0003496,35.3643769,863.11],[112.0002849,35.3644787,855.86],[112.0001827,35.3645166,851.01],[112.0002604,35.3644679,848.7],[112.000427,35.3644008,850.09],[112.0006099,35.3643308,850.65],[112.0007884,35.3642672,851.06],[112.0008894,35.364226,852.05],[112.0009958,35.3641929,853.2],[112.0011342,35.3641358,853.65],[112.0012323,35.3640889,854.45],[112.0013376,35.3640371,854.95],[112.0014302,35.3639695,854.7],[112.0015388,35.3638947,854.22],[112.001634,35.3638296,853.81],[112.0017263,35.3637656,853.63],[112.0018207,35.3637033,853.56],[112.0018838,35.3636207,853.31],[112.0019905,35.3635593,849.07],[112.0020883,35.363533,847.63],[112.002183,35.3634746,847.76],[112.0022772,35.3634096,847.96],[112.0023777,35.363318,848.17],[112.0024581,35.3632264,847.79],[112.002532,35.363139,847.06],[112.0025945,35.3630545,846.15],[112.0026507,35.3629698,844.95],[112.0027427,35.3628695,843.61],[112.0028255,35.3627726,841.23],[112.0029039,35.3626898,839.64],[112.0029721,35.3626084,838.58],[112.0030278,35.3625293,837.91],[112.0030822,35.3624465,837.58],[112.0031693,35.3623511,837.38],[112.0030886,35.36242,837.27],[112.0032164,35.3624033,837.57],[112.0033192,35.362303,837.6],[112.0034148,35.3621948,837.36],[112.0035111,35.3620925,836.53],[112.0035896,35.3620092,835.19],[112.0036731,35.3619093,834],[112.0037392,35.3618185,833.7],[112.0038006,35.3617242,833.66],[112.0038479,35.3616081,833.67],[112.003857,35.361509,833.73],[112.0037396,35.3615547,833.82],[112.0038493,35.3615713,836.05],[112.0038524,35.3614751,835.24],[112.0038523,35.3613849,836.93],[112.0038113,35.3613021,836.17],[112.0038757,35.3613932,835.98],[112.0039763,35.3614633,834.73],[112.0038537,35.3613641,834.86],[112.0038159,35.3612638,834.04],[112.0038178,35.3611585,833.84],[112.0038483,35.3610526,833.92],[112.0038552,35.3609537,833.57],[112.0038584,35.3608571,833.28],[112.0038734,35.3607513,833.01],[112.0038965,35.3606408,832.06],[112.0039242,35.3605395,830.92],[112.0039194,35.3604294,830.09],[112.0039532,35.3603061,830.41],[112.0040262,35.3601882,829.54],[112.0040965,35.3600773,828.31],[112.0041639,35.3599771,828.63],[112.0042293,35.3598774,829.09],[112.0043078,35.3597816,829.66],[112.0043995,35.3596908,830.1],[112.0044628,35.3596083,829.9],[112.0045377,35.3595183,829.18],[112.00459,35.3594284,827.57],[112.0046311,35.3593258,825.8],[112.0046754,35.3592302,824.09],[112.0047237,35.3591294,822.38],[112.0047796,35.3590259,820.41],[112.0048335,35.3589245,818.01],[112.0048894,35.3588115,816.23],[112.0049381,35.3587194,817.67],[112.0049847,35.3586122,818.39],[112.005018,35.3584876,818.76],[112.0050518,35.3583823,819.27],[112.0050949,35.3582864,819.7],[112.0051497,35.3581936,819.97],[112.0052217,35.358113,820.09],[112.0052751,35.3580265,820.49],[112.0053614,35.3579347,821.04],[112.0054612,35.357838,821.53],[112.005562,35.3577533,822.31],[112.0056265,35.3577283,822.23],[112.0057963,35.357601,821.51],[112.0058888,35.3575051,818.31],[112.006,35.3574261,816.61],[112.0060961,35.3573417,815.38],[112.0062037,35.357261,814.68],[112.0062742,35.3571691,814.28],[112.0063468,35.3570799,811.41],[112.0064145,35.3570018,809.5],[112.0064916,35.3569039,808.14],[112.0065603,35.3568197,806.93],[112.0066391,35.356724,805.92],[112.0067128,35.3566184,804.42],[112.0068001,35.3565185,802.58],[112.0068902,35.3564391,801.31],[112.0069659,35.3563646,800.55],[112.0070591,35.3562779,800.24],[112.0071892,35.3561974,800.31],[112.007317,35.3561219,800.59],[112.0074351,35.3560392,801.09],[112.0075391,35.3559517,801.69],[112.0076257,35.3558742,802.08],[112.0077257,35.3557874,802.45],[112.0078272,35.3557068,802.69],[112.0079244,35.355609,802.26],[112.0080006,35.3555042,801.04],[112.0080692,35.3554225,799.67],[112.0081395,35.3553493,798.5],[112.008228,35.3552533,797.77],[112.0083365,35.3551734,796.93],[112.008476,35.3551205,795.64],[112.0086273,35.3550735,794.65],[112.0087431,35.355031,793.23],[112.008859,35.3549575,792.39],[112.008972,35.3548918,792.23],[112.0090732,35.3548263,792.22],[112.0091698,35.3547276,792.23],[112.0092148,35.3546261,791.69],[112.0092214,35.3545158,791],[112.0092207,35.3543936,790.93],[112.0092358,35.354278,791.34],[112.0093055,35.3541904,792.03],[112.0093986,35.3541285,791.59],[112.009399,35.3540356,789.93],[112.009395,35.3540084,786.75],[112.0093212,35.3539679,783.31],[112.009389,35.3540178,777.09],[112.0092681,35.3539184,772.72],[112.0091718,35.3538447,768.92],[112.0091195,35.35376,766.98],[112.0091196,35.3536691,765.88],[112.0091353,35.3535586,764.97],[112.0091389,35.3534612,764.22],[112.0091873,35.3533697,763.79],[112.0092397,35.3532638,763.54],[112.0092879,35.3531613,763.4],[112.0093273,35.3530632,763.33],[112.0093608,35.352949,763.28],[112.0093915,35.3528411,763.25],[112.0094351,35.3527383,763.24],[112.0094683,35.3526153,761.46],[112.0094795,35.3524835,760.9],[112.0094095,35.352379,760.76],[112.0092809,35.3522859,760.15],[112.0091842,35.3521992,759.09],[112.0090999,35.3521082,758.23],[112.0090319,35.3520101,757.6],[112.0089757,35.3519061,756.61],[112.0089084,35.3517962,755.78],[112.0088513,35.3516953,755.07],[112.0087848,35.3515923,754.43],[112.0087317,35.3514982,753.85],[112.0086831,35.351412,753.9],[112.0086181,35.3513283,753.89],[112.0085394,35.3512378,753.89],[112.008472,35.351142,753.7],[112.0083985,35.3510444,753.84],[112.0083365,35.3509499,753.92],[112.0082623,35.3508541,754.4],[112.0081899,35.3507599,754.5],[112.0081129,35.3506562,754.43],[112.0080378,35.3505495,754.84],[112.0079436,35.3504603,755.66],[112.0078553,35.350365,756.51],[112.0077791,35.3502895,757.04],[112.0076813,35.3502104,757.39],[112.0075853,35.3501153,757.63],[112.0074958,35.3500145,758.01],[112.0074506,35.3499199,758.64],[112.0073866,35.3498263,759.18],[112.0073023,35.34973,759.41],[112.0072398,35.3496232,759.11],[112.0072077,35.3495033,758.91],[112.0071643,35.3493879,758.37],[112.0071368,35.3492722,757.77],[112.0071006,35.3491677,757.36],[112.0070483,35.3490625,757.12],[112.0070184,35.3489527,756.49],[112.0069569,35.3488481,756.18],[112.006895,35.3487498,755.87],[112.0068461,35.348636,755.92],[112.0068098,35.3485127,756.22],[112.006782,35.348413,757.34],[112.0067508,35.3483103,758.43],[112.0067046,35.3481951,759.44],[112.0066899,35.348087,760.48],[112.0066685,35.3479731,761.64],[112.0066458,35.3478548,763.07],[112.0066136,35.3477331,764.66],[112.0065819,35.3476046,766.14],[112.0065493,35.3475035,767.35],[112.0065047,35.3474138,766.79],[112.0064433,35.3473046,766.66],[112.0063941,35.3471933,766.64],[112.0063534,35.3470931,766.83],[112.0063147,35.3469919,767.36],[112.0062756,35.3468923,767.87],[112.0062259,35.3467824,767.95],[112.0061747,35.3466617,767.66],[112.0061175,35.3465468,767.22],[112.006011,35.3464506,767.21],[112.0058998,35.3463756,765.84],[112.0057851,35.3463047,765.17],[112.0056555,35.3462423,764.68],[112.0055244,35.3461922,764.18],[112.0054033,35.3461428,762.83],[112.0052898,35.3461004,761.57],[112.0051753,35.3460489,760.58],[112.0050531,35.3459927,758.87],[112.0049496,35.34594,757.35],[112.0048891,35.3459242,755.71],[112.0049238,35.345846,754.32],[112.0048231,35.3458076,754.48],[112.004705,35.3457889,755.17],[112.0045876,35.3458186,754.75],[112.0044964,35.3458818,753.76],[112.0045597,35.3458014,753.69],[112.004656,35.3458536,753.48],[112.0047499,35.3459082,754.06],[112.0048489,35.3458413,753.78],[112.0049402,35.3458933,752.55],[112.0047965,35.3458609,752.48],[112.0046105,35.3458624,752.8],[112.0044272,35.3458756,752.74],[112.0042464,35.3458919,752.46],[112.0040715,35.3459091,752.34],[112.0039214,35.3459296,752.31],[112.0037925,35.3459517,752.46],[112.0036376,35.3459664,752.58],[112.0035138,35.3459727,752.74],[112.0033847,35.345978,753.11],[112.003257,35.3459883,753.41],[112.0031088,35.345994,753.06],[112.0029788,35.3460062,752.83],[112.0028629,35.3460191,752.63],[112.002746,35.3460285,751.77],[112.0026221,35.346044,751.26],[112.0025021,35.3460683,750.81],[112.0023663,35.3461037,750.56],[112.0022191,35.3461006,750.27],[112.0020774,35.3460652,750.42],[112.0019609,35.346015,750.9],[112.0018522,35.3459775,751.8],[112.0017247,35.3459542,752.83],[112.0015974,35.3459297,753.56],[112.0014469,35.3459249,754.75],[112.0012919,35.34594,755.74],[112.0011326,35.345959,755.42],[112.0009844,35.345983,754.61],[112.0008382,35.3460047,754.02],[112.0006998,35.3460134,753.84],[112.0005633,35.3460172,754.18],[112.0004105,35.3460147,755.11],[112.0002537,35.3459757,756.27],[112.0001346,35.3458769,757.31],[112.0000063,35.3457473,758.28],[111.9999091,35.3456359,759.09],[111.9998056,35.34556,759.76],[111.9996932,35.3455196,760.49],[111.9995635,35.345488,761.31],[111.9994156,35.3454611,762.36],[111.9992974,35.345424,763.5],[111.9992006,35.345366,764.46],[111.9991216,35.3453166,765.28],[111.9990073,35.3452631,765.98],[111.9989153,35.3451995,766.32],[111.998827,35.3451418,767.23],[111.9987361,35.3450771,767.44],[111.9986648,35.3449961,768.41],[111.9986192,35.3448895,769.63],[111.9985921,35.3447767,769.68],[111.9985752,35.3446457,769.52],[111.9985461,35.3444913,769.33],[111.9985138,35.3443288,769.09],[111.9984772,35.34416,769.22],[111.9984338,35.3439877,769.52],[111.9984098,35.3438711,769.38],[111.9983957,35.3437755,769.17],[111.9983809,35.3436788,768.91],[111.9983617,35.3435715,768.59],[111.9983531,35.3434522,768.23],[111.9983369,35.3433386,767.94],[111.9983269,35.3432374,767.53],[111.9983409,35.3430797,767.3],[111.9983672,35.3429669,767.19],[111.9984192,35.3428431,767.17],[111.9984951,35.3427692,767.19],[111.9984818,35.3426803,767.24],[111.9984566,35.342567,767.07],[111.9983573,35.3424996,766.89],[111.9982298,35.3425194,766.48],[111.9980815,35.3425609,765.98],[111.9979284,35.3426018,765.33],[111.997804,35.3426353,764.72],[111.9976913,35.3426618,763.98],[111.9975526,35.3426885,762.97],[111.9974181,35.3427366,761.77],[111.9973431,35.342817,759.96],[111.99733,35.3429169,758.66],[111.9973424,35.3430281,757.56],[111.9973279,35.3431526,757.3],[111.9972688,35.3432707,756.98],[111.9971793,35.3433505,756.83],[111.9970576,35.3434258,756.58],[111.9969348,35.3434783,756.26],[111.9968209,35.3435316,755.99],[111.9966981,35.3435956,755.83],[111.9965863,35.3436683,755.73],[111.9964873,35.3437502,755.71],[111.9964082,35.3438411,755.76],[111.996281,35.3439175,755.49],[111.9961418,35.343941,755.03],[111.9960052,35.3439428,754.89],[111.9958599,35.3439287,754.57],[111.9957283,35.343921,754.37],[111.9956134,35.3439107,753.64],[111.9954854,35.3438996,753.18],[111.9953473,35.3438834,752.72],[111.995197,35.3438584,751.99],[111.9951685,35.3438461,750.28],[111.9953243,35.3438289,747.77],[111.995208,35.3438178,749.2],[111.9949997,35.3437839,749.52],[111.9948662,35.3437549,749.23],[111.9947554,35.3437308,748.94],[111.9946518,35.3437079,748.61],[111.9945488,35.3436816,748.31],[111.9944,35.3436368,748.19],[111.9942275,35.3435942,748.23],[111.9940529,35.3435611,748.53],[111.9938776,35.3435543,748.93],[111.9936968,35.3436013,749.15],[111.9935474,35.3436857,749.11],[111.9934332,35.3437751,749.43],[111.9933169,35.3438578,749.96],[111.9932046,35.3439415,750.44],[111.9930774,35.3440196,750.84],[111.9929387,35.3440826,751.11],[111.9927745,35.3441164,751.12],[111.9926251,35.3441468,750.36],[111.9924712,35.344164,749.78],[111.9923305,35.3441893,749.7],[111.9922038,35.3442148,749.76],[111.9920558,35.34423,749.89],[111.9919185,35.3442239,750.23],[111.9918168,35.3442834,750.81],[111.991699,35.3443617,751.26],[111.9915696,35.3444217,751.42],[111.9914334,35.3444779,751.43],[111.9912906,35.3445258,751.31],[111.9911671,35.3446015,751.38],[111.9910282,35.3447104,751.58],[111.990916,35.3447933,751.84],[111.9908246,35.3448899,752.21],[111.990725,35.3448919,752.79],[111.9908352,35.3448918,753.99],[111.9906883,35.3449933,758.02],[111.9905665,35.3450862,759.05],[111.9904395,35.345194,759.55],[111.9903187,35.3452896,759.81],[111.990208,35.3453606,760.1],[111.9901082,35.3454092,760.25],[111.9900127,35.3454558,760.28],[111.9899086,35.3455062,760.09],[111.9897867,35.3455611,759.82],[111.9896534,35.3456156,759.37],[111.989525,35.3456712,758.95],[111.9893919,35.345745,758.65],[111.9892794,35.345831,759.71],[111.9892054,35.3459407,760.7],[111.9891416,35.3460399,761.6],[111.9890813,35.3461203,762.38],[111.9889965,35.3461865,763.02],[111.9889067,35.3462577,766.75],[111.9887812,35.3463375,769.02],[111.9886336,35.3464134,770.46],[111.9884795,35.346484,771.58],[111.9883308,35.346551,772.54],[111.98818,35.3466158,773.86],[111.9880448,35.3467018,775.57],[111.9879648,35.3468406,777.72],[111.9879509,35.3470003,779.33],[111.9879507,35.3471374,780.52],[111.9879436,35.3472416,781.01],[111.9879101,35.3473264,781.3],[111.9878531,35.3474186,781.97],[111.987788,35.3474958,783.34],[111.9876934,35.3475906,783.5],[111.9876042,35.3476998,783.35],[111.9875296,35.3478079,783.24],[111.9874544,35.3479062,783.06],[111.9873805,35.3480123,783.02],[111.9872884,35.3481257,782.89],[111.9871608,35.3482251,782.68],[111.9869984,35.3483067,782.13],[111.9868375,35.3483743,781.63],[111.9866838,35.3484271,781.17],[111.9865331,35.3484784,780.71],[111.9863831,35.3485348,780.33],[111.986217,35.3485931,780.24],[111.986058,35.3486514,780.51],[111.9859176,35.3487325,780.63],[111.9857978,35.3488477,780.73],[111.9857068,35.34897,780.59],[111.985603,35.349104,780.53],[111.9854865,35.3492389,780.38],[111.9853737,35.3493602,780.4],[111.9852458,35.3494649,780.36],[111.9851152,35.3495698,780.38],[111.9849593,35.349667,780.45],[111.9847857,35.3497197,780.35],[111.9847148,35.3497225,780.23],[111.9846427,35.3497718,779.8],[111.9845446,35.3497648,778.55],[111.9844571,35.3497104,778.62],[111.9843613,35.3496544,779.36],[111.9842603,35.3495809,780.76],[111.9842372,35.3494669,780.44],[111.9842386,35.3495598,780.05],[111.984357,35.349551,781.43],[111.9843584,35.3496442,781.71],[111.9843584,35.3496442,781.71]]},"properties":{"id":"LS18","name":"LS18","reserve_code":"SXNR-N02","reserve_name":"山西历山国家级自然保护区","match_type":"strict","match_distance_km":null,"point_count":433,"distance_meters":5494.65,"elevation_min":747.77,"elevation_max":864.98,"elevation_gain":111.23,"elevation_loss":194.5,"start_point":{"lng":112.0003124,"lat":35.3643847},"end_point":{"lng":111.9843584,"lat":35.3496442},"bbox":[111.9842372,35.3424996,112.0094795,35.3645166],"start_time":null,"end_time":null,"duration_seconds":null,"extra":{"pos_start_name":"舜峰农家乐","pos_end_name":"杨家河桥","track_tags":"徒步","creator":"zs_3410995"}}}]}