{"type":"FeatureCollection","features":[{"type":"Feature","geometry":{"type":"MultiPolygon","coordinates":[[[[111.39767163279905,37.89698243344915],[111.39860954484585,37.89686484171206],[111.40041502322849,37.89697313414223],[111.40193110666306,37.896967968026054],[111.40301246355477,37.89667822139367],[111.40416350405421,37.89593054542986],[111.40509700268514,37.895011977047275],[111.405741396998,37.89403718742708],[111.40645513601322,37.892547265537004],[111.40724386978788,37.89157196890316],[111.40846729215941,37.890881210681954],[111.40990915797127,37.89053293943978],[111.41091883753849,37.8903577891663],[111.41301196604266,37.890293255186165],[111.41380379102992,37.8898900036244],[111.41502744492286,37.889256386145455],[111.41739992194815,37.88753169769606],[111.41876560714857,37.886497067545086],[111.4203510541961,37.88603373720572],[111.42244470531661,37.886083453383925],[111.4242486388251,37.88596254663561],[111.42562144290531,37.88618643204365],[111.42713630892895,37.88600931608025],[111.42850481250511,37.88548945233739],[111.42947272419447,37.88479262958331],[111.42910257109035,37.88487063413884],[111.4281885087763,37.88517128458517],[111.42761553969638,37.88519486729109],[111.42758830047366,37.885195988799865],[111.4274318475766,37.88478214755899],[111.42739782291972,37.884692148165314],[111.427515902367,37.883732213599146],[111.42752521108874,37.883286272486075],[111.42754372132892,37.88239869974914],[111.42729094288171,37.88082296546061],[111.42696713417276,37.87912358128151],[111.42681928674064,37.8787375583691],[111.42638651955312,37.87760760195855],[111.42611180656935,37.87726561331563],[111.42556861042512,37.87658939294825],[111.42549711874369,37.87650039319834],[111.42533124679639,37.87635285152532],[111.42520317599846,37.876238935909285],[111.42471024292453,37.875800485897074],[111.4242613020465,37.87493493570964],[111.42396646262704,37.873688182332074],[111.42360921701135,37.87258355009402],[111.42314404967895,37.871609939407335],[111.422787765995,37.8705435908666],[111.42276753095548,37.8702617034154],[111.42272003408037,37.86959982203336],[111.42271908330738,37.86958657977689],[111.42276768919044,37.86876879634998],[111.42278152607769,37.86841515154263],[111.42280798694665,37.86773929924062],[111.42284427067956,37.86753093201831],[111.42285661241795,37.86746005459761],[111.4230858246009,37.866143615338004],[111.42355542178636,37.86481813029911],[111.42357396996972,37.864765773678855],[111.42368246259363,37.864459520905235],[111.4237561646025,37.86425147362306],[111.42449880773468,37.86283429438515],[111.42484932458709,37.86227669428522],[111.4249261762412,37.86219004431945],[111.4249675664278,37.86214337737631],[111.42525293346436,37.8618216189538],[111.42526215692432,37.86181122117617],[111.42537647543813,37.861682424543964],[111.42585482013712,37.86112819572902],[111.4259755140371,37.86098835779547],[111.42646451166316,37.86042177470911],[111.42602338753886,37.86079844294836],[111.42563424040472,37.861097820607135],[111.425364464462,37.86124182044712],[111.4249740804503,37.86132666204981],[111.42458376390044,37.861423419811025],[111.42431316587417,37.86142439525079],[111.42356170824348,37.86146285750101],[111.42195219820667,37.8613017723055],[111.42079430156625,37.86124632120199],[111.4195909011997,37.86111950837505],[111.41924351804379,37.8608346939746],[111.4187669010649,37.86070734588358],[111.41840186509121,37.86087344349703],[111.41813362445247,37.86129155543845],[111.41790687194919,37.861485124793305],[111.41749603487838,37.86152171366053],[111.41649325969226,37.860987479240265],[111.41534081900349,37.86038030296326],[111.41391562282237,37.86017027405041],[111.41270932804217,37.85951897158507],[111.41210568975613,37.85910392649792],[111.4115749042959,37.85827146609554],[111.41089512763874,37.85767789984588],[111.41009740241091,37.85707671570667],[111.40889336300695,37.85681868805385],[111.40743437463402,37.856668800698635],[111.40641126166439,37.85650547215358],[111.40495011433435,37.856387420684],[111.40378093724475,37.85657411418564],[111.40283649698176,37.857054101611496],[111.40205688325959,37.8574381680692],[111.4009480949389,37.85810940277021],[111.40000331356657,37.858966874753],[111.39887649641821,37.85908988514319],[111.39714804251236,37.859155320652015],[111.39609478818026,37.8589800856061],[111.39496446605469,37.85844753586355],[111.39406472561976,37.858867708151564],[111.3927149365126,37.8594681581946],[111.39166673231315,37.86024637364422],[111.39129752083355,37.86149907680314],[111.39145636416423,37.86310758955286],[111.39086099789903,37.86424185461002],[111.3904060195598,37.86463357329847],[111.38979915801316,37.8648571308164],[111.38895562534641,37.86455003039798],[111.38838165790024,37.86448843453983],[111.38778217373081,37.864847974829],[111.38665836070703,37.865566799442426],[111.38560938428594,37.866225773414904],[111.38425784586387,37.86652816151504],[111.38320359014308,37.866174033074934],[111.3824518758268,37.866176476300446],[111.38208001881124,37.86695240708312],[111.38154399437501,37.86777244380962],[111.38092427084311,37.868765116667994],[111.37988850074329,37.86986232525012],[111.379138665738,37.87087604701926],[111.37823228080488,37.87182835131414],[111.37722172633713,37.872780982329395],[111.375910342174,37.873158743258855],[111.37556457501228,37.87341379585573],[111.37520782798404,37.874225410874324],[111.37587861253084,37.8760349296591],[111.37654627630319,37.877224675152114],[111.37691200995792,37.8781770093001],[111.37734106506487,37.8797489151093],[111.3781894755172,37.8809857470383],[111.37873667712154,37.882128191571155],[111.37880195536538,37.883129159442255],[111.37886747974176,37.88417780147981],[111.37940833125818,37.884962324597254],[111.38017747939107,37.88538891962922],[111.38102287272864,37.886017882000466],[111.38182544194261,37.88708797105038],[111.38189550180506,37.888125051221856],[111.38244232109615,37.8891721279073],[111.38244700659597,37.89007793995085],[111.38191101478833,37.89112852984991],[111.38203625464736,37.89208162554072],[111.38221371948391,37.89237864380869],[111.38276062094558,37.89255602341231],[111.3832619493654,37.892851449588846],[111.38391777582768,37.89325508906185],[111.3842824472677,37.8939690236107],[111.38412811681454,37.89530450514801],[111.38783876728726,37.89426915672969],[111.38920981094505,37.89415021201296],[111.3905110764972,37.89448916333829],[111.39123511673925,37.89488722985613],[111.39225036565443,37.89574200132274],[111.39326746319428,37.89694001855568],[111.39421026267189,37.897737805053694],[111.39565416693063,37.89773296055698],[111.39644708752603,37.89750145303811],[111.39767163279905,37.89698243344915]]],[[[111.49075500198343,37.89855056217638],[111.48991116839915,37.89297327777386],[111.48917186021455,37.89034469811391],[111.4890176497103,37.88885788249593],[111.48864953732001,37.88777242249807],[111.48821038703322,37.88685888548542],[111.48704640405985,37.885490668953146],[111.48530276379647,37.88378157092602],[111.4836332536068,37.8823581919695],[111.48109060216706,37.87985136979666],[111.47927357411031,37.87791364021507],[111.47818577095143,37.877117122108714],[111.4765924069434,37.876265432617146],[111.47391612246864,37.87536087393989],[111.4713138967989,37.87474200827865],[111.46885642008296,37.874179719237866],[111.46741154256686,37.87395662349053],[111.4665425999516,37.8735023890991],[111.46552572782008,37.87247663170323],[111.46392902087679,37.871052681009516],[111.46182756263919,37.86968789895954],[111.45957758669095,37.86763713686829],[111.45849085377115,37.86695485089376],[111.45761992626898,37.86615729644979],[111.4562424643926,37.865132858837114],[111.4551596695369,37.8650798388045],[111.45444120249739,37.865597505691184],[111.45358120272286,37.86657339432924],[111.45257964993064,37.86800750242387],[111.45171924851097,37.86892616888275],[111.45056946047639,37.86973151616565],[111.44905776319037,37.870366602629964],[111.44812304298952,37.87094226518988],[111.44740550880199,37.87163151577027],[111.44654396512881,37.87237851804975],[111.44539888795472,37.87398473883341],[111.44482598679807,37.874730636035785],[111.44310241647041,37.87616738802427],[111.44181148849513,37.87754528109558],[111.43886248991207,37.87927261286153],[111.43706516773055,37.88048071081754],[111.43598789331806,37.88140006616005],[111.43505495104448,37.882318878273566],[111.43491597405959,37.88323475238839],[111.434775311989,37.88386458190374],[111.434634311334,37.88443720360019],[111.43442280576127,37.885296134850094],[111.43413810565403,37.8859837054816],[111.43367296292924,37.886423509490136],[111.43372300754315,37.886484447627424],[111.43411378727909,37.88709113932091],[111.43470557700392,37.88744481974333],[111.43479746151293,37.88745703680993],[111.43579348514515,37.88758946785006],[111.4378258322894,37.88764048865757],[111.43894169138726,37.8876516176884],[111.4395664880698,37.887657825459065],[111.44008957022083,37.88766303627872],[111.44012941596544,37.887663432379185],[111.44108522828007,37.88763097167371],[111.44132139976654,37.887622949275155],[111.44186066683413,37.887646900474216],[111.44253667431921,37.88767693552752],[111.4440959331139,37.887807497415736],[111.44511070163423,37.88789247408851],[111.44782930208234,37.88816146461083],[111.44947754329708,37.88837140473602],[111.45032678091646,37.88845917832388],[111.45048638281304,37.888475673809],[111.45155032547937,37.88864276342171],[111.45206311585606,37.888949194153504],[111.45256152256275,37.88924701719146],[111.45370543136796,37.890053465712846],[111.45444189569234,37.89032540601228],[111.45503357856161,37.89054386308436],[111.45624353382472,37.89064729428494],[111.45753312524162,37.89064227912917],[111.45890880231914,37.89077208127097],[111.45977865271581,37.890912823738],[111.46051301500682,37.891085647072565],[111.46177772588526,37.891535660486866],[111.46215935188826,37.89175521627094],[111.46216884122444,37.891760675642516],[111.46342643202415,37.89248418634308],[111.46476191164547,37.893513598651786],[111.46500794302963,37.89370324035456],[111.4651399247242,37.89382119771757],[111.4661219746821,37.89469887583106],[111.46616690257207,37.894743757441184],[111.46669689768896,37.8952732018751],[111.46711487805413,37.89563643199204],[111.46788227689281,37.89585860610959],[111.4678964207337,37.895855289394454],[111.46827665106012,37.895766125117824],[111.46839862001623,37.895725877839624],[111.46921967835581,37.895582177689214],[111.47000634791222,37.89554115119444],[111.470847757063,37.89540668224375],[111.4710532733845,37.895362371717106],[111.47174894294182,37.895212375188464],[111.47283939803607,37.89524007784891],[111.47334303232282,37.895182138792194],[111.47426108361007,37.895273794298085],[111.4749842293943,37.895461578230886],[111.47539161462275,37.89566255187629],[111.47608043405978,37.89608398262871],[111.47651246671246,37.896262106693264],[111.47704740655489,37.8964826544392],[111.47820323827322,37.896959172365285],[111.47880709994566,37.89720812149362],[111.4798812718021,37.897574322556416],[111.48098776289444,37.89795152719982],[111.48298487219978,37.89800191497543],[111.48543329492878,37.89784769853406],[111.48825802472423,37.8980792773983],[111.49003155410139,37.89841402287168],[111.49075500198343,37.89855056217638]]],[[[111.42460251212628,37.83441479291245],[111.42291392775317,37.83424107696763],[111.42264483538209,37.83471376709827],[111.42242689299005,37.8350966008101],[111.42209113452445,37.835568505241476],[111.42150985679044,37.83641682643252],[111.42118370876153,37.83720463839581],[111.42111425896296,37.83820607007606],[111.4211821631322,37.838734336081494],[111.42101234158899,37.83955689356639],[111.420674772744,37.84021000871047],[111.42067707434778,37.84061524145937],[111.42106198193362,37.84117168055984],[111.421265738571,37.84191649333814],[111.42104147649596,37.84268761186087],[111.42049536813326,37.84330221188677],[111.42017442835188,37.84380563921336],[111.4202809753881,37.84443817994807],[111.42077939648263,37.8450535561944],[111.42123675814031,37.84543933380518],[111.42126687580935,37.845741046058066],[111.42074435976885,37.84613708111453],[111.42026970200453,37.846708628616],[111.42054154596318,37.847437431449336],[111.42070313774974,37.84784988793615],[111.42112595767694,37.848194023062916],[111.42118190358879,37.84832947582374],[111.4213380806596,37.84849123529552],[111.42157190816623,37.84854385070877],[111.42173327683817,37.848669532474766],[111.4219575275191,37.84904920250568],[111.42253264017114,37.84973843299717],[111.42286672259091,37.850333175599204],[111.42330486901632,37.85072492303581],[111.42370334366218,37.8511686177632],[111.42392026224695,37.85153367977078],[111.42411006652223,37.8523047557426],[111.42432741707903,37.85318771781024],[111.42449628446921,37.85384831421468],[111.42454750449366,37.854048680983475],[111.42455757628439,37.854088082668866],[111.4247262014218,37.85474771279185],[111.4248221349495,37.855122987162474],[111.42510496478776,37.85573401747108],[111.42548515258433,37.85655536332129],[111.42632042544066,37.85730914518972],[111.4271078772075,37.85777253697715],[111.42759066525166,37.85799151904796],[111.42777856708464,37.858184542446125],[111.42775747012332,37.858590046129095],[111.42738781127733,37.859269355780725],[111.42688376669275,37.859899149053064],[111.4265689030222,37.86029255877702],[111.42651531239606,37.86035951651639],[111.42646758181236,37.860419153552655],[111.42646451166316,37.86042177470911],[111.4259755140371,37.86098835779547],[111.42585482013712,37.86112819572902],[111.42537647543813,37.861682424543964],[111.42526215692432,37.86181122117617],[111.42525293346436,37.8618216189538],[111.4249675664278,37.86214337737631],[111.4249261762412,37.86219004431945],[111.42484932458709,37.86227669428522],[111.42449880773468,37.86283429438515],[111.4237561646025,37.86425147362306],[111.42368246259363,37.864459520905235],[111.42357396996972,37.864765773678855],[111.42355542178636,37.86481813029911],[111.4230858246009,37.866143615338004],[111.42285661241795,37.86746005459761],[111.42284427067956,37.86753093201831],[111.42280798694665,37.86773929924062],[111.42278152607769,37.86841515154263],[111.42276768919044,37.86876879634998],[111.42271908330738,37.86958657977689],[111.42272003408037,37.86959982203336],[111.42276753095548,37.8702617034154],[111.422787765995,37.8705435908666],[111.42314404967895,37.871609939407335],[111.42360921701135,37.87258355009402],[111.42396646262704,37.873688182332074],[111.4242613020465,37.87493493570964],[111.42471024292453,37.875800485897074],[111.42520317599846,37.876238935909285],[111.42533124679639,37.87635285152532],[111.42549711874369,37.87650039319834],[111.42556861042512,37.87658939294825],[111.42611180656935,37.87726561331563],[111.42638651955312,37.87760760195855],[111.42681928674064,37.8787375583691],[111.42696713417276,37.87912358128151],[111.42729094288171,37.88082296546061],[111.42754372132892,37.88239869974914],[111.42752521108874,37.883286272486075],[111.427515902367,37.883732213599146],[111.42739782291972,37.884692148165314],[111.4274318475766,37.88478214755899],[111.42758830047366,37.885195988799865],[111.42761553969638,37.88519486729109],[111.4281885087763,37.88517128458517],[111.42910257109035,37.88487063413884],[111.42947272419447,37.88479262958331],[111.43066130592106,37.883936912668894],[111.43173734886494,37.882788770786696],[111.43281268886805,37.88152620106585],[111.43539867489051,37.879399892846024],[111.43740982042223,37.87773334658147],[111.43920605154887,37.876353616719854],[111.44150844784477,37.8751435934732],[111.44294642245686,37.87422283052826],[111.44337396867385,37.87330585945718],[111.4439458437453,37.872388342583385],[111.4446620434047,37.871470277832934],[111.44595281308898,37.87009235218172],[111.44846932313777,37.86853812009709],[111.44990325755145,37.86698797572248],[111.45147866652935,37.864979589374826],[111.45233552761296,37.86348883509849],[111.45261612612263,37.86217192243511],[111.45253802082293,37.86119964848851],[111.45195201544149,37.85977164264114],[111.45158389790662,37.85857163969183],[111.45092577632714,37.857143904551315],[111.44998011021431,37.85588889536587],[111.44867405804803,37.854692462864115],[111.44700418202407,37.85298250340947],[111.44526016989842,37.85092953786752],[111.44409720667545,37.849503670018365],[111.44329775947142,37.84853410566341],[111.44271545383268,37.84767814060335],[111.4427120345655,37.84710604901263],[111.44321123101929,37.84613159523016],[111.44363964335676,37.84538624719601],[111.44327549981263,37.844815513785164],[111.44226105438005,37.844075591916614],[111.44124628835118,37.84327845224049],[111.4400144415543,37.84236769376936],[111.4384957580033,37.8417440430998],[111.43740959987196,37.84106155597914],[111.43639560141314,37.84037879224477],[111.4350205938625,37.8396401426434],[111.43415225248405,37.83918566283085],[111.43371540590135,37.83850074662139],[111.43306282812328,37.837931042556534],[111.43255319541439,37.83713196816425],[111.43204357376307,37.83633289139107],[111.4312460914565,37.83564928801747],[111.43008862032669,37.83508141474511],[111.42864395816243,37.834743417427575],[111.42784883704633,37.83446025563204],[111.42604517696675,37.83440958296913],[111.42460251212628,37.83441479291245]]],[[[111.4475301856337,37.9018012191522],[111.44850534472974,37.901380351619125],[111.44918256650345,37.90143736351247],[111.45045817425361,37.90095574033925],[111.45150669163523,37.90023660000874],[111.45285856230637,37.89993343947065],[111.45443420555115,37.899331431613284],[111.45605776757928,37.89943384326275],[111.45789250025273,37.899139249939665],[111.45886904553473,37.89895666584305],[111.46059316665729,37.89805602950773],[111.4629929250486,37.89721372653334],[111.46471750288188,37.89684884823396],[111.46575813251651,37.89642228812032],[111.46725889228051,37.89610195440549],[111.46827665106012,37.895766125117824],[111.4678964207337,37.895855289394454],[111.46788227689281,37.89585860610959],[111.46711487805413,37.89563643199204],[111.46669689768896,37.8952732018751],[111.46616690257207,37.894743757441184],[111.4661219746821,37.89469887583106],[111.4651399247242,37.89382119771757],[111.46500794302963,37.89370324035456],[111.46476191164547,37.893513598651786],[111.46342643202415,37.89248418634308],[111.46216884122444,37.891760675642516],[111.46215935188826,37.89175521627094],[111.46177772588526,37.891535660486866],[111.46051301500682,37.891085647072565],[111.45977865271581,37.890912823738],[111.45890880231914,37.89077208127097],[111.45753312524162,37.89064227912917],[111.45624353382472,37.89064729428494],[111.45503357856161,37.89054386308436],[111.45444189569234,37.89032540601228],[111.45370543136796,37.890053465712846],[111.45256152256275,37.88924701719146],[111.45206311585606,37.888949194153504],[111.45155032547937,37.88864276342171],[111.45048638281304,37.888475673809],[111.45032678091646,37.88845917832388],[111.44947754329708,37.88837140473602],[111.44782930208234,37.88816146461083],[111.44511070163423,37.88789247408851],[111.4440959331139,37.887807497415736],[111.44253667431921,37.88767693552752],[111.44186066683413,37.887646900474216],[111.44132139976654,37.887622949275155],[111.44108522828007,37.88763097167371],[111.44012941596544,37.887663432379185],[111.44008957022083,37.88766303627872],[111.4395664880698,37.887657825459065],[111.43894169138726,37.8876516176884],[111.4378258322894,37.88764048865757],[111.43579348514515,37.88758946785006],[111.43479746151293,37.88745703680993],[111.43470557700392,37.88744481974333],[111.43411378727909,37.88709113932091],[111.43372300754315,37.886484447627424],[111.43367296292924,37.886423509490136],[111.43334844502573,37.88673034500092],[111.43270213540582,37.88730482229199],[111.43220297281236,37.888047737119436],[111.43220118878374,37.888050392433975],[111.43234990888556,37.88879357610808],[111.43307847107559,37.88993509825718],[111.43467533583257,37.89141667330601],[111.43561783381178,37.89209970890075],[111.43677455328688,37.89238147365643],[111.43728495629443,37.89323772805069],[111.43793941526245,37.89403623457996],[111.43888231644169,37.894776452611296],[111.43975270273043,37.895459723352474],[111.44019130933953,37.896373443277625],[111.44113528722447,37.89728526762752],[111.44164714234587,37.89837033692237],[111.44216380310804,37.900256323386046],[111.44335958182133,37.90274699371531],[111.4441146918567,37.90251665931655],[111.44557623973472,37.902047004924356],[111.4475301856337,37.9018012191522]]]]},"properties":{"code":"SXNR-N05","name_short":"庞泉沟","name_full":"山西庞泉沟国家级自然保护区","zone":"core","area_km2":35.81,"feature_count":4}},{"type":"Feature","geometry":{"type":"MultiPolygon","coordinates":[[[[111.42947272419447,37.88479262958331],[111.43010312016894,37.88465977996484],[111.43042349763684,37.88465129338195],[111.43108910558497,37.88463364188363],[111.43110270876244,37.884638474267966],[111.43176643937002,37.884874258670685],[111.4321057686056,37.88499480281413],[111.43307755755353,37.885698487378306],[111.43367296292924,37.886423509490136],[111.43413810565403,37.8859837054816],[111.43442280576127,37.885296134850094],[111.434634311334,37.88443720360019],[111.434775311989,37.88386458190374],[111.43491597405959,37.88323475238839],[111.43505495104448,37.882318878273566],[111.43598789331806,37.88140006616005],[111.43706516773055,37.88048071081754],[111.43886248991207,37.87927261286153],[111.44181148849513,37.87754528109558],[111.44310241647041,37.87616738802427],[111.44482598679807,37.874730636035785],[111.44539888795472,37.87398473883341],[111.44654396512881,37.87237851804975],[111.44740550880199,37.87163151577027],[111.44812304298952,37.87094226518988],[111.44905776319037,37.870366602629964],[111.45056946047639,37.86973151616565],[111.45171924851097,37.86892616888275],[111.45257964993064,37.86800750242387],[111.45358120272286,37.86657339432924],[111.45444120249739,37.865597505691184],[111.4551596695369,37.8650798388045],[111.4562424643926,37.865132858837114],[111.45761992626898,37.86615729644979],[111.45849085377115,37.86695485089376],[111.45957758669095,37.86763713686829],[111.46182756263919,37.86968789895954],[111.46392902087679,37.871052681009516],[111.46552572782008,37.87247663170323],[111.4665425999516,37.8735023890991],[111.46741154256686,37.87395662349053],[111.46885642008296,37.874179719237866],[111.4713138967989,37.87474200827865],[111.47391612246864,37.87536087393989],[111.4765924069434,37.876265432617146],[111.47818577095143,37.877117122108714],[111.47927357411031,37.87791364021507],[111.48109060216706,37.87985136979666],[111.4836332536068,37.8823581919695],[111.48530276379647,37.88378157092602],[111.48704640405985,37.885490668953146],[111.48821038703322,37.88685888548542],[111.48864953732001,37.88777242249807],[111.4890176497103,37.88885788249593],[111.48917186021455,37.89034469811391],[111.48991116839915,37.89297327777386],[111.49075500198343,37.89855056217638],[111.49197343268355,37.898795335422946],[111.49197680235756,37.89879597722093],[111.49284416581764,37.89895854004662],[111.49457658790053,37.89923606057994],[111.49608714073526,37.899719048504906],[111.49630685027871,37.899796014577966],[111.4980928785728,37.896543163881425],[111.49909044868667,37.89459380539725],[111.49965676565355,37.89293231872611],[111.50037130456124,37.891842296172456],[111.50093950925942,37.89046684422177],[111.50078699828133,37.88926608528432],[111.50056308269544,37.88818005048548],[111.49983349961558,37.88703895269359],[111.49910123737902,37.88549739156487],[111.49858593289163,37.884012117239386],[111.49800193759332,37.883042020188256],[111.49749090597852,37.88218603189811],[111.49618784440895,37.88161943126232],[111.49445326468268,37.88128346878702],[111.49271831932013,37.8808902725619],[111.49105481070706,37.880382332504304],[111.48924545683893,37.879646135413054],[111.48649408853615,37.87834170628807],[111.48381573902552,37.87715133258433],[111.4814990862229,37.87607383911258],[111.47911180970469,37.8752254269712],[111.47665131039348,37.87420563155191],[111.47455209851553,37.8732415402326],[111.47238113595039,37.8723349079647],[111.47136529309067,37.871480828033114],[111.46954981530553,37.8697145685418],[111.46795273097383,37.8682334625728],[111.46614101848152,37.86703923536455],[111.46353664086992,37.86601973367877],[111.46122348201963,37.86539950544403],[111.45861851989069,37.86426547596803],[111.45644660375413,37.863129710492686],[111.4547187797623,37.86214806443039],[111.45466582799418,37.86189166125151],[111.45460438284825,37.861594126712546],[111.45464884237025,37.86114044161047],[111.45478998941725,37.859914204782015],[111.4550015391284,37.859112444699264],[111.45535634131004,37.85813849858132],[111.45592513410635,37.85676325133021],[111.45649319929512,37.85527358392566],[111.45698873847623,37.85372698405412],[111.45690917238532,37.85252587648781],[111.45589554118627,37.85195770144456],[111.45408758023088,37.851278162362824],[111.45242639718344,37.850998504456044],[111.45018594803408,37.85037777608397],[111.44787338736481,37.849757279207644],[111.44592125774268,37.84907816329173],[111.44562647247301,37.848049491675546],[111.44562096382451,37.84713414679102],[111.44618951075059,37.84570173460001],[111.44603523068473,37.84404321707743],[111.4450145808378,37.84227355473196],[111.44371159256902,37.84153473497983],[111.44240828964156,37.8407386916863],[111.44161100563123,37.840112368776715],[111.44037648637111,37.83874393944215],[111.43957482869787,37.83737388280364],[111.43855645824382,37.83594741639577],[111.43782970266706,37.835034751659215],[111.43601693322775,37.83343958146494],[111.43391270313516,37.83133056190996],[111.43224670150525,37.830135265166376],[111.43115744381532,37.82888062432873],[111.43014566173835,37.82854106026643],[111.42863164669974,37.828661000435176],[111.42697534871341,37.829124700594065],[111.4244574201429,37.83027801194451],[111.42217313991264,37.83172245411873],[111.4221724276802,37.83172345041869],[111.42225218511658,37.831879546757946],[111.4226631718322,37.83249317847743],[111.42291535770251,37.83291971855186],[111.42311729795624,37.833404829970696],[111.4230089382338,37.834074180055815],[111.42291392775317,37.83424107696763],[111.42460251212628,37.83441479291245],[111.42604517696675,37.83440958296913],[111.42784883704633,37.83446025563204],[111.42864395816243,37.834743417427575],[111.43008862032669,37.83508141474511],[111.4312460914565,37.83564928801747],[111.43204357376307,37.83633289139107],[111.43255319541439,37.83713196816425],[111.43306282812328,37.837931042556534],[111.43371540590135,37.83850074662139],[111.43415225248405,37.83918566283085],[111.4350205938625,37.8396401426434],[111.43639560141314,37.84037879224477],[111.43740959987196,37.84106155597914],[111.4384957580033,37.8417440430998],[111.4400144415543,37.84236769376936],[111.44124628835118,37.84327845224049],[111.44226105438005,37.844075591916614],[111.44327549981263,37.844815513785164],[111.44363964335676,37.84538624719601],[111.44321123101929,37.84613159523016],[111.4427120345655,37.84710604901263],[111.44271545383268,37.84767814060335],[111.44329775947142,37.84853410566341],[111.44409720667545,37.849503670018365],[111.44526016989842,37.85092953786752],[111.44700418202407,37.85298250340947],[111.44867405804803,37.854692462864115],[111.44998011021431,37.85588889536587],[111.45092577632714,37.857143904551315],[111.45158389790662,37.85857163969183],[111.45195201544149,37.85977164264114],[111.45253802082293,37.86119964848851],[111.45261612612263,37.86217192243511],[111.45233552761296,37.86348883509849],[111.45147866652935,37.864979589374826],[111.44990325755145,37.86698797572248],[111.44846932313777,37.86853812009709],[111.44595281308898,37.87009235218172],[111.4446620434047,37.871470277832934],[111.4439458437453,37.872388342583385],[111.44337396867385,37.87330585945718],[111.44294642245686,37.87422283052826],[111.44150844784477,37.8751435934732],[111.43920605154887,37.876353616719854],[111.43740982042223,37.87773334658147],[111.43539867489051,37.879399892846024],[111.43281268886805,37.88152620106585],[111.43173734886494,37.882788770786696],[111.43066130592106,37.883936912668894],[111.42947272419447,37.88479262958331]]],[[[111.43167825738374,37.90473282854558],[111.43332973666514,37.90419041740378],[111.43491159316999,37.90460173887097],[111.43641438434501,37.90435780274425],[111.43716366258919,37.903878273890925],[111.43836382876965,37.90333746843916],[111.4400177096531,37.903212111304576],[111.44152188042425,37.90320647857233],[111.44335958182133,37.90274699371531],[111.44216380310804,37.900256323386046],[111.44164714234587,37.89837033692237],[111.44113528722447,37.89728526762752],[111.44019130933953,37.896373443277625],[111.43975270273043,37.895459723352474],[111.43888231644169,37.894776452611296],[111.43793941526245,37.89403623457996],[111.43728495629443,37.89323772805069],[111.43677455328688,37.89238147365643],[111.43561783381178,37.89209970890075],[111.43467533583257,37.89141667330601],[111.43307847107559,37.88993509825718],[111.43234990888556,37.88879357610808],[111.43220118878374,37.888050392433975],[111.43220297281236,37.888047737119436],[111.43270213540582,37.88730482229199],[111.43334844502573,37.88673034500092],[111.43367296292924,37.886423509490136],[111.43307755755353,37.885698487378306],[111.4321057686056,37.88499480281413],[111.43176643937002,37.884874258670685],[111.43110270876244,37.884638474267966],[111.43108910558497,37.88463364188363],[111.43042349763684,37.88465129338195],[111.43010312016894,37.88465977996484],[111.42947272419447,37.88479262958331],[111.42850481250511,37.88548945233739],[111.42713630892895,37.88600931608025],[111.42562144290531,37.88618643204365],[111.4242486388251,37.88596254663561],[111.42244470531661,37.886083453383925],[111.4203510541961,37.88603373720572],[111.41876560714857,37.886497067545086],[111.41739992194815,37.88753169769606],[111.41502744492286,37.889256386145455],[111.41380379102992,37.8898900036244],[111.41301196604266,37.890293255186165],[111.41091883753849,37.8903577891663],[111.40990915797127,37.89053293943978],[111.40846729215941,37.890881210681954],[111.40724386978788,37.89157196890316],[111.40645513601322,37.892547265537004],[111.405741396998,37.89403718742708],[111.40509700268514,37.895011977047275],[111.40416350405421,37.89593054542986],[111.40301246355477,37.89667822139367],[111.40193110666306,37.896967968026054],[111.40041502322849,37.89697313414223],[111.39860954484585,37.89686484171206],[111.39767163279905,37.89698243344915],[111.39644708752603,37.89750145303811],[111.39565416693063,37.89773296055698],[111.39421026267189,37.897737805053694],[111.39326746319428,37.89694001855568],[111.39225036565443,37.89574200132274],[111.39123511673925,37.89488722985613],[111.3905110764972,37.89448916333829],[111.38920981094505,37.89415021201296],[111.38783876728726,37.89426915672969],[111.38412811681454,37.89530450514801],[111.38413455714041,37.89654403404538],[111.38396348109856,37.898356242451634],[111.38390901323298,37.899452945181515],[111.38367330484145,37.900407213500934],[111.38303060807698,37.90138453876872],[111.3853139274381,37.90170759698927],[111.38883514397384,37.90198206846057],[111.39158642101529,37.901722654906706],[111.39506024128443,37.901568023631484],[111.39641435556398,37.901634983933334],[111.39754208122798,37.901559668475905],[111.39902944787524,37.901232830033145],[111.40209205271276,37.90014972251237],[111.4048381212235,37.89896035585438],[111.40726804998646,37.89773626284957],[111.40929220354428,37.896585043316456],[111.41163253590928,37.89550419665333],[111.4129819577706,37.89474858899296],[111.41487278932811,37.89399105981355],[111.41541342064308,37.89384612894292],[111.4172627161103,37.89373231960934],[111.41816692545594,37.89405091765989],[111.41993512196406,37.89554638578584],[111.42206722047034,37.897541108688316],[111.4233377963576,37.89878801425885],[111.42537839176332,37.9005327113553],[111.42701110301061,37.90195704840625],[111.4285997885005,37.90356030208441],[111.42991612092443,37.90487848017569],[111.43055311929022,37.90535681737739],[111.43070399907494,37.90533233285155],[111.43167825738374,37.90473282854558]]]]},"properties":{"code":"SXNR-N05","name_short":"庞泉沟","name_full":"山西庞泉沟国家级自然保护区","zone":"buffer","area_km2":10.596,"feature_count":2}},{"type":"Feature","geometry":{"type":"MultiPolygon","coordinates":[[[[111.50520737418351,37.90140713880869],[111.50625053290268,37.900569285594486],[111.5073497107768,37.89919962568932],[111.50816295748704,37.89862401944982],[111.50834631078331,37.898522806680305],[111.50876106278936,37.89829385537936],[111.50924040329687,37.89802924703817],[111.51037805053241,37.89761439281379],[111.51204705988727,37.89740190194489],[111.51368830130366,37.89724863345849],[111.51517670258207,37.89700338227393],[111.5159305011774,37.89675766309043],[111.51615721601404,37.89668375818933],[111.51652653848402,37.89648996391067],[111.51684113403002,37.89632488467486],[111.51713787342872,37.89587761427969],[111.51713741001464,37.89540462109287],[111.517206167089,37.8950754744866],[111.51766952333776,37.89498334400263],[111.51814348121333,37.89496161556128],[111.51864766149629,37.894938498850394],[111.5197840452493,37.89476230931851],[111.52211040974399,37.89419518452635],[111.52309936507228,37.893954079123816],[111.52719273725141,37.89301308112689],[111.52792561547845,37.8929557403727],[111.52890291238373,37.89289729890415],[111.52975399539255,37.89267724794887],[111.52989871162062,37.892596707848064],[111.53124728104983,37.89184615680065],[111.53347039978436,37.890543252618464],[111.5338117041229,37.890317195579804],[111.53503176236329,37.889509093221534],[111.53551790733177,37.8890814918598],[111.53673301471328,37.8880014033033],[111.53728462762383,37.88754841489557],[111.53774838512494,37.88732556687811],[111.53843944478244,37.88707452695115],[111.5389451226689,37.886921595188525],[111.53994548806595,37.8865812453521],[111.54093681156014,37.88612172019129],[111.54160179242214,37.885632153055255],[111.54195953635583,37.88519805412349],[111.54218127288934,37.88496503998143],[111.54240300916592,37.88473202541794],[111.54210001655917,37.884395566016224],[111.54214268160618,37.883818764280875],[111.54197181250206,37.883406244242735],[111.54136556877108,37.8827606551466],[111.5406875746539,37.88217260192438],[111.53943341999096,37.88175881661761],[111.5387553126043,37.881151682460306],[111.53824424104975,37.880353081891535],[111.53785278075706,37.879458583576664],[111.53719571810387,37.878431804920226],[111.53608060555779,37.877273619632476],[111.53477637533628,37.87657396221995],[111.5331815557674,37.87560862596718],[111.53214132581856,37.87481239311461],[111.53132803841355,37.874487267694754],[111.53028367842207,37.87301680714253],[111.52965399003247,37.87187047528503],[111.52949425614865,37.87056013191597],[111.52940927572362,37.869189857438556],[111.5297723412559,37.86740041227358],[111.52968906517435,37.86626850583459],[111.52893012504967,37.86525882356766],[111.52787197593243,37.864258945030485],[111.5271496501856,37.86361971844793],[111.52644983649652,37.86288860600754],[111.52603069198648,37.8625333264358],[111.5251721060415,37.862298783566224],[111.52380509076912,37.862147800970845],[111.52274628861677,37.861534857983955],[111.52161377067874,37.86082475367126],[111.52049865265812,37.86044828731709],[111.52006411060857,37.860255349035526],[111.51964416772434,37.85957915972212],[111.51873051431667,37.85791455998974],[111.51798409644228,37.85690750676521],[111.51685211106582,37.8562569471505],[111.51579488940601,37.85554645620965],[111.51593690189394,37.854353954501036],[111.51540581610735,37.853641154201306],[111.51539793463417,37.85250890251044],[111.515164588044,37.851377638993824],[111.51545649694991,37.85012488915696],[111.51439565072423,37.84887805435554],[111.5130362995217,37.84793047873977],[111.51204985272894,37.84656411029129],[111.5106195342093,37.846212756015305],[111.51008445497358,37.84490400638694],[111.50895643416578,37.843442946582954],[111.50838384390504,37.84323088056665],[111.50776486228628,37.84282831150677],[111.50751225383793,37.84241216924993],[111.50675467715938,37.84152151942792],[111.50689681106263,37.840329026734835],[111.50621196362252,37.83908049546442],[111.50513561476114,37.83856076228955],[111.50397696634494,37.83835118678138],[111.50200647020907,37.838097387884],[111.50035262799369,37.83799715572905],[111.49874475685523,37.83802781309946],[111.49754385092805,37.83823551180892],[111.49661121318104,37.83810834079296],[111.49590559761313,37.838218583429544],[111.49500668277159,37.838639523815765],[111.49387970635107,37.83866809253356],[111.4928055858491,37.838168422714645],[111.49127377297776,37.83777316009141],[111.48994836549636,37.837337684557305],[111.4893095537232,37.83675273871777],[111.48911544034814,37.83637572057169],[111.48882550928964,37.83627799499631],[111.48751988160137,37.835989014528565],[111.48637642731195,37.835791121234124],[111.48545423834811,37.835529133300064],[111.48478149775292,37.83568603113014],[111.4843461641593,37.835578968085706],[111.48409323835315,37.835380441980334],[111.48376489105053,37.834582576573105],[111.48316005367965,37.834012954536355],[111.48159284973981,37.83335191761024],[111.4805040727113,37.83230750623994],[111.47857920041274,37.83086212793249],[111.47765644550337,37.83010687677891],[111.4772021960402,37.82931874186288],[111.47704048345946,37.82846746238321],[111.47694950922715,37.82724551362369],[111.4767170530156,37.826665898075426],[111.47650770456143,37.82612247331348],[111.47565518555226,37.82511514060793],[111.47395803497905,37.82384780277508],[111.4730182524606,37.82350831641289],[111.47193496307996,37.82328381990981],[111.47056246716147,37.82294604683853],[111.46955095178005,37.822664028609786],[111.46853944403934,37.82238200523342],[111.4676007884904,37.82221410179927],[111.46702129716974,37.8218159271157],[111.46629793127371,37.8214755303852],[111.465503531514,37.821307039901185],[111.46463156410813,37.820509055662505],[111.46380387034111,37.81973763788623],[111.4629345659056,37.81811463219775],[111.46189449410205,37.81728226770693],[111.46325623773774,37.816819620280384],[111.4639278476854,37.81610184507722],[111.46452507260365,37.815503546983955],[111.46549376494,37.81424824058086],[111.4655757762152,37.81331030166486],[111.46534963715082,37.81272885761688],[111.46513141500542,37.812304034640064],[111.46455185439629,37.81115053490967],[111.46436342250678,37.810139964719994],[111.46446101445554,37.809107627669036],[111.46463741865252,37.80819881351924],[111.46467858212236,37.806464969757755],[111.46477396651096,37.80508177651725],[111.46462403484954,37.8043711861476],[111.46457382384602,37.804133212075314],[111.4643122737292,37.803716696945],[111.46373939570655,37.803265933939294],[111.46323217585075,37.80286745347885],[111.46164343576879,37.802473213828],[111.46056155347259,37.802420236964345],[111.45955000159455,37.80208092159027],[111.45868160126928,37.80156940963403],[111.45781144617402,37.80077184189469],[111.45766089272607,37.7997426322519],[111.45754430176476,37.799395767722054],[111.45736301205739,37.79905522936986],[111.45701180143797,37.79827931746414],[111.45662551960754,37.79762676642213],[111.4559061745813,37.797202998615155],[111.45513853347892,37.79669410256172],[111.45470821439669,37.796648368624105],[111.45418175283132,37.796508215361854],[111.45317186889375,37.7966705981762],[111.45179890587191,37.79616097265358],[111.45057049657817,37.795707989765894],[111.44934383702115,37.795541041997076],[111.44775946965927,37.79583312786485],[111.44668079308157,37.79629490887018],[111.4461057453015,37.796583142359374],[111.44488010781241,37.79658777599601],[111.44401495397656,37.79659103974964],[111.44257098050618,37.796253206753455],[111.4417262207268,37.79625435263367],[111.440790388401,37.79634041389623],[111.44004796101413,37.79631986718022],[111.4383179940748,37.796383526666325],[111.43687539754124,37.79627446281669],[111.4362261969557,37.79621965688133],[111.43442748309008,37.79685562238963],[111.4331340853812,37.797604125826425],[111.43241644603224,37.79817887054326],[111.43141140135153,37.79892629627975],[111.43091003348633,37.79950023959358],[111.43041098167969,37.80047464802363],[111.43012987791496,37.80173431412754],[111.42948759103103,37.80288087464578],[111.4285568702811,37.804028480207656],[111.42748026095475,37.804890553322615],[111.42532434338533,37.80615699456898],[111.4241008356722,37.806561881031286],[111.42280553337758,37.80702422210034],[111.42172653827875,37.80748577656301],[111.42043801557078,37.80914949508391],[111.41965097141454,37.81023930712113],[111.41915364078875,37.81155692515255],[111.41785918859019,37.81219084191594],[111.416635861615,37.81265286059128],[111.4151990650313,37.81363051605993],[111.41412120217034,37.814320839427495],[111.41254297544229,37.81581385624591],[111.41204866064264,37.81770354077842],[111.41148613602239,37.81840407173418],[111.41043778884654,37.81918267103742],[111.40968251984357,37.81954286723359],[111.40869159535742,37.81967503300241],[111.40820589375016,37.81987695457438],[111.40793875297594,37.82047859299013],[111.40795930078907,37.82093620778441],[111.40753301945395,37.82149509744792],[111.40745227951497,37.82186907148955],[111.40726178840765,37.822048487093554],[111.40670580010313,37.822572145328834],[111.40621045872041,37.82311893451286],[111.40624866283626,37.82322466449049],[111.40642451052267,37.823706072000995],[111.40722547109442,37.82392303663575],[111.40822329743276,37.8243000396783],[111.40918012975617,37.82451025660784],[111.40962537075222,37.82470089170443],[111.41008271450391,37.82464591626701],[111.41069849923866,37.82448803961135],[111.41098376192375,37.82450397796673],[111.41132049801148,37.82454550938474],[111.41200634722297,37.824589953638124],[111.41274661922233,37.82466072177635],[111.41435157086418,37.824997434378545],[111.41598791417488,37.82543182766953],[111.41663736416818,37.82579633335529],[111.4177240661863,37.82716187268894],[111.41881094660512,37.828551853629385],[111.41972546492134,37.82944114562676],[111.42178739598486,37.8315000881449],[111.4221724276802,37.83172345041869],[111.42217313991264,37.83172245411873],[111.4244574201429,37.83027801194451],[111.42697534871341,37.829124700594065],[111.42863164669974,37.828661000435176],[111.43014566173835,37.82854106026643],[111.43115744381532,37.82888062432873],[111.43224670150525,37.830135265166376],[111.43391270313516,37.83133056190996],[111.43601693322775,37.83343958146494],[111.43782970266706,37.835034751659215],[111.43855645824382,37.83594741639577],[111.43957482869787,37.83737388280364],[111.44037648637111,37.83874393944215],[111.44161100563123,37.840112368776715],[111.44240828964156,37.8407386916863],[111.44371159256902,37.84153473497983],[111.4450145808378,37.84227355473196],[111.44603523068473,37.84404321707743],[111.44618951075059,37.84570173460001],[111.44562096382451,37.84713414679102],[111.44562647247301,37.848049491675546],[111.44592125774268,37.84907816329173],[111.44787338736481,37.849757279207644],[111.45018594803408,37.85037777608397],[111.45242639718344,37.850998504456044],[111.45408758023088,37.851278162362824],[111.45589554118627,37.85195770144456],[111.45690917238532,37.85252587648781],[111.45698873847623,37.85372698405412],[111.45649319929512,37.85527358392566],[111.45592513410635,37.85676325133021],[111.45535634131004,37.85813849858132],[111.4550015391284,37.859112444699264],[111.45478998941725,37.859914204782015],[111.45464884237025,37.86114044161047],[111.45460438284825,37.861594126712546],[111.45466582799418,37.86189166125151],[111.4547187797623,37.86214806443039],[111.45644660375413,37.863129710492686],[111.45861851989069,37.86426547596803],[111.46122348201963,37.86539950544403],[111.46353664086992,37.86601973367877],[111.46614101848152,37.86703923536455],[111.46795273097383,37.8682334625728],[111.46954981530553,37.8697145685418],[111.47136529309067,37.871480828033114],[111.47238113595039,37.8723349079647],[111.47455209851553,37.8732415402326],[111.47665131039348,37.87420563155191],[111.47911180970469,37.8752254269712],[111.4814990862229,37.87607383911258],[111.48381573902552,37.87715133258433],[111.48649408853615,37.87834170628807],[111.48924545683893,37.879646135413054],[111.49105481070706,37.880382332504304],[111.49271831932013,37.8808902725619],[111.49445326468268,37.88128346878702],[111.49618784440895,37.88161943126232],[111.49749090597852,37.88218603189811],[111.49800193759332,37.883042020188256],[111.49858593289163,37.884012117239386],[111.49910123737902,37.88549739156487],[111.49983349961558,37.88703895269359],[111.50056308269544,37.88818005048548],[111.50078699828133,37.88926608528432],[111.50093950925942,37.89046684422177],[111.50037130456124,37.891842296172456],[111.49965676565355,37.89293231872611],[111.49909044868667,37.89459380539725],[111.4980928785728,37.896543163881425],[111.49630685027871,37.899796014577966],[111.496438419928,37.89982157428923],[111.49747773933706,37.90017996274033],[111.4983293684683,37.900485945455344],[111.49992553145876,37.900817035279964],[111.50048749767856,37.90079663019936],[111.50111954991593,37.90102858441444],[111.50150557474002,37.901170247719634],[111.5033598072067,37.901626771614644],[111.50520737418351,37.90140713880869]]],[[[111.39778063920947,37.91765438028356],[111.39878824995996,37.917579458468886],[111.40011153893374,37.917455781266696],[111.401750696306,37.91731909195988],[111.4025536408907,37.917474830220876],[111.40342000657364,37.917834396941586],[111.40439889393375,37.91800981834241],[111.40642797252374,37.91764526761136],[111.40732868411848,37.91728459265499],[111.40913304930707,37.917099554693365],[111.41048308811223,37.916379732615106],[111.41092978102587,37.915543864082856],[111.41190566557384,37.915182891579754],[111.41317775558326,37.913986562516364],[111.41482723685195,37.913027262619586],[111.41640246532378,37.912246986035264],[111.41767510576965,37.911169793790044],[111.4183078743674,37.91071804372898],[111.41890778021941,37.91039410517205],[111.41956819298902,37.91012954127091],[111.42027447528297,37.909995916082046],[111.42099759840721,37.90997626886609],[111.42162753991713,37.90984805205752],[111.42239115082896,37.909389988477386],[111.4233531385318,37.908815427981814],[111.42492955624992,37.90827340468894],[111.42650457471258,37.90749299170865],[111.42747717305805,37.906595560268336],[111.4288254579277,37.905637159129434],[111.43055311929022,37.90535681737739],[111.42991612092443,37.90487848017569],[111.4285997885005,37.90356030208441],[111.42701110301061,37.90195704840625],[111.42537839176332,37.9005327113553],[111.4233377963576,37.89878801425885],[111.42206722047034,37.897541108688316],[111.41993512196406,37.89554638578584],[111.41816692545594,37.89405091765989],[111.4172627161103,37.89373231960934],[111.41541342064308,37.89384612894292],[111.41487278932811,37.89399105981355],[111.4129819577706,37.89474858899296],[111.41163253590928,37.89550419665333],[111.40929220354428,37.896585043316456],[111.40726804998646,37.89773626284957],[111.4048381212235,37.89896035585438],[111.40209205271276,37.90014972251237],[111.39902944787524,37.901232830033145],[111.39754208122798,37.901559668475905],[111.39641435556398,37.901634983933334],[111.39506024128443,37.901568023631484],[111.39158642101529,37.901722654906706],[111.38883514397384,37.90198206846057],[111.3853139274381,37.90170759698927],[111.38303060807698,37.90138453876872],[111.38247937983408,37.90222274735164],[111.3821110786541,37.90294626278436],[111.38176463691421,37.90359036126695],[111.3815983520898,37.903901302009984],[111.38152514218375,37.90410936891169],[111.3814048274162,37.90435644501776],[111.38128034031263,37.90463399255948],[111.38112953888975,37.9050289022202],[111.38111782358321,37.90567658022099],[111.38127778793522,37.9068511523141],[111.38144133302745,37.90828351143215],[111.38174099342918,37.90918409560746],[111.38201846702601,37.90986770942508],[111.38225354250062,37.91050137434462],[111.38204834504239,37.91157055060441],[111.38183574915865,37.91193770429136],[111.3818094254691,37.91225927591638],[111.3818074874525,37.91282402976783],[111.3820669724782,37.91363225602616],[111.3822615897371,37.914238425477706],[111.38266957872351,37.91496189045596],[111.38320650510175,37.91561695662742],[111.38387093309474,37.91609154040972],[111.38415322649658,37.91626272538281],[111.3842948600978,37.91655787584359],[111.38406415327373,37.917199140375125],[111.38406757030765,37.91785649711832],[111.38386634387399,37.91850855905336],[111.38392983191221,37.91943772426585],[111.3839556647392,37.92064582323092],[111.38428813850993,37.921452085370476],[111.38497107743031,37.92222608217871],[111.38533733487859,37.923214135017915],[111.38497102985237,37.92412765067655],[111.38434957875418,37.924950626629176],[111.38396228164308,37.92567989852085],[111.38437622748225,37.92631361778184],[111.38487186974231,37.927613117452196],[111.38548300006208,37.92855597776878],[111.3867402250444,37.92898423682296],[111.38760656396232,37.929091109577406],[111.38956394049612,37.92932302094155],[111.39076802662812,37.92937862198505],[111.39167339318148,37.92930364267294],[111.39232140171642,37.928920086690376],[111.39310756073574,37.92735373134859],[111.39322224730046,37.92628543420502],[111.39350738048783,37.92557889445208],[111.39462989903481,37.92389698412803],[111.39546114053132,37.921777433719534],[111.39694269583866,37.919731964750305],[111.39710697297178,37.91892854816641],[111.39725389776862,37.91827252270691],[111.39778063920947,37.91765438028356]]]]},"properties":{"code":"SXNR-N05","name_short":"庞泉沟","name_full":"山西庞泉沟国家级自然保护区","zone":"experimental","area_km2":58.705,"feature_count":2}}]}