{"type":"FeatureCollection","features":[{"type":"Feature","id":"way/1427644162","properties":{"boundary":"protected_area","name":"山西历山国家级自然保护区","name:en":"Shanxi Lishan National Nature Reserve","name:zh":"山西历山国家级自然保护区","protect_class":"2","protection_title":"自然保护区","ref":"晋29","source":"https://gitcode.com/open-source-toolkit/ca527;https://www.mee.gov.cn/ywgz/zrstbh/zrbhdjg/201309/t20130927_260965.shtml","start_date":"1983-12-26","id":"way/1427644162"},"geometry":{"type":"Polygon","coordinates":[[[111.921062,35.461156],[111.917941,35.460791],[111.913404,35.460937],[111.911361,35.46001],[111.909863,35.45991],[111.905791,35.459276],[111.901456,35.459308],[111.900357,35.457931],[111.899062,35.457275],[111.897437,35.457343],[111.894719,35.456587],[111.893337,35.454103],[111.891701,35.453195],[111.888104,35.452557],[111.889032,35.450721],[111.888477,35.449561],[111.88589,35.448305],[111.885867,35.446254],[111.885076,35.446146],[111.883561,35.445939],[111.883406,35.444166],[111.881706,35.443569],[111.88049,35.443855],[111.879404,35.443641],[111.877159,35.442715],[111.87587,35.442503],[111.874024,35.440964],[111.873877,35.439912],[111.875158,35.439293],[111.874744,35.438631],[111.872428,35.437429],[111.869518,35.43756],[111.868624,35.437002],[111.86829,35.436793],[111.867596,35.435191],[111.863795,35.434387],[111.863176,35.43356],[111.864655,35.432551],[111.864913,35.431275],[111.864007,35.428953],[111.862299,35.427524],[111.862481,35.425472],[111.860716,35.425097],[111.858712,35.421287],[111.857829,35.421016],[111.855943,35.421972],[111.855475,35.422529],[111.853914,35.422208],[111.853953,35.422108],[111.854208,35.420554],[111.852511,35.420178],[111.850276,35.420083],[111.849662,35.419699],[111.850454,35.417754],[111.850103,35.416592],[111.849754,35.415541],[111.850418,35.414317],[111.849527,35.413271],[111.849344,35.408727],[111.849878,35.408002],[111.849866,35.406839],[111.850595,35.405392],[111.849837,35.404067],[111.847733,35.403583],[111.847524,35.403031],[111.849862,35.400076],[111.848969,35.398808],[111.848274,35.397039],[111.846761,35.394777],[111.847699,35.393884],[111.847076,35.392558],[111.846935,35.39206],[111.847284,35.391986],[111.847746,35.391888],[111.84863,35.39227],[111.849385,35.393262],[111.851415,35.393248],[111.851661,35.390863],[111.852398,35.390137],[111.8551,35.389619],[111.856918,35.388719],[111.857177,35.387665],[111.858392,35.387323],[111.859669,35.386483],[111.860329,35.384871],[111.862276,35.383416],[111.863264,35.38352],[111.864241,35.383623],[111.865183,35.383118],[111.866874,35.382995],[111.867407,35.38216],[111.868488,35.381986],[111.871399,35.382131],[111.873766,35.381948],[111.874565,35.380722],[111.875572,35.379995],[111.876517,35.379711],[111.878487,35.380417],[111.880036,35.37974],[111.884288,35.378656],[111.890694,35.376503],[111.894885,35.376084],[111.895828,35.375689],[111.896128,35.37545],[111.897304,35.374514],[111.897764,35.373291],[111.898218,35.371514],[111.89963,35.370672],[111.900904,35.36961],[111.902793,35.369097],[111.908549,35.368887],[111.911825,35.368763],[111.912202,35.368749],[111.913741,35.367185],[111.914897,35.367675],[111.91518,35.368837],[111.918032,35.369647],[111.921639,35.371449],[111.92185,35.372168],[111.923344,35.372655],[111.923338,35.372101],[111.924083,35.372206],[111.930195,35.374099],[111.936375,35.375936],[111.937932,35.375979],[111.9411,35.374901],[111.943302,35.372224],[111.946403,35.371202],[111.948618,35.369633],[111.950356,35.367845],[111.951226,35.366952],[111.951291,35.366668],[111.951676,35.365008],[111.952792,35.362062],[111.952513,35.361343],[111.952228,35.360126],[111.95339,35.358614],[111.953428,35.358565],[111.953682,35.357177],[111.954628,35.357059],[111.955765,35.355997],[111.956087,35.354553],[111.954511,35.352903],[111.952618,35.352973],[111.951393,35.352428],[111.951242,35.351044],[111.951905,35.349875],[111.953689,35.349151],[111.954979,35.349529],[111.956668,35.349349],[111.956933,35.348848],[111.958018,35.349117],[111.958964,35.348999],[111.959834,35.34816],[111.960775,35.347709],[111.962194,35.347532],[111.962866,35.347194],[111.962988,35.346029],[111.965072,35.344904],[111.970241,35.341592],[111.972732,35.340574],[111.974554,35.340227],[111.978061,35.339367],[111.979937,35.337856],[111.985729,35.335813],[111.990379,35.33439],[111.994904,35.333798],[111.998408,35.332716],[112.00138,35.332414],[112.003266,35.331789],[112.008487,35.332854],[112.009239,35.333458],[112.009264,35.335453],[112.009742,35.335837],[112.011133,35.338929],[112.014468,35.340564],[112.014893,35.342101],[112.015772,35.342038],[112.016711,35.341365],[112.017912,35.34008],[112.018595,35.340574],[112.018553,35.342625],[112.017613,35.343242],[112.017696,35.344461],[112.015836,35.347193],[112.014773,35.348698],[112.015012,35.348774],[112.015792,35.349022],[112.01844,35.349831],[112.019788,35.349376],[112.020466,35.349537],[112.020763,35.351641],[112.022059,35.352461],[112.024912,35.35339],[112.025864,35.35377],[112.026076,35.354433],[112.024535,35.355666],[112.022796,35.357233],[112.022206,35.35879],[112.020738,35.360354],[112.020569,35.363071],[112.021077,35.365783],[112.020889,35.366993],[112.018401,35.368233],[112.016508,35.368415],[112.01496,35.369038],[112.013204,35.36933],[112.01224,35.368008],[112.010948,35.367464],[112.009523,35.367144],[112.006687,35.367611],[112.00432,35.367797],[112.002559,35.367645],[112.001071,35.367657],[112.000681,35.368935],[112.001507,35.370093],[112.002665,35.370748],[112.002878,35.371522],[112.001266,35.372478],[112.001279,35.373531],[112.00027,35.374094],[111.998852,35.374316],[111.998545,35.376868],[111.99754,35.377708],[111.995581,35.378001],[111.994043,35.379455],[111.991944,35.384904],[111.991249,35.389011],[111.990396,35.39118],[111.989051,35.391856],[111.988109,35.392307],[111.987919,35.393417],[111.988683,35.395018],[111.989375,35.396232],[111.990131,35.397179],[111.990841,35.399889],[111.991811,35.40171],[111.993042,35.402753],[111.994012,35.404563],[111.994906,35.405664],[111.995525,35.406435],[111.993789,35.40839],[111.994097,35.411447],[111.996076,35.41276],[111.996833,35.413696],[111.997931,35.414907],[111.997946,35.416126],[111.99836,35.416788],[111.999786,35.417053],[112.000795,35.416546],[112.001473,35.416596],[112.001411,35.417095],[111.999521,35.417554],[111.998851,35.418169],[111.998057,35.419617],[111.998001,35.420615],[111.996783,35.420625],[111.995976,35.421131],[111.995058,35.423522],[111.994059,35.424926],[111.99427,35.425534],[111.995154,35.42586],[111.99709,35.429058],[111.997378,35.430442],[111.999422,35.431478],[111.999713,35.433083],[111.99872,35.43492],[111.999006,35.436193],[111.996571,35.436434],[111.995824,35.436274],[111.994657,35.434954],[111.992756,35.434581],[111.988761,35.43467],[111.987546,35.435012],[111.985923,35.435192],[111.984894,35.434092],[111.985072,35.432039],[111.984525,35.4316],[111.98036,35.434406],[111.978395,35.434255],[111.976077,35.432999],[111.975317,35.43234],[111.973825,35.432186],[111.973696,35.432686],[111.972418,35.433417],[111.972799,35.436917],[111.972205,35.438196],[111.970999,35.439314],[111.970397,35.439929],[111.969795,35.440543],[111.968307,35.440777],[111.964377,35.440587],[111.96356,35.440261],[111.962537,35.439604],[111.959289,35.439907],[111.959097,35.440795],[111.960607,35.442501],[111.961776,35.443989],[111.961931,35.445595],[111.961399,35.44643],[111.960397,35.447658],[111.958513,35.448726],[111.956222,35.449686],[111.954126,35.450035],[111.952769,35.449824],[111.951624,35.450388],[111.947561,35.45053],[111.946207,35.450596],[111.944933,35.45166],[111.944054,35.451777],[111.94269,35.451012],[111.941468,35.4508],[111.940715,35.450085],[111.939295,35.450318],[111.937873,35.450329],[111.936447,35.450007],[111.932102,35.449154],[111.926808,35.448253],[111.926188,35.453301],[111.925471,35.455746],[111.926294,35.456571],[111.926181,35.458567],[111.924425,35.459024],[111.923413,35.459419],[111.921795,35.460097],[111.921062,35.461156]]]}}]}