{"type":"FeatureCollection","features":[{"type":"Feature","id":"way/1427644159","properties":{"boundary":"protected_area","name":"山西五鹿山国家级自然保护区","name:en":"Shanxi Wulu Mountain National Nature Reserve","name:zh":"山西五鹿山国家级自然保护区","protect_class":"2","protection_title":"自然保护区","ref":"晋40","source":"https://gitcode.com/open-source-toolkit/ca527;https://www.mee.gov.cn/ywgz/zrstbh/zrbhdjg/201309/t20130927_260965.shtml","start_date":"1993-01-20","id":"way/1427644159"},"geometry":{"type":"Polygon","coordinates":[[[111.185348,36.643121],[111.182844,36.642909],[111.181679,36.642262],[111.179622,36.641977],[111.17667,36.641837],[111.173805,36.640327],[111.170851,36.639178],[111.168256,36.638461],[111.167178,36.635797],[111.166457,36.633275],[111.165024,36.632412],[111.162878,36.632199],[111.160195,36.63213],[111.157956,36.630331],[111.155539,36.629183],[111.152499,36.629187],[111.150443,36.629406],[111.150351,36.627964],[111.150885,36.626738],[111.150615,36.625657],[111.150343,36.623783],[111.150339,36.621623],[111.151674,36.618449],[111.152386,36.616862],[111.155059,36.612319],[111.156485,36.610515],[111.158541,36.61044],[111.160328,36.61015],[111.160864,36.6095],[111.1622,36.607338],[111.163356,36.604597],[111.16335,36.601929],[111.163883,36.600129],[111.164413,36.597389],[111.164499,36.595803],[111.164853,36.594144],[111.165653,36.591838],[111.166901,36.590539],[111.168418,36.589167],[111.168951,36.587724],[111.167072,36.586862],[111.165907,36.585494],[111.165456,36.583406],[111.164914,36.580451],[111.165263,36.576776],[111.163652,36.575337],[111.161771,36.573393],[111.160608,36.572601],[111.158106,36.572244],[111.154486,36.571064],[111.15287,36.569766],[111.151332,36.568962],[111.152326,36.56673],[111.153933,36.56357],[111.155083,36.562764],[111.155926,36.561896],[111.156075,36.559974],[111.155914,36.556133],[111.156985,36.554336],[111.157288,36.552353],[111.156517,36.550435],[111.156053,36.548824],[111.154436,36.546596],[111.152435,36.544121],[111.148437,36.540719],[111.147129,36.539297],[111.147971,36.538242],[111.14989,36.537683],[111.152725,36.535262],[111.155023,36.533092],[111.15648,36.532347],[111.158015,36.531973],[111.15924,36.530484],[111.158851,36.528194],[111.158617,36.526088],[111.15585,36.524048],[111.151928,36.520336],[111.14916,36.517613],[111.148007,36.516747],[111.14593,36.514211],[111.143698,36.510373],[111.143157,36.508515],[111.143001,36.50678],[111.142612,36.504118],[111.142225,36.501888],[111.142221,36.499845],[111.142757,36.499409],[111.144751,36.499098],[111.146975,36.498476],[111.149353,36.498162],[111.15127,36.497727],[111.152803,36.496858],[111.153951,36.495617],[111.154947,36.494996],[111.156558,36.494686],[111.158168,36.494001],[111.160161,36.493318],[111.161618,36.493129],[111.163228,36.49257],[111.164224,36.492134],[111.166601,36.491203],[111.168824,36.49058],[111.170665,36.49033],[111.172273,36.489212],[111.17373,36.488899],[111.174958,36.489021],[111.175725,36.489144],[111.177492,36.490196],[111.178416,36.491494],[111.180104,36.491863],[111.181868,36.491365],[111.183629,36.490062],[111.185238,36.489317],[111.186925,36.488694],[111.188379,36.487329],[111.191671,36.484722],[111.193126,36.483852],[111.195042,36.483106],[111.197648,36.482297],[111.198641,36.480498],[111.19779,36.477588],[111.196404,36.475423],[111.194174,36.473381],[111.191331,36.471095],[111.19125,36.46936],[111.192395,36.467252],[111.192469,36.466384],[111.191163,36.465271],[111.191158,36.463228],[111.192228,36.461679],[111.19652,36.460741],[111.198972,36.460181],[111.199048,36.459622],[111.198583,36.457951],[111.198504,36.456836],[111.197199,36.456342],[111.194591,36.456038],[111.190908,36.455053],[111.188911,36.453569],[111.18737,36.450598],[111.187053,36.446261],[111.187815,36.444465],[111.188504,36.444216],[111.190424,36.445389],[111.192036,36.446069],[111.193415,36.445632],[111.19426,36.446313],[111.194798,36.446808],[111.197251,36.446804],[111.199014,36.446553],[111.199239,36.444694],[111.199078,36.441349],[111.199917,36.43986],[111.201215,36.437815],[111.201512,36.434097],[111.202575,36.430006],[111.203175,36.425175],[111.202706,36.421396],[111.202314,36.418114],[111.201078,36.414151],[111.200917,36.411304],[111.201526,36.409876],[111.203436,36.407643],[111.205346,36.405285],[111.207487,36.403425],[111.208703,36.400014],[111.209311,36.397846],[111.211991,36.397346],[111.215211,36.397773],[111.218582,36.397766],[111.2205,36.398446],[111.222343,36.399929],[111.222805,36.400856],[111.224033,36.40135],[111.224572,36.402403],[111.224806,36.403766],[111.226109,36.403948],[111.228254,36.403511],[111.230703,36.402452],[111.23568,36.40139],[111.23989,36.400019],[111.241653,36.399952],[111.24472,36.400753],[111.247405,36.401551],[111.25063,36.403651],[111.253318,36.405628],[111.259297,36.405987],[111.262285,36.405917],[111.262595,36.406847],[111.262905,36.408022],[111.26475,36.409753],[111.266521,36.411979],[111.26829,36.414019],[111.26975,36.41507],[111.270985,36.417421],[111.272215,36.418595],[111.274213,36.420201],[111.279748,36.424586],[111.282511,36.425757],[111.283435,36.426807],[111.286432,36.428906],[111.28889,36.430324],[111.289429,36.430882],[111.288051,36.431505],[111.28706,36.432807],[111.286838,36.435038],[111.285696,36.437271],[111.283934,36.437523],[111.282781,36.436719],[111.281708,36.436661],[111.280479,36.436168],[111.279176,36.436295],[111.277187,36.437352],[111.2752,36.439154],[111.27283,36.440955],[111.271377,36.442198],[111.270154,36.443068],[111.269543,36.443936],[111.268702,36.444558],[111.264796,36.445619],[111.260966,36.446805],[111.260969,36.447797],[111.260593,36.449965],[111.260601,36.452319],[111.261294,36.453309],[111.265208,36.454167],[111.267356,36.454534],[111.267436,36.455401],[111.267439,36.45633],[111.266292,36.457323],[111.265989,36.458252],[111.266227,36.46073],[111.266476,36.466118],[111.26572,36.469465],[111.264575,36.471018],[111.26236,36.473562],[111.262134,36.474862],[111.262218,36.477092],[111.262764,36.47988],[111.264075,36.481797],[111.264079,36.483097],[111.263316,36.484277],[111.26217,36.485642],[111.259648,36.488371],[111.257205,36.492094],[111.255756,36.494823],[111.253616,36.497058],[111.253772,36.497862],[111.255691,36.498292],[111.257153,36.499465],[111.257848,36.500827],[111.25724,36.502563],[111.255481,36.504238],[111.253642,36.505233],[111.251881,36.506415],[111.250276,36.508153],[111.248517,36.509892],[111.246756,36.511256],[111.24676,36.512682],[111.247532,36.51392],[111.24938,36.516022],[111.250769,36.518434],[111.252776,36.521836],[111.25355,36.523941],[111.253168,36.524561],[111.25033,36.525002],[111.247723,36.525625],[111.247497,36.527236],[111.247962,36.528537],[111.248884,36.528907],[111.250112,36.528657],[111.251416,36.528467],[111.253566,36.528958],[111.255259,36.530257],[111.255188,36.531928],[111.255191,36.532796],[111.254201,36.535276],[111.254436,36.536762],[111.255895,36.536759],[111.257656,36.535392],[111.25834,36.533345],[111.260097,36.530927],[111.261476,36.53018],[111.263933,36.530546],[111.265546,36.530915],[111.266549,36.532151],[111.26747,36.532088],[111.268541,36.531219],[111.269452,36.528367],[111.270141,36.52793],[111.270987,36.528424],[111.271528,36.529229],[111.272143,36.529661],[111.273144,36.530402],[111.274068,36.531391],[111.274075,36.533434],[111.273393,36.536038],[111.272709,36.537713],[111.27333,36.539694],[111.273644,36.541922],[111.273885,36.544895],[111.275584,36.54768],[111.277428,36.547984],[111.27958,36.548723],[111.281044,36.550143],[111.282737,36.551193],[111.28251,36.552122],[111.280512,36.55157],[111.278669,36.551575],[111.276449,36.553438],[111.273772,36.556231],[111.273243,36.558587],[111.272178,36.561376],[111.269496,36.56318],[111.267425,36.563554],[111.264123,36.563748],[111.260287,36.564561],[111.258142,36.566176],[111.256913,36.566179],[111.25538,36.566989],[111.251316,36.568793],[111.248788,36.570596],[111.247871,36.572146],[111.246185,36.573077],[111.245415,36.572583],[111.244567,36.571594],[111.242647,36.571598],[111.240729,36.572036],[111.238119,36.572661],[111.235736,36.571735],[111.232352,36.57001],[111.229124,36.569085],[111.225441,36.570395],[111.222988,36.57176],[111.222916,36.573371],[111.224073,36.575103],[111.226304,36.576338],[111.226845,36.577515],[111.226312,36.579373],[111.225395,36.581048],[111.225861,36.582658],[111.226787,36.58408],[111.22756,36.585629],[111.22764,36.586928],[111.227185,36.588725],[111.227188,36.58984],[111.228494,36.590024],[111.230031,36.590021],[111.230878,36.590948],[111.230805,36.592002],[111.230807,36.59287],[111.231421,36.592621],[111.232801,36.591812],[111.233875,36.591253],[111.234108,36.591996],[111.233574,36.593484],[111.233424,36.59466],[111.234423,36.594719],[111.234885,36.595153],[111.234198,36.596517],[111.233047,36.597015],[111.233818,36.597757],[111.23697,36.598431],[111.242424,36.598544],[111.243654,36.598665],[111.244041,36.599532],[111.24504,36.599717],[111.247889,36.60163],[111.249967,36.602926],[111.25174,36.604968],[111.251678,36.607255],[111.249628,36.608915],[111.245523,36.611158],[111.242311,36.613255],[111.238476,36.616144],[111.236694,36.618166],[111.235895,36.61997],[111.235542,36.621485],[111.233224,36.623506],[111.229475,36.625531],[111.225098,36.626981],[111.224205,36.627704],[111.223763,36.629291],[111.22341,36.630875],[111.221271,36.633402],[111.218593,36.634921],[111.215733,36.635503],[111.213858,36.63666],[111.211805,36.637959],[111.208501,36.639551],[111.204662,36.642081],[111.20216,36.642662],[111.197867,36.642597],[111.195273,36.642457],[111.191428,36.642823],[111.188209,36.642684],[111.185348,36.643121]]]}}]}