{"type":"FeatureCollection","features":[{"type":"Feature","id":"way/1472544240","properties":{"leisure":"nature_reserve","name":"灵空山自然保护区","id":"way/1472544240"},"geometry":{"type":"Polygon","coordinates":[[[112.0795744,36.5920136],[112.0801323,36.5914623],[112.0801967,36.5909971],[112.0799247,36.5908273],[112.0793868,36.5909751],[112.0790753,36.5914184],[112.078594,36.5915093],[112.0783108,36.5914411],[112.0775747,36.5911229],[112.0768244,36.5905659],[112.0769359,36.589796],[112.0775638,36.5892563],[112.079265,36.5881532],[112.0793523,36.5854068],[112.0805227,36.5842866],[112.0827328,36.5839248],[112.0857369,36.5856306],[112.0900697,36.5876487],[112.094098,36.5888514],[112.0968919,36.5927005],[112.094285,36.5977621],[112.0955509,36.6003999],[112.0972568,36.6030567],[112.0971312,36.6048519],[112.0965945,36.6060969],[112.0958649,36.6088528],[112.0938264,36.6106097],[112.0924746,36.6129522],[112.0918094,36.6151912],[112.0900713,36.6182569],[112.0886551,36.6214258],[112.087432,36.6221536],[112.086209,36.6221663],[112.0830547,36.6218219],[112.0815526,36.6208402],[112.080866,36.6201858],[112.0802223,36.619273],[112.079321,36.6189286],[112.0781329,36.6162758],[112.0782267,36.6137617],[112.0780765,36.6131244],[112.077583,36.6127283],[112.0783769,36.6115226],[112.0765315,36.6110403],[112.0739995,36.6115054],[112.0731196,36.6119379],[112.0743558,36.6129206],[112.075523,36.6149157],[112.0739566,36.6155874],[112.0733934,36.6161053],[112.0728326,36.6162665],[112.0721445,36.6165501],[112.0706807,36.616859],[112.0692451,36.6168186],[112.0680154,36.6170089],[112.0678079,36.6170289],[112.0675497,36.616609],[112.06702,36.6160163],[112.0665549,36.6157772],[112.0664365,36.6151145],[112.065967,36.6147979],[112.0656208,36.6143429],[112.0649041,36.6138838],[112.064437,36.6138874],[112.0639739,36.6140262],[112.0634466,36.6138506],[112.0631174,36.6134611],[112.062152,36.6131902],[112.0613364,36.6127561],[112.0604383,36.6119188],[112.0592152,36.6109198],[112.0558463,36.6098174],[112.0552424,36.6074217],[112.0536245,36.6065547],[112.0537435,36.6044432],[112.0530783,36.602853],[112.0543443,36.6017904],[112.0547949,36.6000678],[112.0564686,36.5996888],[112.0574128,36.5991375],[112.0588075,36.5979833],[112.0606529,36.5972426],[112.0626425,36.5970288],[112.0639739,36.5968324],[112.0661358,36.595853],[112.0676049,36.5950239],[112.0688804,36.5945224],[112.0722441,36.5943158],[112.0761122,36.5933726],[112.0776423,36.5928667],[112.0795744,36.5920136]]]}}]}