{"type":"FeatureCollection","features":[{"type":"Feature","geometry":{"type":"MultiPolygon","coordinates":[[[[112.06551220984487,36.585278720493356],[112.06487082044525,36.585655793223644],[112.06436412351339,36.58593289651715],[112.06435721906391,36.58592709922424],[112.06421011018989,36.58580360961175],[112.06420814690344,36.5857863494529],[112.06416326371696,36.585391771081845],[112.06406677908556,36.585211881768075],[112.06402648183065,36.58513675006969],[112.06387946667475,36.58486264842245],[112.06331965808972,36.584372028125685],[112.06270317573811,36.584026099089414],[112.06195283226043,36.58374669113383],[112.0612159777748,36.58354888270597],[112.06108370739886,36.58351337471361],[112.06044951514878,36.58350549339915],[112.06007843334669,36.583639449473104],[112.05970688177315,36.583687804021736],[112.0592437180593,36.583624332236106],[112.05875146663968,36.58352732395419],[112.05831298915862,36.58348165216329],[112.05786665467504,36.583474347974935],[112.05736310231609,36.583521629286594],[112.05704169060466,36.583593818088325],[112.05703416720301,36.58359550769251],[112.05683050498092,36.58364124416737],[112.05632863757668,36.5838123913239],[112.05607221075114,36.583899725778224],[112.05588723284426,36.583962726890945],[112.05542314345846,36.58403666633125],[112.05482335889546,36.584044225084995],[112.05405044536582,36.58405557468016],[112.05357219991735,36.58408747680746],[112.05327180580468,36.584107510400365],[112.05267838439563,36.58417132635553],[112.05232616953614,36.58421018959145],[112.05214565004964,36.58423010716428],[112.05147086578994,36.584319406596364],[112.05073779472386,36.584488073242404],[112.05010422428388,36.584631074002594],[112.05008917141295,36.58463099126111],[112.04974542598322,36.58462909926326],[112.0496432159679,36.58462853694121],[112.04963209421503,36.584628476291556],[112.0492630436169,36.58450106066455],[112.04865943775427,36.58432839998002],[112.0477426221452,36.5842328542273],[112.04683985881641,36.58429936545135],[112.04642531482043,36.58441105677473],[112.046079322016,36.5845042851974],[112.04560290366489,36.5847192540047],[112.04584585915968,36.58485670932506],[112.04744487111202,36.5852945141633],[112.04823812983483,36.585884198094206],[112.04944366121619,36.58736939008336],[112.04965307380778,36.58851153308876],[112.04959601329661,36.59129075564037],[112.04963411905902,36.59336565188589],[112.04907160592323,36.59421755316697],[112.04860621862397,36.59521213159675],[112.04578894602365,36.596544665144854],[112.04490497560616,36.59755094306914],[112.04472301262848,36.600751578793904],[112.04419003937049,36.60248383843016],[112.04384740326094,36.60288359331204],[112.04379398378849,36.60505098340062],[112.04556066085834,36.6052249738405],[112.04734812060727,36.605377077630806],[112.04735002614136,36.605377239300104],[112.04961901429544,36.60532887508713],[112.04962734728043,36.60532869806121],[112.05020539163287,36.60541528096591],[112.05106201209044,36.606062486884504],[112.0518996000964,36.60691908759863],[112.05355572415743,36.60764242845403],[112.05515473447505,36.607927947160455],[112.05623978827933,36.60886068715293],[112.05797205543985,36.60956499133259],[112.05983757046565,36.610155080179155],[112.06176021547654,36.61207767095224],[112.06261684138,36.61302944965983],[112.06323861875156,36.614495131185826],[112.06323867071535,36.614495252370055],[112.06529218174926,36.614469183354814],[112.06530116036703,36.614469068837764],[112.0658436811695,36.61458327789919],[112.06636692469284,36.615294664253966],[112.06587203028066,36.617407638211056],[112.0651831877097,36.6183841337294],[112.06517636882856,36.61838030646599],[112.06370220620923,36.61755287901233],[112.06285987062762,36.61741011952655],[112.06285839146474,36.617411482562346],[112.06240538897053,36.61782860646932],[112.0624646553676,36.61906378593726],[112.06268320010847,36.619773055016104],[112.06407211418983,36.6208841555451],[112.0640606785805,36.62088262218958],[112.06313093519175,36.62075796190889],[112.0631290197524,36.620758981018064],[112.06184989058629,36.62143973658765],[112.06204594044591,36.623442014726415],[112.06101662254483,36.62560642817051],[112.06100456352289,36.62559175851984],[112.06033274290127,36.624774536749314],[112.06054211152932,36.62321360292246],[112.0608657107324,36.62271866924133],[112.06086567312337,36.62043437773861],[112.05962762610939,36.6194953089811],[112.05736306729648,36.618949626953274],[112.05490536948648,36.618662023107255],[112.05504066718744,36.61683668247966],[112.05486933819742,36.616398862812794],[112.05576399036613,36.614685634863015],[112.05594983462868,36.61431688404438],[112.05594982901069,36.613988516448494],[112.0558356077827,36.61353165989613],[112.05560717302565,36.613260403829436],[112.05559833246228,36.6132612075329],[112.05529308454584,36.613288960080006],[112.05470773684772,36.61346028796003],[112.05416910769702,36.61355474791295],[112.05416722058983,36.613553410260344],[112.05367003175886,36.61320086823051],[112.05395105641168,36.612960607691946],[112.05423658512161,36.61247519299661],[112.05425085765654,36.612218209966656],[112.05415066597939,36.61207775304935],[112.05379399417045,36.61190412537165],[112.05312298227827,36.6118755791944],[112.05250907758115,36.61183275514695],[112.05250649213004,36.61183323934626],[112.05158083563155,36.612006396761345],[112.05215193520763,36.61357684032871],[112.05184974982089,36.61560648932204],[112.05184981516359,36.619495393164435],[112.0529609821371,36.62255094711933],[112.05129432598712,36.62366208129868],[112.05143829146184,36.62542660707624],[112.05240552077912,36.628384309017704],[112.05491238765497,36.62954305226216],[112.05674462174427,36.631993886441094],[112.05671395355742,36.63286841128343],[112.05712785039361,36.633662054624814],[112.059600019677,36.63399261050174],[112.0603852499964,36.63423054873316],[112.05976660285384,36.63515854796128],[112.06043263973515,36.63572942308303],[112.06043286374312,36.635729614823916],[112.06273171400981,36.63568219040691],[112.06274095009096,36.6356819998788],[112.06478731814042,36.637062070201985],[112.06607224310956,36.637680717956144],[112.06657242840879,36.63921752861549],[112.063764227334,36.641963789147226],[112.06287934323608,36.64368874539178],[112.06296138549386,36.64421758564325],[112.06635788120582,36.643772157642296],[112.06870403894682,36.64377213259753],[112.06871355702754,36.64377213190285],[112.07096754145435,36.643439941559485],[112.07097405057996,36.64343898194462],[112.07313938065778,36.644129005113996],[112.07199727166069,36.646389514126795],[112.07164038062751,36.64812653045664],[112.07240596366222,36.64977305977122],[112.07185043772506,36.651717517115166],[112.07185046126922,36.65310641115972],[112.07184094290045,36.653104295457226],[112.06935044046237,36.65255088046721],[112.06934798395818,36.65255244969339],[112.06700050856557,36.654051460375534],[112.06601714318339,36.655606483520216],[112.0649060547212,36.65727316815218],[112.06518387181616,36.65949539539928],[112.064311815464,36.66054744226012],[112.06435056614612,36.66143985603715],[112.06487840481486,36.6620201585216],[112.06597747450346,36.66228443620643],[112.06740615362267,36.662550938341695],[112.06804763967519,36.6638310696532],[112.06869011998866,36.665187359826184],[112.06996103060635,36.66655061396652],[112.07129513797554,36.66727313586797],[112.06796183257322,36.669773180722395],[112.07046186164737,36.67088426946233],[112.06976100821392,36.67277785698862],[112.07002278335351,36.674800403157874],[112.0701841709152,36.67616206921809],[112.07240643439282,36.678106496090685],[112.07035597152063,36.67855996192483],[112.06990643772454,36.678939860211564],[112.07157313488209,36.6803287367443],[112.07027473087712,36.68122718013518],[112.06996065029277,36.681798256179896],[112.07001914406425,36.682252460521205],[112.068523878768,36.684580040342595],[112.06781018236384,36.68559022575204],[112.06637247398068,36.68580532176761],[112.0663724904898,36.68676662790869],[112.06657323752002,36.68782881718524],[112.06435104266016,36.69005107172199],[112.06331297664381,36.69295582995329],[112.06326540780668,36.69416935919035],[112.06212888968331,36.69477333562997],[112.0619329503223,36.69702473783672],[112.06202814722042,36.69802411406304],[112.06296228766435,36.69838445164109],[112.06590450262712,36.69845232668664],[112.06590669206899,36.698452377367694],[112.06934784473647,36.698428607423686],[112.069356925576,36.69842854477703],[112.07168881211,36.69876164512603],[112.07321168433437,36.69942788118588],[112.0768760748369,36.69964199280382],[112.07918417407485,36.70040339914055],[112.08096878988414,36.70116480944766],[112.0841042334902,36.70178379860719],[112.08514677987232,36.702470924601506],[112.08629580966169,36.70366199561232],[112.08799453128255,36.70375224985591],[112.08800177145788,36.70375263512392],[112.09017518757709,36.703385782518076],[112.09018471043657,36.703384175184596],[112.09018138011756,36.70455687166027],[112.090740117568,36.705328369103455],[112.09074030017662,36.70532862063374],[112.0951459639354,36.705209877261666],[112.09716997317554,36.705259625812076],[112.09717047809919,36.705259404899124],[112.0971794921138,36.70525962638185],[112.10018476261915,36.703939623752376],[112.10107534836506,36.702711247632216],[112.10093256012416,36.70147392519325],[112.10155121490725,36.701045613745265],[112.10197950094519,36.699927258312286],[112.10326440016415,36.69897545613516],[112.10379579266318,36.69810623054659],[112.10576282032586,36.69747636362084],[112.10856710618746,36.69714362145132],[112.10857059030089,36.69714320785066],[112.11045345421616,36.69727220505201],[112.11046247414346,36.697272822856505],[112.11204458808561,36.69531097839459],[112.11259185348806,36.69454954296921],[112.11379576662745,36.693939440729345],[112.11394165501848,36.693052020561254],[112.11318666377063,36.6910993052959],[112.11316286234667,36.69062341144489],[112.11185122592966,36.68866166443888],[112.1104026240036,36.687553924585984],[112.10752344063641,36.68617386418908],[112.1051844793611,36.685606170350205],[112.10590537595947,36.68472240408626],[112.10666363449398,36.68398855781063],[112.10726164324247,36.68281881373324],[112.10871309861,36.681557679701676],[112.10909379804563,36.68053450302469],[112.10930794219156,36.68005860649761],[112.10906998011541,36.67917820594894],[112.10961725233784,36.67879748468344],[112.11046214602209,36.67755052796226],[112.11060392426286,36.67705949887037],[112.11370990318082,36.67634658685957],[112.11587520037145,36.6751092392591],[112.11627969543527,36.6742050360076],[112.11775493191384,36.67206349826324],[112.11830219153615,36.67092134602696],[112.11932534028095,36.66944606338797],[112.1192776368579,36.66264078153195],[112.11875413422682,36.66154623034644],[112.11875412468835,36.660927568623215],[112.11842099082727,36.660427883627506],[112.11823926218088,36.65977090922092],[112.11811164058972,36.65930953579017],[112.11740631451038,36.65921705256036],[112.11708842984801,36.65707284539005],[112.11616042203502,36.65619245191478],[112.11556554726388,36.65571656395681],[112.11527997586168,36.65364642858139],[112.11508960817856,36.65309915258991],[112.11482780488471,36.64933959320565],[112.11375702428029,36.64829263833221],[112.11301938197208,36.64791193034956],[112.11254347502852,36.64710291608088],[112.11256725796392,36.646412869669795],[112.11063987113222,36.64548489775944],[112.10768378706018,36.64338376674886],[112.10712815330692,36.64297580357546],[112.1035014001465,36.64205853761017],[112.10157262291007,36.641717159774245],[112.10171677487544,36.640773643926444],[112.10150048899277,36.64053240970137],[112.10047942717192,36.63939356454048],[112.09823920928086,36.63782829293307],[112.09898946595627,36.637475957209816],[112.09929601560839,36.63733199554472],[112.10020973608684,36.637541378406716],[112.10129478716544,36.63838381726529],[112.10271610332883,36.63777550098262],[112.10331253900503,36.635942341716394],[112.10296140189043,36.634772675242736],[112.09840914161882,36.630660932685394],[112.09601683004242,36.62893939465376],[112.09315046341122,36.62787701081195],[112.09046124151187,36.62838389791889],[112.0887960524986,36.62916197157845],[112.08805843574909,36.630351713905824],[112.08778413516214,36.630544258121695],[112.08558381518077,36.632088753935975],[112.08194323770988,36.63289781273263],[112.07907239077659,36.63366181701402],[112.07907231993649,36.63365930270908],[112.07901646716823,36.63166052031891],[112.07887367167268,36.63006627699754],[112.07915919545842,36.62923345971439],[112.0802061507003,36.628543401568606],[112.08111033737379,36.62782955075407],[112.08103892276563,36.62594977121464],[112.08230001233348,36.624093771422814],[112.08227619175777,36.62257091025456],[112.08341829776568,36.62016763408416],[112.08513150311602,36.61933480101877],[112.086368797311,36.61743121194655],[112.0881533717142,36.615717974557924],[112.08831654436968,36.61419254314283],[112.08867681879345,36.61352885654587],[112.08912889759411,36.612220143158694],[112.08898610844298,36.61100661499932],[112.08965233914203,36.609745489446254],[112.09096103732719,36.609055429516644],[112.09188901945782,36.60836537264734],[112.09210315735112,36.607484965904256],[112.0932386654502,36.60643934301101],[112.09350861926502,36.60594209311555],[112.09326113174986,36.60457152126552],[112.09388769012214,36.6032019022872],[112.09210143783687,36.60282411023178],[112.09129414459937,36.60227268112109],[112.09086258548065,36.602230148581675],[112.08974738941974,36.60196462232435],[112.08905733453007,36.60151252999551],[112.08931287626508,36.600688504301104],[112.08954907976853,36.599926835803494],[112.08918738869441,36.5992986606191],[112.0891816026162,36.59930514282094],[112.08851631743696,36.600050481384535],[112.08715373977546,36.600489379560365],[112.08715097789813,36.60048720337973],[112.0863685048139,36.59987072590681],[112.08546072972936,36.59893939986201],[112.08545136691293,36.59893955903304],[112.08246615640385,36.59899036336319],[112.07956321054854,36.599513878464464],[112.07955505010351,36.59951363430328],[112.07718373888424,36.59944252008222],[112.07601624859777,36.59921728011502],[112.07725509866673,36.59801483677071],[112.07737404932412,36.59663474324128],[112.07735022689566,36.5949691153827],[112.07740505219256,36.59366168866796],[112.076612544582,36.59216134831447],[112.07411406876876,36.59032918447367],[112.07254360701012,36.589662949829744],[112.0705448356267,36.58873497848156],[112.07035447145181,36.58833047014559],[112.06928370398634,36.5880687399644],[112.06704697646806,36.58654590316945],[112.06614276815765,36.586022429971734],[112.06551220984487,36.585278720493356]]],[[[112.0683022710146,36.584436189177524],[112.0680101193466,36.5844513786632],[112.06799963615343,36.58445192405051],[112.06783126654133,36.58448867914438],[112.06717109635777,36.58463278458355],[112.06687406927645,36.5847302547178],[112.06637369191144,36.584894459798136],[112.06562177353324,36.58521430804064],[112.06551220984487,36.585278720493356],[112.06614276815765,36.586022429971734],[112.06704697646806,36.58654590316945],[112.06928370398634,36.5880687399644],[112.07035447145181,36.58833047014559],[112.0705448356267,36.58873497848156],[112.07254360701012,36.589662949829744],[112.07411406876876,36.59032918447367],[112.076612544582,36.59216134831447],[112.07740505219256,36.59366168866796],[112.07735022689566,36.5949691153827],[112.07737404932412,36.59663474324128],[112.07725509866673,36.59801483677071],[112.07601624859777,36.59921728011502],[112.07718373888424,36.59944252008222],[112.07955505010351,36.59951363430328],[112.07956321054854,36.599513878464464],[112.08246615640385,36.59899036336319],[112.08545136691293,36.59893955903304],[112.08546072972936,36.59893939986201],[112.0863685048139,36.59987072590681],[112.08715097789813,36.60048720337973],[112.08715373977546,36.600489379560365],[112.08851631743696,36.600050481384535],[112.0891816026162,36.59930514282094],[112.08918738869441,36.5992986606191],[112.08954907976853,36.599926835803494],[112.08931287626508,36.600688504301104],[112.08905733453007,36.60151252999551],[112.08974738941974,36.60196462232435],[112.09086258548065,36.602230148581675],[112.09129414459937,36.60227268112109],[112.09210143783687,36.60282411023178],[112.09388769012214,36.6032019022872],[112.09326113174986,36.60457152126552],[112.09350861926502,36.60594209311555],[112.0932386654502,36.60643934301101],[112.09210315735112,36.607484965904256],[112.09188901945782,36.60836537264734],[112.09096103732719,36.609055429516644],[112.08965233914203,36.609745489446254],[112.08898610844298,36.61100661499932],[112.08912889759411,36.612220143158694],[112.08867681879345,36.61352885654587],[112.08831654436968,36.61419254314283],[112.0881533717142,36.615717974557924],[112.086368797311,36.61743121194655],[112.08513150311602,36.61933480101877],[112.08341829776568,36.62016763408416],[112.08227619175777,36.62257091025456],[112.08230001233348,36.624093771422814],[112.08103892276563,36.62594977121464],[112.08111033737379,36.62782955075407],[112.0802061507003,36.628543401568606],[112.07915919545842,36.62923345971439],[112.07887367167268,36.63006627699754],[112.07901646716823,36.63166052031891],[112.07907231993649,36.63365930270908],[112.07907239077659,36.63366181701402],[112.08194323770988,36.63289781273263],[112.08558381518077,36.632088753935975],[112.08778413516214,36.630544258121695],[112.08805843574909,36.630351713905824],[112.0887960524986,36.62916197157845],[112.09046124151187,36.62838389791889],[112.09315046341122,36.62787701081195],[112.09601683004242,36.62893939465376],[112.09840914161882,36.630660932685394],[112.10296140189043,36.634772675242736],[112.10331253900503,36.635942341716394],[112.10271610332883,36.63777550098262],[112.10129478716544,36.63838381726529],[112.10020973608684,36.637541378406716],[112.09929601560839,36.63733199554472],[112.09898946595627,36.637475957209816],[112.09823920928086,36.63782829293307],[112.10047942717192,36.63939356454048],[112.10150048899277,36.64053240970137],[112.10171677487544,36.640773643926444],[112.10157262291007,36.641717159774245],[112.1035014001465,36.64205853761017],[112.10712815330692,36.64297580357546],[112.10768378706018,36.64338376674886],[112.11063987113222,36.64548489775944],[112.11256725796392,36.646412869669795],[112.11254347502852,36.64710291608088],[112.11301938197208,36.64791193034956],[112.11375702428029,36.64829263833221],[112.11482780488471,36.64933959320565],[112.11508960817856,36.65309915258991],[112.11527997586168,36.65364642858139],[112.11556554726388,36.65571656395681],[112.11616042203502,36.65619245191478],[112.11708842984801,36.65707284539005],[112.11740631451038,36.65921705256036],[112.11811164058972,36.65930953579017],[112.11823926218088,36.65977090922092],[112.11842099082727,36.660427883627506],[112.11875412468835,36.660927568623215],[112.11875413422682,36.66154623034644],[112.1192776368579,36.66264078153195],[112.11932534028095,36.66944606338797],[112.11830219153615,36.67092134602696],[112.11775493191384,36.67206349826324],[112.11627969543527,36.6742050360076],[112.11587520037145,36.6751092392591],[112.11370990318082,36.67634658685957],[112.11060392426286,36.67705949887037],[112.11046214602209,36.67755052796226],[112.10961725233784,36.67879748468344],[112.10906998011541,36.67917820594894],[112.10930794219156,36.68005860649761],[112.10909379804563,36.68053450302469],[112.10871309861,36.681557679701676],[112.10726164324247,36.68281881373324],[112.10666363449398,36.68398855781063],[112.10590537595947,36.68472240408626],[112.1051844793611,36.685606170350205],[112.10752344063641,36.68617386418908],[112.1104026240036,36.687553924585984],[112.11185122592966,36.68866166443888],[112.11316286234667,36.69062341144489],[112.11318666377063,36.6910993052959],[112.11394165501848,36.693052020561254],[112.11379576662745,36.693939440729345],[112.11259185348806,36.69454954296921],[112.11204458808561,36.69531097839459],[112.11046247414346,36.697272822856505],[112.11045345421616,36.69727220505201],[112.10857059030089,36.69714320785066],[112.10856710618746,36.69714362145132],[112.10576282032586,36.69747636362084],[112.10379579266318,36.69810623054659],[112.10326440016415,36.69897545613516],[112.10197950094519,36.699927258312286],[112.10155121490725,36.701045613745265],[112.10093256012416,36.70147392519325],[112.10107534836506,36.702711247632216],[112.10018476261915,36.703939623752376],[112.0971794921138,36.70525962638185],[112.09717047809919,36.705259404899124],[112.09716997317554,36.705259625812076],[112.0951459639354,36.705209877261666],[112.09074030017662,36.70532862063374],[112.090740117568,36.705328369103455],[112.09018138011756,36.70455687166027],[112.09018471043657,36.703384175184596],[112.09017518757709,36.703385782518076],[112.08800177145788,36.70375263512392],[112.08799453128255,36.70375224985591],[112.08629580966169,36.70366199561232],[112.08514677987232,36.702470924601506],[112.0841042334902,36.70178379860719],[112.08096878988414,36.70116480944766],[112.07918417407485,36.70040339914055],[112.0768760748369,36.69964199280382],[112.07321168433437,36.69942788118588],[112.07168881211,36.69876164512603],[112.069356925576,36.69842854477703],[112.06934784473647,36.698428607423686],[112.06590669206899,36.698452377367694],[112.06590450262712,36.69845232668664],[112.06296228766435,36.69838445164109],[112.06202814722042,36.69802411406304],[112.0619329503223,36.69702473783672],[112.06212888968331,36.69477333562997],[112.06326540780668,36.69416935919035],[112.06331297664381,36.69295582995329],[112.06435104266016,36.69005107172199],[112.06657323752002,36.68782881718524],[112.0663724904898,36.68676662790869],[112.06637247398068,36.68580532176761],[112.06781018236384,36.68559022575204],[112.068523878768,36.684580040342595],[112.07001914406425,36.682252460521205],[112.06996065029277,36.681798256179896],[112.07027473087712,36.68122718013518],[112.07157313488209,36.6803287367443],[112.06990643772454,36.678939860211564],[112.07035597152063,36.67855996192483],[112.07240643439282,36.678106496090685],[112.0701841709152,36.67616206921809],[112.07002278335351,36.674800403157874],[112.06976100821392,36.67277785698862],[112.07046186164737,36.67088426946233],[112.06796183257322,36.669773180722395],[112.07129513797554,36.66727313586797],[112.06996103060635,36.66655061396652],[112.06869011998866,36.665187359826184],[112.06804763967519,36.6638310696532],[112.06740615362267,36.662550938341695],[112.06597747450346,36.66228443620643],[112.06487840481486,36.6620201585216],[112.06435056614612,36.66143985603715],[112.064311815464,36.66054744226012],[112.06518387181616,36.65949539539928],[112.0649060547212,36.65727316815218],[112.06601714318339,36.655606483520216],[112.06700050856557,36.654051460375534],[112.06934798395818,36.65255244969339],[112.06935044046237,36.65255088046721],[112.07184094290045,36.653104295457226],[112.07185046126922,36.65310641115972],[112.07185043772506,36.651717517115166],[112.07240596366222,36.64977305977122],[112.07164038062751,36.64812653045664],[112.07199727166069,36.646389514126795],[112.07313938065778,36.644129005113996],[112.07097405057996,36.64343898194462],[112.07096754145435,36.643439941559485],[112.06871355702754,36.64377213190285],[112.06870403894682,36.64377213259753],[112.06635788120582,36.643772157642296],[112.06296138549386,36.64421758564325],[112.06287934323608,36.64368874539178],[112.063764227334,36.641963789147226],[112.06657242840879,36.63921752861549],[112.06607224310956,36.637680717956144],[112.06478731814042,36.637062070201985],[112.06274095009096,36.6356819998788],[112.06273171400981,36.63568219040691],[112.06043286374312,36.635729614823916],[112.06043263973515,36.63572942308303],[112.05976660285384,36.63515854796128],[112.0603852499964,36.63423054873316],[112.059600019677,36.63399261050174],[112.05712785039361,36.633662054624814],[112.05671395355742,36.63286841128343],[112.05674462174427,36.631993886441094],[112.05491238765497,36.62954305226216],[112.05240552077912,36.628384309017704],[112.05143829146184,36.62542660707624],[112.05129432598712,36.62366208129868],[112.0529609821371,36.62255094711933],[112.05184981516359,36.619495393164435],[112.05184974982089,36.61560648932204],[112.05215193520763,36.61357684032871],[112.05158083563155,36.612006396761345],[112.05250649213004,36.61183323934626],[112.05250907758115,36.61183275514695],[112.05312298227827,36.6118755791944],[112.05379399417045,36.61190412537165],[112.05415066597939,36.61207775304935],[112.05425085765654,36.612218209966656],[112.05423658512161,36.61247519299661],[112.05395105641168,36.612960607691946],[112.05367003175886,36.61320086823051],[112.05416722058983,36.613553410260344],[112.05416910769702,36.61355474791295],[112.05470773684772,36.61346028796003],[112.05529308454584,36.613288960080006],[112.05559833246228,36.6132612075329],[112.05560717302565,36.613260403829436],[112.0558356077827,36.61353165989613],[112.05594982901069,36.613988516448494],[112.05594983462868,36.61431688404438],[112.05576399036613,36.614685634863015],[112.05486933819742,36.616398862812794],[112.05504066718744,36.61683668247966],[112.05490536948648,36.618662023107255],[112.05736306729648,36.618949626953274],[112.05962762610939,36.6194953089811],[112.06086567312337,36.62043437773861],[112.0608657107324,36.62271866924133],[112.06054211152932,36.62321360292246],[112.06033274290127,36.624774536749314],[112.06100456352289,36.62559175851984],[112.06101662254483,36.62560642817051],[112.06204594044591,36.623442014726415],[112.06184989058629,36.62143973658765],[112.0631290197524,36.620758981018064],[112.06313093519175,36.62075796190889],[112.0640606785805,36.62088262218958],[112.06407211418983,36.6208841555451],[112.06268320010847,36.619773055016104],[112.0624646553676,36.61906378593726],[112.06240538897053,36.61782860646932],[112.06285839146474,36.617411482562346],[112.06285987062762,36.61741011952655],[112.06370220620923,36.61755287901233],[112.06517636882856,36.61838030646599],[112.0651831877097,36.6183841337294],[112.06587203028066,36.617407638211056],[112.06636692469284,36.615294664253966],[112.0658436811695,36.61458327789919],[112.06530116036703,36.614469068837764],[112.06529218174926,36.614469183354814],[112.06323867071535,36.614495252370055],[112.06323861875156,36.614495131185826],[112.06261684138,36.61302944965983],[112.06176021547654,36.61207767095224],[112.05983757046565,36.610155080179155],[112.05797205543985,36.60956499133259],[112.05623978827933,36.60886068715293],[112.05515473447505,36.607927947160455],[112.05355572415743,36.60764242845403],[112.0518996000964,36.60691908759863],[112.05106201209044,36.606062486884504],[112.05020539163287,36.60541528096591],[112.04962734728043,36.60532869806121],[112.04961901429544,36.60532887508713],[112.04735002614136,36.605377239300104],[112.04734812060727,36.605377077630806],[112.04556066085834,36.6052249738405],[112.04379398378849,36.60505098340062],[112.04384740326094,36.60288359331204],[112.04419003937049,36.60248383843016],[112.04472301262848,36.600751578793904],[112.04490497560616,36.59755094306914],[112.04578894602365,36.596544665144854],[112.04860621862397,36.59521213159675],[112.04907160592323,36.59421755316697],[112.04963411905902,36.59336565188589],[112.04959601329661,36.59129075564037],[112.04965307380778,36.58851153308876],[112.04944366121619,36.58736939008336],[112.04823812983483,36.585884198094206],[112.04744487111202,36.5852945141633],[112.04584585915968,36.58485670932506],[112.04560290366489,36.5847192540047],[112.04554392592213,36.58474586638495],[112.04532063409209,36.584846614508],[112.04473654289113,36.58525453899093],[112.04448765023622,36.58542836673089],[112.04434780741003,36.58553593114618],[112.0440346128356,36.58577683617005],[112.04369957223626,36.58603453447575],[112.04379367053565,36.58616202459277],[112.04384933488559,36.58794230811074],[112.04404922642995,36.588884576078236],[112.0438547828825,36.58967166723916],[112.04374943319125,36.5900981087107],[112.04307843795246,36.59104038563542],[112.04296840607341,36.591413290592],[112.04282146963045,36.59191127485577],[112.04296426045208,36.59326757135588],[112.04269301664006,36.5942098440003],[112.04224772610802,36.59467585853419],[112.042079122936,36.59485230680267],[112.04209064955788,36.59516913022826],[112.0421076891389,36.59563753177501],[112.04209569753196,36.595684754266465],[112.0418792758928,36.596536973367094],[112.04190784564614,36.59752207385671],[112.04148958585674,36.598050659420764],[112.04060868148079,36.599163922409886],[112.03999480215927,36.60062016377201],[112.03934946034036,36.60143990604252],[112.03939520047678,36.602162067345674],[112.03766773854258,36.60418939361908],[112.03588316233699,36.60585980093617],[112.03551776848167,36.606135456579516],[112.03537403102256,36.60624389313592],[112.03425562532227,36.60708762518551],[112.03221407710838,36.60942904513118],[112.03152245825312,36.61106727609103],[112.03178284480454,36.61141791991389],[112.03261388011822,36.6125556641786],[112.03423014001753,36.61323851354683],[112.03696830598962,36.61211303617348],[112.03783918681413,36.611770382376726],[112.03838170033046,36.61142773318888],[112.03954761958687,36.610057145623344],[112.04150829168329,36.60935756122913],[112.04320723033338,36.60914339000916],[112.0448776156142,36.608972050721846],[112.04620477583993,36.60872786203697],[112.046571834698,36.60866207728446],[112.04907497203392,36.60704463507901],[112.0492700863378,36.606944694768046],[112.04996015796968,36.60844375345524],[112.05017103948781,36.60918179181924],[112.05038848827701,36.60994281466639],[112.05045126738406,36.611439823830594],[112.04867530622212,36.612227123708465],[112.04771876353064,36.61249839390947],[112.04684017862725,36.613662092392026],[112.04653494428773,36.61555803737868],[112.04651956267557,36.615653584234344],[112.04620492818445,36.6179282134323],[112.04601993295678,36.619265624198086],[112.04581577194018,36.62058261261467],[112.04573442676168,36.62110733664004],[112.04547752879819,36.622772601094724],[112.04534899511971,36.62360578383708],[112.045781961695,36.62393377936431],[112.04582013673932,36.62396269924351],[112.04617707941286,36.625376100487294],[112.04600705824032,36.62671770441016],[112.04734782254968,36.62794591497277],[112.04828486663033,36.628830876650184],[112.04863275708898,36.62915943139635],[112.04898968525815,36.62957345544474],[112.05043166555203,36.63080124515515],[112.05085997540412,36.63111533063442],[112.05161665113688,36.631400859494406],[112.0540627448014,36.63255097285085],[112.05462909418004,36.63334247413044],[112.05462911175012,36.634370404662114],[112.05485416457462,36.63541224324202],[112.05489613283254,36.63560653030357],[112.05578556710826,36.636326316845725],[112.05751307148051,36.636768879520524],[112.05848390471824,36.637354217801175],[112.05878508022145,36.63810649749233],[112.05888369069372,36.63943862974003],[112.05828407586117,36.640181030340976],[112.05821271019613,36.64126606950703],[112.05774158339591,36.64176576277564],[112.05775587758383,36.64282224748613],[112.05740982729974,36.643388197892854],[112.05692198277092,36.64418604541733],[112.05656295950939,36.64477321291019],[112.05749893529688,36.645263586436315],[112.0582127908675,36.64614874159033],[112.05878522842931,36.646995418458175],[112.05998313247817,36.64703388536384],[112.0608397445258,36.64713381341897],[112.06165353220156,36.64763349317866],[112.06288134031963,36.647690587205254],[112.06275285629697,36.6481474468749],[112.06336677667595,36.64914681712919],[112.06267420352782,36.65116205897884],[112.06369519022745,36.65200217777972],[112.06379514212755,36.65280167752158],[112.06352262681538,36.65303926060466],[112.0632383528385,36.65328709521309],[112.06184091216927,36.65393985506872],[112.06151088410996,36.65492894898804],[112.06143951499298,36.655785558310114],[112.06258109143126,36.65645619003554],[112.06351716021972,36.6572731833629],[112.06251448754108,36.657760140032444],[112.0614681055146,36.65804129598875],[112.05965494918321,36.65806986909221],[112.05894419635825,36.6585787168331],[112.05839860415263,36.6589693222938],[112.05804169386211,36.65964033707722],[112.05742779977369,36.660239969604],[112.05712831264246,36.66143993477346],[112.05874127063616,36.660411276312246],[112.05912674225885,36.660197121003954],[112.05913192532118,36.660197546179816],[112.06073942215349,36.660328779870184],[112.0612181268408,36.66104485040376],[112.06192503184137,36.66208162998855],[112.06283876849557,36.663309427467695],[112.0634854114157,36.66377542859138],[112.06343841344246,36.66435162759753],[112.0635383739002,36.66575075496567],[112.06363649510155,36.66841284964376],[112.06363835679645,36.66846334980098],[112.06392390517917,36.66914863441173],[112.06435070518438,36.669773220076635],[112.06498576962635,36.67074484725218],[112.06548011852014,36.671490015269605],[112.06652234418216,36.67247510428358],[112.06766450397795,36.67336025480658],[112.06834980764523,36.67428824052994],[112.06873529532474,36.67504490815692],[112.06877090682394,36.676053435792944],[112.06877814579455,36.67625843732559],[112.06877815836316,36.67701510811861],[112.06759319595702,36.677900283754205],[112.0660175279363,36.67866212373057],[112.06593711554378,36.67979911852718],[112.06629404866901,36.680570062664906],[112.06660814495338,36.6808841495953],[112.06615422534429,36.68163366870795],[112.06599425749198,36.68189780980286],[112.06587150518105,36.68303959025289],[112.06585151146042,36.683225555939416],[112.06469510455483,36.68416783816944],[112.06466656893937,36.685224323061],[112.0641383436777,36.686337920773816],[112.06256790581746,36.68709460919374],[112.0618683504942,36.687651412501296],[112.06131157846771,36.689107653733764],[112.05952698614858,36.68977868423166],[112.0585176942024,36.69060669324095],[112.05838487143612,36.69163468289051],[112.05867042363263,36.692648333379566],[112.05921295635336,36.69344782939886],[112.05932719090904,36.694575696998804],[112.05912229341547,36.695127368869045],[112.05895600982589,36.695575077613995],[112.05815652753476,36.69683144675547],[112.05702867636509,36.69788794384185],[112.0565147198829,36.698459022204034],[112.05580089106964,36.6992442548322],[112.05574007077473,36.70060675906562],[112.05764263030449,36.70095745200925],[112.05764616931795,36.70095700967298],[112.05855634539996,36.700843228083095],[112.0608263490956,36.700115086099046],[112.06231113806056,36.700029408546044],[112.0623164136135,36.700029447072076],[112.06425278675088,36.700043664554194],[112.06645142311304,36.700357730887774],[112.0675364662099,36.70055759576405],[112.06879569260384,36.7011621761333],[112.07003433857194,36.701898994206914],[112.0709077967313,36.70299078451435],[112.07094807399122,36.703041129666694],[112.0717047599691,36.70384062330386],[112.07237577843681,36.70431175093894],[112.07351799923329,36.705051027730285],[112.07483140517616,36.705068396200865],[112.07483154175218,36.70506831927683],[112.07593071049813,36.70445448114655],[112.07700145583854,36.7034550920311],[112.07824020494536,36.70282874682885],[112.07877177284591,36.70291255314202],[112.08025977158981,36.70367977875542],[112.08059922344135,36.70385480375131],[112.08268470607248,36.70505092862881],[112.08422556293058,36.705311000351884],[112.0842311171492,36.70531093444448],[112.08542481541042,36.70529671115725],[112.08542552354508,36.70529677318242],[112.0876948339687,36.705496561827324],[112.0876976837981,36.705496288891354],[112.08903685352219,36.705368055996075],[112.08962220874713,36.70563930844903],[112.09005053513252,36.706981324791286],[112.09074034239292,36.707828630461876],[112.09192082046467,36.708166281303605],[112.09273460715767,36.70868023761741],[112.09346273971404,36.70952256158081],[112.09379111504298,36.710022246775765],[112.09387678243036,36.71042199732623],[112.09466201303175,36.71072180239358],[112.09632764692095,36.71093593623063],[112.09771724600878,36.71017925008361],[112.09794566260673,36.709465406464204],[112.09933049308451,36.70818047727188],[112.09962925098058,36.706717418262166],[112.10168612834885,36.70571056282556],[112.1020573228956,36.705482129214126],[112.10217153040776,36.705053823350546],[112.10335648690659,36.703840281074264],[112.10354535890966,36.7031995065191],[112.10407362662072,36.70143957399512],[112.10526954263712,36.70149886235865],[112.10711124025585,36.70069934051896],[112.10836759161701,36.700113977618464],[112.11046627875845,36.69971420430803],[112.11222240389763,36.69972841420356],[112.11407829626897,36.698557743188275],[112.11461965019572,36.6978283352375],[112.11562015070416,36.69600217522309],[112.11569150578126,36.69417474189535],[112.11590562436722,36.69221881587606],[112.11616013891624,36.69145523107963],[112.11693350507436,36.68913501203124],[112.11502623097245,36.686885809944854],[112.11486332490297,36.686693697746065],[112.11209359851497,36.685408814395835],[112.1109942783796,36.68512329032366],[112.10961941084118,36.6847727855762],[112.10980925154828,36.68215372453238],[112.10993772809925,36.68122572997463],[112.11059444559277,36.68028345330587],[112.1126217313982,36.67878436542557],[112.11407327741512,36.67782826839038],[112.11696187106789,36.67789915606293],[112.11847521700986,36.67797052334807],[112.11847622157423,36.6779702904436],[112.11927471540656,36.67778491552645],[112.12017487797095,36.67671708673132],[112.1213019925393,36.67584324633257],[112.12196045662084,36.67457283061439],[112.12271535376867,36.6731163593628],[112.12275817737603,36.67273088449359],[112.12188721189625,36.66801954421281],[112.1220131904693,36.66787713148766],[112.12221557328128,36.66764834350542],[112.12216684040702,36.66495223961947],[112.1221012539231,36.66132371401572],[112.12148218593256,36.66049260062704],[112.12055932191478,36.659253591509604],[112.12045234684962,36.65810590471597],[112.1230149013341,36.65715487369095],[112.12406344598868,36.65643919230758],[112.12325757469577,36.65524177616539],[112.12299261246744,36.655120655011494],[112.1227578828779,36.65501335293558],[112.12261505867211,36.65165830217269],[112.12285776150844,36.65148697795421],[112.12280061562267,36.649188410999045],[112.12299369790554,36.648319484178],[112.12317178618464,36.64751801936086],[112.12267438995883,36.6467169505443],[112.1220963361221,36.64633011977256],[112.12018386877389,36.645050304665865],[112.11485412565617,36.64507674459306],[112.11484835498615,36.64507677337441],[112.11295209211374,36.64477260328677],[112.11189303037847,36.64382044483972],[112.11150754370765,36.64306377723022],[112.11145042863657,36.642578366346164],[112.11033682874161,36.64212152009858],[112.10903761459895,36.64077951299746],[112.10802393762991,36.63948033405802],[112.1073963976272,36.637828193161475],[112.10786684719916,36.63671063285979],[112.10905180537152,36.63562558191759],[112.10909458707489,36.63267027970814],[112.10993688884423,36.63080000776788],[112.10989626536714,36.62921702433187],[112.10820934346071,36.62788755572374],[112.10591075203756,36.62654555989884],[112.10465724751216,36.62595032389787],[112.10458872773191,36.625917785564816],[112.10278410269594,36.62506080354107],[112.10128502406884,36.62366154057119],[112.0980013105725,36.621762911232615],[112.09700192816729,36.62150593841694],[112.09501742800202,36.62022104664861],[112.09296107662048,36.617828276771334],[112.09214776994732,36.61933591431144],[112.09157673686238,36.62169159652899],[112.09123410291186,36.6223055027942],[112.09212784113966,36.623939419415024],[112.09181950155704,36.62526079876293],[112.09046120476333,36.62616166684002],[112.08706531085033,36.62480399140029],[112.08378496227746,36.62449506684754],[112.0850522334232,36.622177079074525],[112.08595165936086,36.62126335280176],[112.08705097085722,36.621006357161065],[112.08705406777369,36.62100702454843],[112.0879789678561,36.62120622365353],[112.08798180116469,36.621205552597985],[112.08934048178787,36.62088388267434],[112.08979211450585,36.62059230032681],[112.09037745406167,36.619935560313856],[112.09017378595186,36.61893942153857],[112.09020609893479,36.6179653607786],[112.09040596371796,36.617337179397694],[112.09101660078194,36.61643940279983],[112.09240762961684,36.61503881715772],[112.09268324655115,36.61477271202075],[112.0920191958519,36.61435330642098],[112.09184786853584,36.614039219021414],[112.09190496715256,36.61348242199422],[112.09240543476719,36.61282826432875],[112.09318986550818,36.6125544147953],[112.09373237668619,36.612026166708965],[112.0937792179046,36.611969287732954],[112.09393224857493,36.611783458773346],[112.09424633789308,36.61175490169336],[112.09426060587933,36.61116955187062],[112.09451757510642,36.61044143199607],[112.0952599582547,36.60968475182319],[112.09601649760603,36.60893932215001],[112.09704452937893,36.60771453233556],[112.09711590761283,36.60741471831589],[112.09712756178601,36.60588374336372],[112.09795820461882,36.60524463205288],[112.09837222190646,36.604602171516134],[112.09823863671883,36.60338372211036],[112.09887185899754,36.60143271267779],[112.09906397365431,36.6009796007069],[112.0993497021258,36.60032814362678],[112.09872905784121,36.599476789466465],[112.09876709679045,36.597463758306354],[112.09874858200884,36.597371187395765],[112.0984148751019,36.59393738735435],[112.0985718933848,36.59233838186435],[112.09834343987407,36.59082504217578],[112.09684950659464,36.58921701819222],[112.09462728481063,36.58977259951273],[112.09463147965083,36.59172452165931],[112.09497414039954,36.592752448788616],[112.09434957027634,36.59366150565444],[112.09194751089531,36.596250301998445],[112.09103598028072,36.5973712707176],[112.09090056599669,36.59754950363126],[112.0886353055123,36.597392483534286],[112.08860287565699,36.597371296746104],[112.08756453194161,36.59669293084994],[112.08573845789815,36.595883830266686],[112.08462728184713,36.596135301857615],[112.08462349665767,36.59613616621755],[112.08219985159198,36.59516869714572],[112.08108281997058,36.59472280013484],[112.0794647736664,36.594308789864414],[112.07936958977103,36.59405180748112],[112.07961227532161,36.59285255267476],[112.07944093257079,36.59159619406969],[112.07932194188123,36.59049687994293],[112.0787305391934,36.59025223192297],[112.07805605380919,36.58996865173196],[112.07759918562334,36.58938330758874],[112.07629383894563,36.58782834687472],[112.07371584238683,36.58667075381999],[112.07188839805453,36.586028316498066],[112.06899018051102,36.58468632652922],[112.0683022710146,36.584436189177524]]],[[[112.07310998225554,36.583611826072485],[112.07218589284342,36.58407647995824],[112.07212008719267,36.58410853559814],[112.07146030950342,36.584429920979055],[112.07092715653683,36.58455860752124],[112.07054194260445,36.58457516380074],[112.07019851909654,36.58458992347067],[112.06948293162787,36.58450397312045],[112.06878470875964,36.58441110540245],[112.0683022710146,36.584436189177524],[112.06899018051102,36.58468632652922],[112.07188839805453,36.586028316498066],[112.07371584238683,36.58667075381999],[112.07629383894563,36.58782834687472],[112.07759918562334,36.58938330758874],[112.07805605380919,36.58996865173196],[112.0787305391934,36.59025223192297],[112.07932194188123,36.59049687994293],[112.07944093257079,36.59159619406969],[112.07961227532161,36.59285255267476],[112.07936958977103,36.59405180748112],[112.0794647736664,36.594308789864414],[112.08108281997058,36.59472280013484],[112.08219985159198,36.59516869714572],[112.08462349665767,36.59613616621755],[112.08462728184713,36.596135301857615],[112.08573845789815,36.595883830266686],[112.08756453194161,36.59669293084994],[112.08860287565699,36.597371296746104],[112.0886353055123,36.597392483534286],[112.09090056599669,36.59754950363126],[112.09103598028072,36.5973712707176],[112.09194751089531,36.596250301998445],[112.09434957027634,36.59366150565444],[112.09497414039954,36.592752448788616],[112.09463147965083,36.59172452165931],[112.09462728481063,36.58977259951273],[112.09684950659464,36.58921701819222],[112.09834343987407,36.59082504217578],[112.0985718933848,36.59233838186435],[112.0984148751019,36.59393738735435],[112.09874858200884,36.597371187395765],[112.09876709679045,36.597463758306354],[112.09872905784121,36.599476789466465],[112.0993497021258,36.60032814362678],[112.09906397365431,36.6009796007069],[112.09887185899754,36.60143271267779],[112.09823863671883,36.60338372211036],[112.09837222190646,36.604602171516134],[112.09795820461882,36.60524463205288],[112.09712756178601,36.60588374336372],[112.09711590761283,36.60741471831589],[112.09704452937893,36.60771453233556],[112.09601649760603,36.60893932215001],[112.0952599582547,36.60968475182319],[112.09451757510642,36.61044143199607],[112.09426060587933,36.61116955187062],[112.09424633789308,36.61175490169336],[112.09393224857493,36.611783458773346],[112.0937792179046,36.611969287732954],[112.09373237668619,36.612026166708965],[112.09318986550818,36.6125544147953],[112.09240543476719,36.61282826432875],[112.09190496715256,36.61348242199422],[112.09184786853584,36.614039219021414],[112.0920191958519,36.61435330642098],[112.09268324655115,36.61477271202075],[112.09240762961684,36.61503881715772],[112.09101660078194,36.61643940279983],[112.09040596371796,36.617337179397694],[112.09020609893479,36.6179653607786],[112.09017378595186,36.61893942153857],[112.09037745406167,36.619935560313856],[112.08979211450585,36.62059230032681],[112.08934048178787,36.62088388267434],[112.08798180116469,36.621205552597985],[112.0879789678561,36.62120622365353],[112.08705406777369,36.62100702454843],[112.08705097085722,36.621006357161065],[112.08595165936086,36.62126335280176],[112.0850522334232,36.622177079074525],[112.08378496227746,36.62449506684754],[112.08706531085033,36.62480399140029],[112.09046120476333,36.62616166684002],[112.09181950155704,36.62526079876293],[112.09212784113966,36.623939419415024],[112.09123410291186,36.6223055027942],[112.09157673686238,36.62169159652899],[112.09214776994732,36.61933591431144],[112.09296107662048,36.617828276771334],[112.09501742800202,36.62022104664861],[112.09700192816729,36.62150593841694],[112.0980013105725,36.621762911232615],[112.10128502406884,36.62366154057119],[112.10278410269594,36.62506080354107],[112.10458872773191,36.625917785564816],[112.10465724751216,36.62595032389787],[112.10591075203756,36.62654555989884],[112.10820934346071,36.62788755572374],[112.10989626536714,36.62921702433187],[112.10993688884423,36.63080000776788],[112.10909458707489,36.63267027970814],[112.10905180537152,36.63562558191759],[112.10786684719916,36.63671063285979],[112.1073963976272,36.637828193161475],[112.10802393762991,36.63948033405802],[112.10903761459895,36.64077951299746],[112.11033682874161,36.64212152009858],[112.11145042863657,36.642578366346164],[112.11150754370765,36.64306377723022],[112.11189303037847,36.64382044483972],[112.11295209211374,36.64477260328677],[112.11484835498615,36.64507677337441],[112.11485412565617,36.64507674459306],[112.12018386877389,36.645050304665865],[112.1220963361221,36.64633011977256],[112.12267438995883,36.6467169505443],[112.12317178618464,36.64751801936086],[112.12299369790554,36.648319484178],[112.12280061562267,36.649188410999045],[112.12285776150844,36.65148697795421],[112.12261505867211,36.65165830217269],[112.1227578828779,36.65501335293558],[112.12299261246744,36.655120655011494],[112.12325757469577,36.65524177616539],[112.12406344598868,36.65643919230758],[112.1230149013341,36.65715487369095],[112.12045234684962,36.65810590471597],[112.12055932191478,36.659253591509604],[112.12148218593256,36.66049260062704],[112.1221012539231,36.66132371401572],[112.12216684040702,36.66495223961947],[112.12221557328128,36.66764834350542],[112.1220131904693,36.66787713148766],[112.12188721189625,36.66801954421281],[112.12275817737603,36.67273088449359],[112.12271535376867,36.6731163593628],[112.12196045662084,36.67457283061439],[112.1213019925393,36.67584324633257],[112.12017487797095,36.67671708673132],[112.11927471540656,36.67778491552645],[112.11847622157423,36.6779702904436],[112.11847521700986,36.67797052334807],[112.11696187106789,36.67789915606293],[112.11407327741512,36.67782826839038],[112.1126217313982,36.67878436542557],[112.11059444559277,36.68028345330587],[112.10993772809925,36.68122572997463],[112.10980925154828,36.68215372453238],[112.10961941084118,36.6847727855762],[112.1109942783796,36.68512329032366],[112.11209359851497,36.685408814395835],[112.11486332490297,36.686693697746065],[112.11502623097245,36.686885809944854],[112.11693350507436,36.68913501203124],[112.11616013891624,36.69145523107963],[112.11590562436722,36.69221881587606],[112.11569150578126,36.69417474189535],[112.11562015070416,36.69600217522309],[112.11461965019572,36.6978283352375],[112.11407829626897,36.698557743188275],[112.11222240389763,36.69972841420356],[112.11046627875845,36.69971420430803],[112.10836759161701,36.700113977618464],[112.10711124025585,36.70069934051896],[112.10526954263712,36.70149886235865],[112.10407362662072,36.70143957399512],[112.10354535890966,36.7031995065191],[112.10335648690659,36.703840281074264],[112.10217153040776,36.705053823350546],[112.1020573228956,36.705482129214126],[112.10168612834885,36.70571056282556],[112.09962925098058,36.706717418262166],[112.09933049308451,36.70818047727188],[112.09794566260673,36.709465406464204],[112.09771724600878,36.71017925008361],[112.09632764692095,36.71093593623063],[112.09466201303175,36.71072180239358],[112.09387678243036,36.71042199732623],[112.09379111504298,36.710022246775765],[112.09346273971404,36.70952256158081],[112.09273460715767,36.70868023761741],[112.09192082046467,36.708166281303605],[112.09074034239292,36.707828630461876],[112.09005053513252,36.706981324791286],[112.08962220874713,36.70563930844903],[112.08903685352219,36.705368055996075],[112.0876976837981,36.705496288891354],[112.0876948339687,36.705496561827324],[112.08542552354508,36.70529677318242],[112.08542481541042,36.70529671115725],[112.0842311171492,36.70531093444448],[112.08422556293058,36.705311000351884],[112.08268470607248,36.70505092862881],[112.08059922344135,36.70385480375131],[112.08025977158981,36.70367977875542],[112.07877177284591,36.70291255314202],[112.07824020494536,36.70282874682885],[112.07700145583854,36.7034550920311],[112.07593071049813,36.70445448114655],[112.07483154175218,36.70506831927683],[112.07483140517616,36.705068396200865],[112.07351799923329,36.705051027730285],[112.07237577843681,36.70431175093894],[112.0717047599691,36.70384062330386],[112.07094807399122,36.703041129666694],[112.0709077967313,36.70299078451435],[112.07003433857194,36.701898994206914],[112.06879569260384,36.7011621761333],[112.0675364662099,36.70055759576405],[112.06645142311304,36.700357730887774],[112.06425278675088,36.700043664554194],[112.0623164136135,36.700029447072076],[112.06231113806056,36.700029408546044],[112.0608263490956,36.700115086099046],[112.05855634539996,36.700843228083095],[112.05764616931795,36.70095700967298],[112.05764263030449,36.70095745200925],[112.05574007077473,36.70060675906562],[112.05580089106964,36.6992442548322],[112.0565147198829,36.698459022204034],[112.05702867636509,36.69788794384185],[112.05815652753476,36.69683144675547],[112.05895600982589,36.695575077613995],[112.05912229341547,36.695127368869045],[112.05932719090904,36.694575696998804],[112.05921295635336,36.69344782939886],[112.05867042363263,36.692648333379566],[112.05838487143612,36.69163468289051],[112.0585176942024,36.69060669324095],[112.05952698614858,36.68977868423166],[112.06131157846771,36.689107653733764],[112.0618683504942,36.687651412501296],[112.06256790581746,36.68709460919374],[112.0641383436777,36.686337920773816],[112.06466656893937,36.685224323061],[112.06469510455483,36.68416783816944],[112.06585151146042,36.683225555939416],[112.06587150518105,36.68303959025289],[112.06599425749198,36.68189780980286],[112.06615422534429,36.68163366870795],[112.06660814495338,36.6808841495953],[112.06629404866901,36.680570062664906],[112.06593711554378,36.67979911852718],[112.0660175279363,36.67866212373057],[112.06759319595702,36.677900283754205],[112.06877815836316,36.67701510811861],[112.06877814579455,36.67625843732559],[112.06877090682394,36.676053435792944],[112.06873529532474,36.67504490815692],[112.06834980764523,36.67428824052994],[112.06766450397795,36.67336025480658],[112.06652234418216,36.67247510428358],[112.06548011852014,36.671490015269605],[112.06498576962635,36.67074484725218],[112.06435070518438,36.669773220076635],[112.06392390517917,36.66914863441173],[112.06363835679645,36.66846334980098],[112.06363649510155,36.66841284964376],[112.0635383739002,36.66575075496567],[112.06343841344246,36.66435162759753],[112.0634854114157,36.66377542859138],[112.06283876849557,36.663309427467695],[112.06192503184137,36.66208162998855],[112.0612181268408,36.66104485040376],[112.06073942215349,36.660328779870184],[112.05913192532118,36.660197546179816],[112.05912674225885,36.660197121003954],[112.05874127063616,36.660411276312246],[112.05712831264246,36.66143993477346],[112.05742779977369,36.660239969604],[112.05804169386211,36.65964033707722],[112.05839860415263,36.6589693222938],[112.05894419635825,36.6585787168331],[112.05965494918321,36.65806986909221],[112.0614681055146,36.65804129598875],[112.06251448754108,36.657760140032444],[112.06351716021972,36.6572731833629],[112.06258109143126,36.65645619003554],[112.06143951499298,36.655785558310114],[112.06151088410996,36.65492894898804],[112.06184091216927,36.65393985506872],[112.0632383528385,36.65328709521309],[112.06352262681538,36.65303926060466],[112.06379514212755,36.65280167752158],[112.06369519022745,36.65200217777972],[112.06267420352782,36.65116205897884],[112.06336677667595,36.64914681712919],[112.06275285629697,36.6481474468749],[112.06288134031963,36.647690587205254],[112.06165353220156,36.64763349317866],[112.0608397445258,36.64713381341897],[112.05998313247817,36.64703388536384],[112.05878522842931,36.646995418458175],[112.0582127908675,36.64614874159033],[112.05749893529688,36.645263586436315],[112.05656295950939,36.64477321291019],[112.05692198277092,36.64418604541733],[112.05740982729974,36.643388197892854],[112.05775587758383,36.64282224748613],[112.05774158339591,36.64176576277564],[112.05821271019613,36.64126606950703],[112.05828407586117,36.640181030340976],[112.05888369069372,36.63943862974003],[112.05878508022145,36.63810649749233],[112.05848390471824,36.637354217801175],[112.05751307148051,36.636768879520524],[112.05578556710826,36.636326316845725],[112.05489613283254,36.63560653030357],[112.05485416457462,36.63541224324202],[112.05462911175012,36.634370404662114],[112.05462909418004,36.63334247413044],[112.0540627448014,36.63255097285085],[112.05161665113688,36.631400859494406],[112.05085997540412,36.63111533063442],[112.05043166555203,36.63080124515515],[112.04898968525815,36.62957345544474],[112.04863275708898,36.62915943139635],[112.04828486663033,36.628830876650184],[112.04734782254968,36.62794591497277],[112.04600705824032,36.62671770441016],[112.04617707941286,36.625376100487294],[112.04582013673932,36.62396269924351],[112.045781961695,36.62393377936431],[112.04534899511971,36.62360578383708],[112.04547752879819,36.622772601094724],[112.04573442676168,36.62110733664004],[112.04581577194018,36.62058261261467],[112.04601993295678,36.619265624198086],[112.04620492818445,36.6179282134323],[112.04651956267557,36.615653584234344],[112.04653494428773,36.61555803737868],[112.04684017862725,36.613662092392026],[112.04771876353064,36.61249839390947],[112.04867530622212,36.612227123708465],[112.05045126738406,36.611439823830594],[112.05038848827701,36.60994281466639],[112.05017103948781,36.60918179181924],[112.04996015796968,36.60844375345524],[112.0492700863378,36.606944694768046],[112.04907497203392,36.60704463507901],[112.046571834698,36.60866207728446],[112.04620477583993,36.60872786203697],[112.0448776156142,36.608972050721846],[112.04320723033338,36.60914339000916],[112.04150829168329,36.60935756122913],[112.03954761958687,36.610057145623344],[112.03838170033046,36.61142773318888],[112.03783918681413,36.611770382376726],[112.03696830598962,36.61211303617348],[112.03423014001753,36.61323851354683],[112.03261388011822,36.6125556641786],[112.03178284480454,36.61141791991389],[112.03152245825312,36.61106727609103],[112.03221407710838,36.60942904513118],[112.03425562532227,36.60708762518551],[112.03537403102256,36.60624389313592],[112.03551776848167,36.606135456579516],[112.03588316233699,36.60585980093617],[112.03766773854258,36.60418939361908],[112.03939520047678,36.602162067345674],[112.03934946034036,36.60143990604252],[112.03999480215927,36.60062016377201],[112.04060868148079,36.599163922409886],[112.04148958585674,36.598050659420764],[112.04190784564614,36.59752207385671],[112.0418792758928,36.596536973367094],[112.04209569753196,36.595684754266465],[112.0421076891389,36.59563753177501],[112.04209064955788,36.59516913022826],[112.042079122936,36.59485230680267],[112.04224772610802,36.59467585853419],[112.04269301664006,36.5942098440003],[112.04296426045208,36.59326757135588],[112.04282146963045,36.59191127485577],[112.04296840607341,36.591413290592],[112.04307843795246,36.59104038563542],[112.04374943319125,36.5900981087107],[112.0438547828825,36.58967166723916],[112.04404922642995,36.588884576078236],[112.04384933488559,36.58794230811074],[112.04379367053565,36.58616202459277],[112.04369957223626,36.58603453447575],[112.04354553830677,36.586153010211],[112.04264123853163,36.586782687230006],[112.04227698934731,36.587020007253756],[112.04196831245922,36.58722111167143],[112.0416918357389,36.58746626896194],[112.0417916350568,36.587647416463064],[112.04138306640735,36.588924115418365],[112.0408489218477,36.589833792591],[112.0407414106477,36.590016887280626],[112.04006790960263,36.591381724552875],[112.03996916412284,36.59195477820996],[112.03968393994211,36.593173176329735],[112.03928786926595,36.594063528583014],[112.03780678527723,36.59606480412412],[112.03892496619387,36.597428322214114],[112.03897099117674,36.59821468600254],[112.03860423059587,36.5986470265064],[112.03699006337922,36.59999142986317],[112.03643523071258,36.6009546783497],[112.03617220170773,36.601185842377724],[112.03492970903004,36.60246976664822],[112.03378159025702,36.60285165671979],[112.03344365968046,36.604486089461304],[112.03338159316688,36.60478627400121],[112.03306665595078,36.60511801421867],[112.032157119137,36.60609862209237],[112.03123480070599,36.606120912404336],[112.03033041258416,36.60615734460381],[112.02936076382656,36.60662347796476],[112.02895785711608,36.6070131880114],[112.02885635218567,36.60738598885976],[112.02870314262589,36.60787367382989],[112.02815087070344,36.60959131876079],[112.02808971958403,36.60978150618249],[112.02783878361487,36.610928052705724],[112.02790074204266,36.61158553960797],[112.02815091068572,36.61199902401786],[112.02840871968337,36.6124251383973],[112.0293800979515,36.61341808492298],[112.03086698366604,36.61447808807742],[112.03234666477161,36.614994554325634],[112.03318724607364,36.61548793567314],[112.03450784881976,36.616048667944845],[112.03552798825636,36.616697824862435],[112.03601280650967,36.617273333291664],[112.03573516666856,36.61858375867898],[112.03503302509975,36.6208218955594],[112.03443145120934,36.620955863433046],[112.03422578487148,36.621501229472685],[112.03405276260514,36.62316208256975],[112.03425693323452,36.62383263313632],[112.03430962344063,36.62511960323448],[112.03423198356224,36.625949951996596],[112.03354452497993,36.627629572911616],[112.03336506633313,36.62831523743781],[112.0332743461637,36.62866185782103],[112.03329248771705,36.63002065068966],[112.03346041455012,36.630634296559634],[112.03405072955837,36.63235614750186],[112.034314865139,36.63321275439632],[112.03434641499258,36.63421785868701],[112.03414357079988,36.634854590036376],[112.03394081449726,36.636037315376306],[112.03397003043621,36.63689534485493],[112.03435209913329,36.63759295900735],[112.03431090282255,36.63849451415982],[112.0343465075937,36.63977343398907],[112.03500169851988,36.64032117537243],[112.03708588602314,36.64158881386868],[112.03717203127357,36.64271813467888],[112.03729027217274,36.642741701329946],[112.0386849136485,36.64301965546613],[112.03910555154658,36.64316306599155],[112.03938039057152,36.64325676885049],[112.04184661819926,36.64449559258048],[112.042443614725,36.64531848561373],[112.04276599796934,36.64553023383147],[112.04293480889879,36.64620107657459],[112.04351334328724,36.64755114211945],[112.04377233376043,36.647752950488005],[112.04633956076269,36.64856009679369],[112.04951626310321,36.648489234430684],[112.05164808573934,36.647297449173806],[112.05343554114162,36.648197152383176],[112.05434099105474,36.64820344483363],[112.05481263653071,36.64894311186102],[112.05476953023468,36.64968733641436],[112.05442622238206,36.650548655649935],[112.0539951279012,36.65148227391551],[112.05378307832737,36.652857396726134],[112.05395921430633,36.654057429321675],[112.05534969563536,36.65577597895662],[112.05544743597919,36.65643312683296],[112.05547770165546,36.65865007732719],[112.05565507218657,36.661237645165926],[112.05613072219637,36.66226336151811],[112.05607768733624,36.663579857385386],[112.05689322257508,36.66478851511111],[112.05714319362126,36.66618814998539],[112.05750258338459,36.666499660727894],[112.05766883050283,36.666970236692144],[112.0575613827799,36.668201387545935],[112.05689261887426,36.669938183851094],[112.05646184312667,36.67090041448551],[112.05526190639496,36.67145462909157],[112.05431052923649,36.672006631241416],[112.05376927440842,36.67268373930208],[112.05489589035045,36.6732602525784],[112.05698740909878,36.674271637234504],[112.0587734003451,36.67501391385711],[112.05999141939297,36.67577552636381],[112.06173383587611,36.67721907146555],[112.06265851070827,36.678598367281836],[112.0624601797398,36.67967298135204],[112.06181652928328,36.68065143377494],[112.06147297604319,36.68149846686808],[112.06113177223568,36.682517133948046],[112.06019267215963,36.68397026110752],[112.0601448948279,36.6843712146597],[112.05978001510302,36.6849609508581],[112.05880436337956,36.68634286855687],[112.05778473345623,36.68711007442491],[112.05644307221245,36.68770847447437],[112.05448352321015,36.68858411991931],[112.05336897587047,36.68890868565586],[112.05181121102478,36.68929437722354],[112.05131666920887,36.689499008775186],[112.05135783594474,36.68991347809667],[112.05067474335901,36.690620432205165],[112.04928272056871,36.69274978402095],[112.04785471175144,36.694850828450896],[112.0464760331854,36.69666533014991],[112.04553416436367,36.697946711857064],[112.04548785241148,36.698462082336455],[112.0455455935137,36.69879058025952],[112.04607347519512,36.69973004458008],[112.04675696424799,36.70035343620804],[112.04759721826471,36.70074657249927],[112.04940973838966,36.70078782735943],[112.0511517967782,36.70087258911877],[112.05150548145404,36.70075503062122],[112.05290947358803,36.7007998381252],[112.05470931467468,36.70121304311516],[112.05635303288395,36.7018993901218],[112.05778676653583,36.70281645445885],[112.0578565204014,36.70401741552903],[112.05851793030581,36.70477341074339],[112.05958296309471,36.70554694947265],[112.06041048701573,36.706297720944924],[112.06100887135811,36.70717926850083],[112.06106150686682,36.70842329217156],[112.0615191798579,36.70940622272837],[112.06172580102886,36.710219738343056],[112.06181732805166,36.71170659076795],[112.06212560762587,36.711995620494136],[112.06279871620744,36.71201253137745],[112.06295327908728,36.711624929657425],[112.06372033023098,36.710559543537144],[112.06438709005813,36.70995279428019],[112.0647678372326,36.70921985889628],[112.06515765603491,36.70785744350415],[112.06601443919212,36.70755111827031],[112.06732047773248,36.70752337037275],[112.0692592894465,36.70769193033299],[112.07002094476297,36.70752773574318],[112.07102175939299,36.70667476958782],[112.07213211281343,36.7060353758893],[112.07307316818036,36.70599828708043],[112.07434778945009,36.70643991241158],[112.07534444569431,36.70707923835299],[112.07717508219444,36.707134209198074],[112.07803911853009,36.70794174384052],[112.07859239033257,36.70812268971088],[112.08027974233845,36.7080930846945],[112.08141200855252,36.707753800230726],[112.08318515685018,36.707508806635516],[112.08523848699174,36.70697514233598],[112.08685495495459,36.706960395146915],[112.08740341658259,36.707273107943195],[112.0874380966086,36.70799929684117],[112.08741365388407,36.70878626565178],[112.08761973985527,36.709542520736626],[112.08849925441659,36.71017818282454],[112.08970661877171,36.7113830163857],[112.09142494865903,36.712282759434224],[112.09421074255307,36.712028310708746],[112.09663992947496,36.71293574557933],[112.09874802187534,36.71250147513454],[112.1007368862719,36.711995203482076],[112.10107665266494,36.71111326544481],[112.10165201848443,36.70932765309829],[112.10222882751678,36.70866430880793],[112.10348002811436,36.7079517979946],[112.10421361237883,36.707072423136594],[112.10453453339768,36.705910783726054],[112.10604206823461,36.70449494878807],[112.10776310708562,36.703105717472425],[112.10907007925506,36.70143952017249],[112.11003141581236,36.701482488198856],[112.11150545416506,36.70145442952934],[112.11207919572199,36.70182098776006],[112.1130627082473,36.7022695374601],[112.1134055537803,36.702638247856875],[112.11410571293187,36.703146657133686],[112.11483748138032,36.70338298202475],[112.11601970402057,36.70282833613105],[112.11642347789362,36.70249554652515],[112.11743235743113,36.70101272196273],[112.11814629732162,36.700019011146644],[112.11901226242095,36.699710480818],[112.12006508775328,36.69881370311499],[112.12059481224406,36.698639875629055],[112.12064851168083,36.698622254150536],[112.12069888801216,36.698421517927656],[112.12080224377571,36.696975795120885],[112.12059477790378,36.69658115999101],[112.12018114970371,36.69579436954206],[112.11948183414218,36.695071633172894],[112.11879222393512,36.69421716623744],[112.11944949685638,36.69311201241006],[112.11963531647832,36.69245225897057],[112.11958859866047,36.6916802569078],[112.11942046690571,36.691109657740974],[112.11873669394619,36.69050099351166],[112.1186682906335,36.689457408994514],[112.1184251993475,36.688615728642446],[112.11797232083315,36.68800488852499],[112.11795927667576,36.68710382886157],[112.11851430983553,36.68616158324861],[112.11744134026254,36.68567824195972],[112.11720779225064,36.685494475849936],[112.11549989104083,36.68406573510709],[112.1130808919818,36.683816588032144],[112.11239595413242,36.68435225559818],[112.11163235889218,36.684359387331526],[112.11129202830068,36.6844949890521],[112.11123365668026,36.6838052325032],[112.11167704099023,36.68252799330435],[112.11337499801446,36.68080989199356],[112.11445034647754,36.68025626059776],[112.11580772553401,36.679556931137114],[112.11722269442687,36.67915744224743],[112.12025599638775,36.678914375043554],[112.12059448032917,36.67873954839076],[112.12104530579091,36.67850669948042],[112.12165161668324,36.67718469520636],[112.12245510872107,36.676261635645275],[112.12396743162776,36.67401586660628],[112.12425304413682,36.672897419289875],[112.12387609482013,36.67139900269669],[112.1237918288559,36.66921702065974],[112.12441705750929,36.668304120542935],[112.12535532564489,36.66810929833066],[112.12703154824827,36.66737821988729],[112.12879483674102,36.666531857074034],[112.130168550853,36.66576068867938],[112.13088703462363,36.665110164303805],[112.13167170182196,36.66413000346222],[112.13211757578831,36.66305292585464],[112.13263962607441,36.661116850553],[112.13328731593032,36.6580638252233],[112.13198137593261,36.65738962677903],[112.13058293713199,36.656458809914966],[112.13097030027421,36.655024678652104],[112.13090240353614,36.6540240046157],[112.13039805839946,36.653528133928894],[112.12981895433634,36.652775487173834],[112.12963851327783,36.651361048987816],[112.12947082106403,36.650819065459075],[112.12862737503009,36.65019766040026],[112.12825253667472,36.65005816632067],[112.12712485718694,36.65005024750314],[112.12669368584349,36.64937716969447],[112.12717901534317,36.64826595501538],[112.12620345557053,36.647102208864354],[112.12620620882649,36.64607225374366],[112.12589156460128,36.64518834551993],[112.12489873108726,36.64405336040928],[112.1239952539944,36.642681371231895],[112.12323582209082,36.64227248267988],[112.12172982895754,36.642195039340834],[112.12103950971435,36.64233027916325],[112.12059387638237,36.642470758122535],[112.12024435587279,36.64258093899767],[112.11906183337716,36.64304980022549],[112.11798702959634,36.64360346730826],[112.11662244762493,36.643759313955265],[112.11608544639353,36.643449645841656],[112.11545802491041,36.643105903118624],[112.11475101001615,36.64279045087802],[112.11395193836458,36.64198193963864],[112.11369228778416,36.64061622846834],[112.11343341477149,36.639254608140185],[112.11226069162623,36.63793523565011],[112.11156903129425,36.63782814844331],[112.11095979171436,36.63757545573675],[112.11091895706603,36.63720391598708],[112.11086765089257,36.636102939157965],[112.11210897823575,36.634789637247145],[112.11264184801128,36.63358307323911],[112.11329537779524,36.63336239842345],[112.11386000643023,36.63189804867945],[112.11372718247785,36.630068299392136],[112.11346578073152,36.62916955009873],[112.11439622592124,36.6281646481224],[112.11421445504266,36.626931028617086],[112.11387442087445,36.62673394388676],[112.11239050205087,36.62597535780161],[112.11195990454843,36.62565037166362],[112.11157966797668,36.625124648603666],[112.11073544978365,36.6231058813058],[112.10848181531635,36.623193774839194],[112.10811874444911,36.622624966093575],[112.10743874748337,36.62223075846987],[112.1065274753635,36.621795781539824],[112.10577733556458,36.62145943407401],[112.10512692581251,36.62065010304639],[112.10444756515169,36.61905428106418],[112.10386224974022,36.61658499748648],[112.10260511388898,36.616320567545756],[112.10106202502892,36.6155809710553],[112.10074764954119,36.6134381736073],[112.10044568968291,36.612167845753376],[112.0996453404736,36.60981096555512],[112.09879072636384,36.609494849569586],[112.09891281288009,36.60873149324534],[112.09895585333892,36.60846237579445],[112.09926320920125,36.60761556477802],[112.09938950145443,36.60651293692368],[112.09985447562765,36.605521622150206],[112.10045072763633,36.60502975724928],[112.10153107600019,36.60364652448363],[112.10192728602675,36.60281318797485],[112.10266216152823,36.602091154898154],[112.10325205634484,36.60115588928308],[112.10348858571099,36.6003240265992],[112.10374590547035,36.599706540316305],[112.1043178271364,36.598757130890505],[112.10434611274148,36.59782807997349],[112.10414947032525,36.59726159338184],[112.10332858409863,36.59656336776083],[112.10229388164947,36.596158106615356],[112.10182151156242,36.595375714299166],[112.10100116310487,36.59382408110168],[112.10106804873485,36.59353736893856],[112.1013145405238,36.59340634822098],[112.101633404409,36.59337479227063],[112.10205503011856,36.59308479900907],[112.10257778439527,36.5924219469279],[112.10321878344064,36.591343160629734],[112.10345691619865,36.59062571942914],[112.10339678235005,36.590139915131225],[112.10323486347339,36.58977250635428],[112.1025864319125,36.58928913079093],[112.1017134897624,36.589025413066906],[112.1009316732823,36.588932504191455],[112.10003856816728,36.58849730420606],[112.09873572045761,36.58793713223374],[112.09804594786212,36.58682771880008],[112.09696803727292,36.58586492227178],[112.0961056067699,36.5850860954006],[112.09531110268013,36.58409206582754],[112.09531024692238,36.5827760360795],[112.09410344015593,36.58147108115694],[112.09398633592447,36.58071400374387],[112.09351240987192,36.57838368189145],[112.09272957600798,36.578219960611605],[112.09169801803344,36.578174429780546],[112.09086613810346,36.578296484610235],[112.08926982654859,36.578331833751534],[112.08767904612886,36.5781059653608],[112.08769459915584,36.577280124770624],[112.08795678879287,36.575883732434676],[112.08675387090624,36.57594514927967],[112.08648907259379,36.576033392018466],[112.08566101126073,36.57642716613839],[112.08479756166417,36.576616222250365],[112.08353111497146,36.57673502616532],[112.08240122729872,36.57699490805091],[112.08150104504186,36.57805519837622],[112.08086273080103,36.57870470495721],[112.07991615047015,36.57950720032368],[112.07860498992922,36.58087802681942],[112.07735786261203,36.58175474608945],[112.07607924303682,36.58228126854466],[112.07488090710682,36.58284281620753],[112.07329416449643,36.583536592891605],[112.07310998225554,36.583611826072485]]],[[[112.06551220984487,36.585278720493356],[112.06521475639869,36.584927884125314],[112.06490541006103,36.58402368858519],[112.06328735199246,36.58292915109882],[112.06328132517443,36.58293151348264],[112.06212703756408,36.583384039115415],[112.06212320143382,36.583381811538004],[112.0610982364324,36.58278640507101],[112.06109025426304,36.58278729883722],[112.05823812735906,36.58310630193231],[112.05823681537858,36.58310538364482],[112.05546030553319,36.581161879769155],[112.05296040950218,36.58074015007555],[112.04931980646005,36.57997875895973],[112.0474637921686,36.57840832836399],[112.04657132261619,36.57782863095725],[112.04458460584128,36.576837909767505],[112.04230030615473,36.57643342444173],[112.04229240561916,36.57643371069132],[112.03901663864663,36.5765524333276],[112.03901592269634,36.576552114269994],[112.03739066736165,36.57582813103748],[112.03644677609263,36.57457750180003],[112.0364400087436,36.5745811452326],[112.03490013448666,36.575410333324825],[112.03380559271127,36.57631454259443],[112.03268235477064,36.57671766587236],[112.03267790073669,36.57671584818602],[112.03023637569278,36.575719714375246],[112.0300999602303,36.57533327973182],[112.02787096642552,36.57527436128115],[112.02652122852723,36.57499067526777],[112.0265174952761,36.574991891468756],[112.02406562799209,36.57579020265122],[112.02129340697975,36.576162231579055],[112.02129139387915,36.57616122427089],[112.01962671903769,36.575328913338716],[112.01961918305221,36.57532990413633],[112.01886885610423,36.57542857957404],[112.01841518084359,36.57688102351789],[112.0178250854027,36.577661495219104],[112.0180535480011,36.57967928310446],[112.01913860579967,36.58082141756993],[112.01991907961498,36.58127826709584],[112.02251927945922,36.58129721743212],[112.02252698063201,36.58129727391622],[112.02436559093184,36.58124039014358],[112.02437345014687,36.58124014688476],[112.02573248475385,36.58143917879822],[112.02573795896387,36.58143998052871],[112.0275143490203,36.58108782787184],[112.02795840323162,36.58088521018159],[112.02796018126456,36.580884399172845],[112.03044585934072,36.581144903018256],[112.0314267868941,36.58116375546653],[112.0314357197383,36.58116392777231],[112.03253474972837,36.58084178441635],[112.032539788046,36.58084030801677],[112.03351576540248,36.58116211723086],[112.03473443054752,36.581450338079776],[112.0348671828962,36.58201343098575],[112.03515873190128,36.58270458627128],[112.03607385221629,36.582913653931406],[112.03608047693615,36.58291516786851],[112.03815535861528,36.58183010639226],[112.03906294546918,36.581451933059675],[112.03906906871644,36.581449381823575],[112.04213386594368,36.583752675118504],[112.04439912686847,36.58403818655869],[112.04560290366489,36.5847192540047],[112.046079322016,36.5845042851974],[112.04642531482043,36.58441105677473],[112.04683985881641,36.58429936545135],[112.0477426221452,36.5842328542273],[112.04865943775427,36.58432839998002],[112.0492630436169,36.58450106066455],[112.04963209421503,36.584628476291556],[112.0496432159679,36.58462853694121],[112.04974542598322,36.58462909926326],[112.05008917141295,36.58463099126111],[112.05010422428388,36.584631074002594],[112.05073779472386,36.584488073242404],[112.05147086578994,36.584319406596364],[112.05214565004964,36.58423010716428],[112.05232616953614,36.58421018959145],[112.05267838439563,36.58417132635553],[112.05327180580468,36.584107510400365],[112.05357219991735,36.58408747680746],[112.05405044536582,36.58405557468016],[112.05482335889546,36.584044225084995],[112.05542314345846,36.58403666633125],[112.05588723284426,36.583962726890945],[112.05607221075114,36.583899725778224],[112.05632863757668,36.5838123913239],[112.05683050498092,36.58364124416737],[112.05703416720301,36.58359550769251],[112.05704169060466,36.583593818088325],[112.05736310231609,36.583521629286594],[112.05786665467504,36.583474347974935],[112.05831298915862,36.58348165216329],[112.05875146663968,36.58352732395419],[112.0592437180593,36.583624332236106],[112.05970688177315,36.583687804021736],[112.06007843334669,36.583639449473104],[112.06044951514878,36.58350549339915],[112.06108370739886,36.58351337471361],[112.0612159777748,36.58354888270597],[112.06195283226043,36.58374669113383],[112.06270317573811,36.584026099089414],[112.06331965808972,36.584372028125685],[112.06387946667475,36.58486264842245],[112.06402648183065,36.58513675006969],[112.06406677908556,36.585211881768075],[112.06416326371696,36.585391771081845],[112.06420814690344,36.5857863494529],[112.06421011018989,36.58580360961175],[112.06435721906391,36.58592709922424],[112.06436412351339,36.58593289651715],[112.06487082044525,36.585655793223644],[112.06551220984487,36.585278720493356]]],[[[112.04560290366489,36.5847192540047],[112.04439912686847,36.58403818655869],[112.04213386594368,36.583752675118504],[112.03906906871644,36.581449381823575],[112.03906294546918,36.581451933059675],[112.03815535861528,36.58183010639226],[112.03608047693615,36.58291516786851],[112.03607385221629,36.582913653931406],[112.03515873190128,36.58270458627128],[112.0348671828962,36.58201343098575],[112.03473443054752,36.581450338079776],[112.03351576540248,36.58116211723086],[112.032539788046,36.58084030801677],[112.03253474972837,36.58084178441635],[112.0314357197383,36.58116392777231],[112.0314267868941,36.58116375546653],[112.03044585934072,36.581144903018256],[112.02796018126456,36.580884399172845],[112.02795840323162,36.58088521018159],[112.0275143490203,36.58108782787184],[112.02573795896387,36.58143998052871],[112.02573248475385,36.58143917879822],[112.02437345014687,36.58124014688476],[112.02436559093184,36.58124039014358],[112.02252698063201,36.58129727391622],[112.02251927945922,36.58129721743212],[112.01991907961498,36.58127826709584],[112.01913860579967,36.58082141756993],[112.0180535480011,36.57967928310446],[112.0178250854027,36.577661495219104],[112.01841518084359,36.57688102351789],[112.01886885610423,36.57542857957404],[112.01961918305221,36.57532990413633],[112.01962671903769,36.575328913338716],[112.02129139387915,36.57616122427089],[112.02129340697975,36.576162231579055],[112.02406562799209,36.57579020265122],[112.0265174952761,36.574991891468756],[112.02652122852723,36.57499067526777],[112.02787096642552,36.57527436128115],[112.0300999602303,36.57533327973182],[112.03023637569278,36.575719714375246],[112.03267790073669,36.57671584818602],[112.03268235477064,36.57671766587236],[112.03380559271127,36.57631454259443],[112.03490013448666,36.575410333324825],[112.0364400087436,36.5745811452326],[112.03644677609263,36.57457750180003],[112.03739066736165,36.57582813103748],[112.03901592269634,36.576552114269994],[112.03901663864663,36.5765524333276],[112.04229240561916,36.57643371069132],[112.04230030615473,36.57643342444173],[112.04458460584128,36.576837909767505],[112.04657132261619,36.57782863095725],[112.0474637921686,36.57840832836399],[112.04931980646005,36.57997875895973],[112.05296040950218,36.58074015007555],[112.05546030553319,36.581161879769155],[112.05823681537858,36.58310538364482],[112.05823812735906,36.58310630193231],[112.06109025426304,36.58278729883722],[112.0610982364324,36.58278640507101],[112.06212320143382,36.583381811538004],[112.06212703756408,36.583384039115415],[112.06328132517443,36.58293151348264],[112.06328735199246,36.58292915109882],[112.06490541006103,36.58402368858519],[112.06521475639869,36.584927884125314],[112.06551220984487,36.585278720493356],[112.06562177353324,36.58521430804064],[112.06637369191144,36.584894459798136],[112.06687406927645,36.5847302547178],[112.06717109635777,36.58463278458355],[112.06783126654133,36.58448867914438],[112.06799963615343,36.58445192405051],[112.0680101193466,36.5844513786632],[112.0683022710146,36.584436189177524],[112.06789085699606,36.58428658815253],[112.06765326654646,36.5839870050047],[112.06740484183749,36.58366176044145],[112.06760529207556,36.58250198948343],[112.06679149212978,36.5812599149741],[112.06546033916122,36.580606214724135],[112.06446435618844,36.58046043788061],[112.06310804278301,36.57958956675913],[112.0628082186531,36.578961389689255],[112.06269325775884,36.57889876631893],[112.06073805083457,36.57782847806155],[112.05828244690956,36.5779049535419],[112.05573804636136,36.57893964676013],[112.05566798685666,36.578961193553624],[112.05478618552232,36.57927501869864],[112.05478464666726,36.579275565768505],[112.05260028695726,36.579004330706915],[112.05253305534093,36.578988918130285],[112.0499046795238,36.578384152914175],[112.04914526990616,36.57747674784384],[112.04837431198871,36.57696279122282],[112.04763190701772,36.576334618800516],[112.04630415365912,36.57582066859146],[112.04546015029493,36.57449529764723],[112.04545063175468,36.57449529732715],[112.04329172280941,36.574607171146205],[112.04101569175832,36.57477312453086],[112.04062194901186,36.57416461864209],[112.03969395058645,36.57387909175887],[112.03947979625565,36.57377915635219],[112.03947296279698,36.57375393097148],[112.03923231534313,36.57286544311085],[112.0380262092944,36.573449509175596],[112.03802355434064,36.57345080555491],[112.0367549668088,36.572951939803865],[112.03675290820284,36.57295113049476],[112.03601564233142,36.573106505600535],[112.03521100970723,36.57285120989195],[112.03347217035096,36.57266594284279],[112.03346923312537,36.57266559434958],[112.0323699183683,36.5727798203174],[112.03128387643551,36.57282874174223],[112.03022839670257,36.57289405777894],[112.02830102610598,36.57297973963222],[112.02681623817891,36.573108246984575],[112.02500308206193,36.57317965082434],[112.02429898961597,36.57375409399649],[112.02407116104996,36.57393997152523],[112.02316138330634,36.57387923421606],[112.02307950809269,36.57375410754393],[112.02240469148676,36.57272282079689],[112.02142195884312,36.57183980901181],[112.02141957679017,36.57183766857171],[112.02136957332726,36.57186767130296],[112.02136782314679,36.57186872076791],[112.02073777601179,36.57171777653423],[112.0194642383229,36.571392847179986],[112.01868376923909,36.57123866651841],[112.01811864581337,36.57123870871468],[112.01629331631699,36.57199560282417],[112.0164054538207,36.572932909646504],[112.01654362434107,36.57375417779785],[112.0165767928537,36.573951320865866],[112.01605332770328,36.57507443614943],[112.01570119097232,36.57654971092211],[112.01551561722147,36.57809160970518],[112.01441634334024,36.580575788136564],[112.01426287216003,36.58090415555565],[112.01540146862516,36.582060566414285],[112.01730030861373,36.583359735839366],[112.01838535647667,36.58393079715961],[112.01962686175538,36.583940055952056],[112.0218105249749,36.58430174651019],[112.0218118015234,36.58430195723785],[112.02323418311165,36.584237690712506],[112.02939279119549,36.58395923141002],[112.03036360920228,36.583559470434096],[112.03233381695915,36.58384498560349],[112.03292894351374,36.584237370879336],[112.03363302086868,36.58470158046352],[112.03480372231729,36.584772952965],[112.03546027862036,36.584773220693066],[112.0363884411304,36.58421613893139],[112.03765786248758,36.58395938696454],[112.03930923922258,36.58404478498481],[112.03985484413008,36.58413967184415],[112.04160781522683,36.58444451155311],[112.04259292585027,36.58502985073861],[112.04296830528614,36.58532522409293],[112.04346382371243,36.585715128851774],[112.04369957223626,36.58603453447575],[112.0440346128356,36.58577683617005],[112.04434780741003,36.58553593114618],[112.04448765023622,36.58542836673089],[112.04473654289113,36.58525453899093],[112.04532063409209,36.584846614508],[112.04554392592213,36.58474586638495],[112.04560290366489,36.5847192540047]]],[[[112.0416918357389,36.58746626896194],[112.04196831245922,36.58722111167143],[112.04227698934731,36.587020007253756],[112.04264123853163,36.586782687230006],[112.04354553830677,36.586153010211],[112.04369957223626,36.58603453447575],[112.04346382371243,36.585715128851774],[112.04296830528614,36.58532522409293],[112.04259292585027,36.58502985073861],[112.04160781522683,36.58444451155311],[112.03985484413008,36.58413967184415],[112.03930923922258,36.58404478498481],[112.03765786248758,36.58395938696454],[112.0363884411304,36.58421613893139],[112.03546027862036,36.584773220693066],[112.03480372231729,36.584772952965],[112.03363302086868,36.58470158046352],[112.03292894351374,36.584237370879336],[112.03233381695915,36.58384498560349],[112.03036360920228,36.583559470434096],[112.02939279119549,36.58395923141002],[112.02323418311165,36.584237690712506],[112.0218118015234,36.58430195723785],[112.0218105249749,36.58430174651019],[112.01962686175538,36.583940055952056],[112.01838535647667,36.58393079715961],[112.01730030861373,36.583359735839366],[112.01540146862516,36.582060566414285],[112.01426287216003,36.58090415555565],[112.01441634334024,36.580575788136564],[112.01551561722147,36.57809160970518],[112.01570119097232,36.57654971092211],[112.01605332770328,36.57507443614943],[112.0165767928537,36.573951320865866],[112.01654362434107,36.57375417779785],[112.0164054538207,36.572932909646504],[112.01629331631699,36.57199560282417],[112.01811864581337,36.57123870871468],[112.01868376923909,36.57123866651841],[112.0194642383229,36.571392847179986],[112.02073777601179,36.57171777653423],[112.02136782314679,36.57186872076791],[112.02136957332726,36.57186767130296],[112.02141957679017,36.57183766857171],[112.02142195884312,36.57183980901181],[112.02240469148676,36.57272282079689],[112.02307950809269,36.57375410754393],[112.02316138330634,36.57387923421606],[112.02407116104996,36.57393997152523],[112.02429898961597,36.57375409399649],[112.02500308206193,36.57317965082434],[112.02681623817891,36.573108246984575],[112.02830102610598,36.57297973963222],[112.03022839670257,36.57289405777894],[112.03128387643551,36.57282874174223],[112.0323699183683,36.5727798203174],[112.03346923312537,36.57266559434958],[112.03347217035096,36.57266594284279],[112.03521100970723,36.57285120989195],[112.03601564233142,36.573106505600535],[112.03675290820284,36.57295113049476],[112.0367549668088,36.572951939803865],[112.03802355434064,36.57345080555491],[112.0380262092944,36.573449509175596],[112.03923231534313,36.57286544311085],[112.03947296279698,36.57375393097148],[112.03947979625565,36.57377915635219],[112.03969395058645,36.57387909175887],[112.04062194901186,36.57416461864209],[112.04101569175832,36.57477312453086],[112.04329172280941,36.574607171146205],[112.04545063175468,36.57449529732715],[112.04546015029493,36.57449529764723],[112.04630415365912,36.57582066859146],[112.04763190701772,36.576334618800516],[112.04837431198871,36.57696279122282],[112.04914526990616,36.57747674784384],[112.0499046795238,36.578384152914175],[112.05253305534093,36.578988918130285],[112.05260028695726,36.579004330706915],[112.05478464666726,36.579275565768505],[112.05478618552232,36.57927501869864],[112.05566798685666,36.578961193553624],[112.05573804636136,36.57893964676013],[112.05828244690956,36.5779049535419],[112.06073805083457,36.57782847806155],[112.06269325775884,36.57889876631893],[112.0628082186531,36.578961389689255],[112.06310804278301,36.57958956675913],[112.06446435618844,36.58046043788061],[112.06546033916122,36.580606214724135],[112.06679149212978,36.5812599149741],[112.06760529207556,36.58250198948343],[112.06740484183749,36.58366176044145],[112.06765326654646,36.5839870050047],[112.06789085699606,36.58428658815253],[112.0683022710146,36.584436189177524],[112.06878470875964,36.58441110540245],[112.06948293162787,36.58450397312045],[112.07019851909654,36.58458992347067],[112.07054194260445,36.58457516380074],[112.07092715653683,36.58455860752124],[112.07146030950342,36.584429920979055],[112.07212008719267,36.58410853559814],[112.07218589284342,36.58407647995824],[112.07310998225554,36.583611826072485],[112.07211243599875,36.5840192856423],[112.07092420028677,36.584214080667245],[112.07010923746562,36.58410165961656],[112.06934573034428,36.583939519021946],[112.0694584310222,36.58331465756101],[112.07004022210131,36.582314180145694],[112.07147316106033,36.581400104709374],[112.07188310302185,36.580902903548164],[112.0726295619775,36.579730347084116],[112.07281886041056,36.578670088707874],[112.07333717798612,36.577034675200096],[112.07379003389312,36.57643694707013],[112.0741772982038,36.576226037090315],[112.07541150021032,36.575699935916525],[112.07651308342662,36.57520362975446],[112.07737396279472,36.57461650744307],[112.07844913208757,36.57349816195104],[112.07919462501455,36.57226835487591],[112.07886081595004,36.57121997226467],[112.07859582529021,36.57129389424352],[112.07844888060676,36.571567015561534],[112.07822034779488,36.571712130839096],[112.07696094805864,36.57169490573972],[112.07659872388592,36.5717911596407],[112.07624973128759,36.572201997047294],[112.075664123105,36.57281523849663],[112.07487947861983,36.57314417431862],[112.07385721665621,36.57360398975801],[112.07350018263678,36.573435547741674],[112.07267889378753,36.57282833087601],[112.07232674879947,36.57322438469675],[112.07160412393185,36.57290902515642],[112.07146263025987,36.572295189185596],[112.0704098112482,36.57246915379366],[112.06911365867062,36.573002911895166],[112.06886353291829,36.57351297603159],[112.06846661257192,36.57431045154654],[112.06794900267973,36.57471562504214],[112.06740112936795,36.575050618316865],[112.0657677033828,36.5753717129539],[112.06426017281427,36.57537087732545],[112.06277591019943,36.57512663309749],[112.06156775785713,36.57421734415871],[112.06122172502376,36.57336380362678],[112.06098638555468,36.57136609885908],[112.06074539881116,36.570602935515446],[112.06051292327787,36.57046195575436],[112.05931277342911,36.570236596535594],[112.05814994764125,36.570146790062154],[112.05706847994381,36.57017068995291],[112.05628855496695,36.570199061394206],[112.05574031758611,36.570311204283],[112.05489364446697,36.57064771136908],[112.05446279951582,36.57091616279346],[112.05410297928934,36.57119113668942],[112.05341527349879,36.57213418268],[112.05244372717435,36.57307257899948],[112.05129234973961,36.573175721072644],[112.05043021835243,36.57368399037411],[112.04987850203506,36.574196672824264],[112.04906772219114,36.57532859460166],[112.04802400155215,36.57421103760586],[112.04728412900029,36.573168088624215],[112.04712768535595,36.57208944660107],[112.04629423838692,36.571438741377555],[112.04451259900503,36.57149012809629],[112.04369883749992,36.57098228128587],[112.04299842404666,36.57033038866661],[112.04176653755476,36.56971889878714],[112.04045647263281,36.56921755440948],[112.03928427282132,36.569096846532574],[112.03863705327583,36.56910248739067],[112.03726721851994,36.56944342682769],[112.03572881847514,36.56977866231151],[112.03282902731226,36.56976090666653],[112.0302119065194,36.5696619615126],[112.02966535629615,36.567900030721795],[112.03057543881854,36.566990959267095],[112.03151915638055,36.56594569232174],[112.03305856396165,36.56435882560702],[112.03353816207039,36.56375386277365],[112.03451440442859,36.56315889437316],[112.03502058058356,36.56255369675547],[112.03566991561833,36.56138220870593],[112.03621449301286,36.56099839669696],[112.03655488142373,36.560594900590424],[112.03702850418874,36.559546525185375],[112.03698740479619,36.55912488751075],[112.0367197385616,36.558998471654625],[112.03614399892636,36.55903923988349],[112.03495153192155,36.559371456546295],[112.03339835310734,36.55991421147875],[112.03155479290938,36.56062396425444],[112.03095291695848,36.56070069585389],[112.0292866592687,36.56074370252612],[112.02815006006986,36.560809547163466],[112.02812609082142,36.560810936125314],[112.02711726626755,36.560955528619374],[112.02654358878726,36.56115358587764],[112.02545007497245,36.56159929634058],[112.02352680018778,36.56232391625515],[112.02151408079261,36.5629920532718],[112.01980992536913,36.56352877166452],[112.01927317405365,36.563840917894446],[112.01908132779103,36.56408574150609],[112.01847833913864,36.56475607263151],[112.01743482599316,36.56496525138165],[112.01579144149764,36.56540841325993],[112.01373022551536,36.5657692759135],[112.01193860383724,36.56572727815895],[112.0111218527147,36.56474240098915],[112.01058683165462,36.56360254368299],[112.01033973847002,36.56278448947519],[112.0115999426053,36.561514969739484],[112.01128043260985,36.560583091870946],[112.01105996651368,36.55999369162567],[112.01097842658588,36.559426145221266],[112.01073395609762,36.55921783812064],[112.01035850810388,36.55926956320818],[112.00963634509091,36.55960521821107],[112.00829629532629,36.560188756550055],[112.00716651457239,36.5605797715494],[112.00575204761562,36.56089688375259],[112.00467001850254,36.56132561897324],[112.00354390247347,36.56200266633621],[112.00232320222548,36.5626804992814],[112.0010330346464,36.56347334208307],[112.00048089060222,36.564660517740265],[111.99943863833754,36.56634770565321],[111.99939872503683,36.56692023756995],[111.99925214583655,36.568390105499795],[111.99924250774231,36.56947736014166],[111.99949638661879,36.57082942968503],[111.99968032892437,36.57225837979691],[111.99952883129828,36.57334682243177],[111.99970171676618,36.573917569288696],[111.999855877418,36.574869937540676],[111.9994474770196,36.57620848636782],[111.99876342255972,36.57817875926927],[111.99846339432753,36.57875346908966],[111.99797713874166,36.57955861576699],[111.99757392654458,36.57946662512544],[111.99679237537339,36.57937779761471],[111.99636478455076,36.579228787371534],[111.99564301917741,36.58011218521684],[111.99496828625115,36.58097611326868],[111.99459752376272,36.58157047660909],[111.99448467161109,36.581991028259715],[111.99441740031003,36.582277688023],[111.9941836190528,36.582489443662624],[111.99310611222987,36.58329949973607],[111.99191180670515,36.58422495774748],[111.99086082359345,36.585263652903976],[111.99073431558526,36.58616259803714],[111.99085472686251,36.58663697274916],[111.99123993042762,36.58716781908516],[111.99217467523452,36.588132774044134],[111.99274884399888,36.588642968339656],[111.99348587443548,36.588941997985906],[111.99407734694904,36.588956138972705],[111.99488053930604,36.58892684730238],[111.99573438416161,36.58894033143641],[111.99670288849211,36.58897235776276],[111.9974328205674,36.58871830058406],[111.99813639668996,36.58825465451329],[111.9990303837634,36.58788477415412],[111.9999255911918,36.58761024262271],[112.00105900268319,36.5874672161341],[112.00134984875149,36.58745843095066],[112.00280850547989,36.58741436253215],[112.00379631305356,36.58698643791599],[112.00529423090134,36.585772203388025],[112.00543021217251,36.585789354206995],[112.00579478602617,36.585844272426336],[112.00657418157884,36.585761400747025],[112.00754671235907,36.5855905431363],[112.00767882464983,36.585606857231724],[112.00809286482762,36.586149101847454],[112.00854739028107,36.58654579299496],[112.00874236776338,36.5867101984694],[112.00924699526075,36.587135700041394],[112.00995829310496,36.58773545375787],[112.0109826466165,36.58829896387156],[112.01107910173634,36.588401404954105],[112.0116062276244,36.58896123297503],[112.01276976221642,36.58931374203358],[112.01425391384693,36.588862438674866],[112.01493723612761,36.58866589047543],[112.01582739557054,36.588009819553534],[112.01680221442236,36.58794905654594],[112.01799552174647,36.586966139725455],[112.01808025679718,36.58659441809567],[112.0182344345338,36.58616230050477],[112.02137956229257,36.586665395287866],[112.0238277181876,36.58668730549907],[112.02545668864019,36.58616222269196],[112.0274522954697,36.586886338441886],[112.02815049807965,36.58717175754118],[112.02972232636037,36.587814306749756],[112.03267898427119,36.58866215384905],[112.0354721621597,36.58730195099657],[112.03772478068818,36.58596631503922],[112.03945887267518,36.58565080295945],[112.04058314189308,36.586155966963716],[112.0413916355023,36.58692136592143],[112.0416918357389,36.58746626896194]]]]},"properties":{"code":"SXNR-N03","name_short":"灵空山","merged":true,"area_km2":100.283}}]}