{"type":"FeatureCollection","features":[{"type":"Feature","id":"way/1427644161","properties":{"boundary":"protected_area","name":"山西庞泉沟国家级自然保护区","name:en":"Shanxi Pangquangou National Nature Reserve","name:zh":"山西庞泉沟国家级自然保护区","protect_class":"2","protection_title":"自然保护区","ref":"晋43","source":"https://gitcode.com/open-source-toolkit/ca527;https://www.mee.gov.cn/ywgz/zrstbh/zrbhdjg/201309/t20130927_260965.shtml","start_date":"1980-12-01","id":"way/1427644161"},"geometry":{"type":"Polygon","coordinates":[[[111.399902,37.918274],[111.399109,37.919678],[111.397888,37.921509],[111.397095,37.923096],[111.396729,37.924316],[111.395691,37.92572],[111.395691,37.927673],[111.394714,37.928284],[111.393311,37.929077],[111.391296,37.928894],[111.389282,37.928894],[111.387329,37.927673],[111.386475,37.925903],[111.386475,37.9245],[111.387695,37.922729],[111.386719,37.921326],[111.385925,37.920105],[111.386292,37.917297],[111.385071,37.9151],[111.384521,37.912903],[111.384888,37.910706],[111.382874,37.908325],[111.382507,37.905884],[111.383911,37.903687],[111.385071,37.901123],[111.385498,37.900513],[111.386475,37.897095],[111.386719,37.894897],[111.386475,37.894287],[111.385315,37.892883],[111.384277,37.890686],[111.384705,37.889099],[111.384094,37.887329],[111.383301,37.886292],[111.381714,37.885071],[111.381287,37.883911],[111.38092,37.88208],[111.380127,37.88031],[111.3797,37.879089],[111.379089,37.878113],[111.378113,37.876709],[111.377686,37.874878],[111.377686,37.873718],[111.3797,37.872681],[111.381531,37.871887],[111.382507,37.870117],[111.383911,37.868103],[111.385315,37.866516],[111.386719,37.866089],[111.389282,37.866272],[111.391907,37.864929],[111.393677,37.864929],[111.394104,37.862488],[111.394287,37.860901],[111.397095,37.85968],[111.398926,37.85968],[111.401306,37.85968],[111.40448,37.858521],[111.408691,37.8573],[111.412476,37.85791],[111.4151,37.859924],[111.418701,37.861877],[111.420715,37.862305],[111.422485,37.862122],[111.42511,37.863098],[111.42749,37.863281],[111.428894,37.861694],[111.429504,37.860474],[111.428284,37.859314],[111.42688,37.85791],[111.426514,37.856079],[111.426331,37.854126],[111.4245,37.851929],[111.422913,37.850525],[111.421875,37.848694],[111.422913,37.847717],[111.422302,37.846313],[111.422913,37.844482],[111.422729,37.842285],[111.423523,37.840515],[111.423889,37.838684],[111.425293,37.83728],[111.425903,37.836487],[111.42572,37.8349],[111.42511,37.834473],[111.423523,37.833496],[111.421509,37.831726],[111.419922,37.829712],[111.418701,37.828491],[111.415894,37.827881],[111.413879,37.827698],[111.411926,37.827515],[111.409912,37.826721],[111.408508,37.826294],[111.409485,37.82428],[111.411682,37.822876],[111.413696,37.821472],[111.414673,37.820312],[111.415527,37.817688],[111.41748,37.816101],[111.420288,37.814514],[111.421509,37.814514],[111.422485,37.8125],[111.424316,37.810486],[111.42688,37.809326],[111.429077,37.809082],[111.431091,37.806702],[111.432495,37.804871],[111.433105,37.803284],[111.43512,37.801331],[111.437683,37.800903],[111.440308,37.799072],[111.443298,37.799927],[111.446289,37.799927],[111.448303,37.80011],[111.450684,37.799316],[111.453674,37.7995],[111.455505,37.800476],[111.45813,37.801086],[111.460083,37.803528],[111.461914,37.805115],[111.463501,37.806091],[111.465698,37.806519],[111.467529,37.808105],[111.467896,37.810486],[111.467102,37.8125],[111.467529,37.814087],[111.466919,37.81488],[111.468689,37.817688],[111.467529,37.820129],[111.466309,37.821106],[111.464294,37.821716],[111.466492,37.823486],[111.468872,37.825684],[111.472473,37.826477],[111.474121,37.827271],[111.476074,37.827698],[111.476685,37.829529],[111.478516,37.830688],[111.478882,37.832886],[111.480103,37.834717],[111.4823,37.835876],[111.484131,37.837524],[111.486877,37.838684],[111.488708,37.839722],[111.490906,37.840698],[111.49353,37.842102],[111.495911,37.842285],[111.498474,37.842285],[111.502075,37.842285],[111.505127,37.842712],[111.507324,37.843079],[111.508118,37.84491],[111.508484,37.847107],[111.510498,37.848694],[111.511902,37.850281],[111.514099,37.852112],[111.515503,37.854675],[111.51593,37.856689],[111.516296,37.858704],[111.516907,37.859924],[111.518677,37.861328],[111.519714,37.862915],[111.520325,37.864929],[111.522278,37.866089],[111.524475,37.866699],[111.526489,37.86792],[111.52832,37.86908],[111.52948,37.870483],[111.529724,37.872498],[111.529724,37.874695],[111.529907,37.876526],[111.530273,37.878723],[111.532715,37.88031],[111.535095,37.881714],[111.535706,37.883484],[111.536316,37.885071],[111.537109,37.887085],[111.539917,37.888306],[111.542114,37.889709],[111.540527,37.891724],[111.53833,37.892517],[111.536926,37.892883],[111.533875,37.895081],[111.531128,37.896484],[111.528687,37.897705],[111.526306,37.897888],[111.524109,37.898315],[111.521729,37.898682],[111.519714,37.899475],[111.517883,37.899902],[111.51593,37.900879],[111.513489,37.901489],[111.510681,37.9021],[111.509094,37.9021],[111.507507,37.90332],[111.506287,37.904907],[111.503906,37.905273],[111.501709,37.90509],[111.497681,37.90448],[111.496704,37.904114],[111.494324,37.903076],[111.491516,37.902283],[111.488525,37.9021],[111.486084,37.901489],[111.483276,37.901672],[111.480713,37.901306],[111.479309,37.900696],[111.477905,37.899719],[111.476074,37.898926],[111.474487,37.898071],[111.471924,37.898499],[111.469299,37.898682],[111.465881,37.899475],[111.463318,37.90033],[111.460327,37.901306],[111.457275,37.901306],[111.454895,37.901917],[111.452881,37.902283],[111.450073,37.903503],[111.44812,37.903687],[111.445496,37.904114],[111.444519,37.90448],[111.442078,37.90509],[111.43988,37.90509],[111.43811,37.905884],[111.436523,37.906494],[111.434509,37.905884],[111.432922,37.906494],[111.432129,37.906921],[111.431091,37.907104],[111.430115,37.907288],[111.427673,37.909119],[111.425293,37.910095],[111.422485,37.911316],[111.418701,37.91272],[111.416321,37.914124],[111.414124,37.915527],[111.412476,37.916687],[111.410706,37.917725],[111.409302,37.918091],[111.407715,37.918274],[111.405518,37.918274],[111.403503,37.917908],[111.401306,37.917908],[111.399902,37.918274]]]}}]}