{"type":"FeatureCollection","features":[{"type":"Feature","id":"way/1427644160","properties":{"boundary":"protected_area","name":"山西芦芽山国家级自然保护区","name:en":"Shanxi Luya Mountain National Nature Reserve","name:zh":"山西芦芽山国家级自然保护区","protect_class":"2","protection_title":"自然保护区","ref":"晋34","source":"https://gitcode.com/open-source-toolkit/ca527;https://www.mee.gov.cn/ywgz/zrstbh/zrbhdjg/201309/t20130927_260965.shtml","start_date":"1980-12-18","wikidata":"Q30015288","id":"way/1427644160"},"geometry":{"type":"Polygon","coordinates":[[[111.879067,38.749341],[111.878486,38.74958],[111.877393,38.750161],[111.876129,38.750297],[111.875412,38.750093],[111.874899,38.749443],[111.874387,38.748453],[111.874114,38.747701],[111.873977,38.747325],[111.873567,38.746813],[111.870424,38.746642],[111.868477,38.746642],[111.868204,38.747052],[111.867315,38.747462],[111.862157,38.747394],[111.861337,38.74695],[111.86062,38.74671],[111.859458,38.746301],[111.859048,38.746027],[111.858023,38.745925],[111.854266,38.745822],[111.853651,38.745481],[111.852728,38.744797],[111.852284,38.744183],[111.85266,38.742611],[111.853172,38.742167],[111.853651,38.740835],[111.854095,38.739741],[111.854368,38.738853],[111.854641,38.738307],[111.855632,38.737692],[111.856725,38.737077],[111.857408,38.736462],[111.857818,38.736154],[111.858228,38.735779],[111.858809,38.733695],[111.859253,38.731953],[111.859458,38.731304],[111.860176,38.73021],[111.860449,38.729493],[111.860415,38.728912],[111.859902,38.728639],[111.859664,38.728557],[111.858219,38.728056],[111.858126,38.728024],[111.856008,38.727204],[111.85447,38.726418],[111.852318,38.725769],[111.850679,38.725018],[111.84897,38.72413],[111.846203,38.723583],[111.84289,38.722558],[111.840977,38.721841],[111.839576,38.721499],[111.838893,38.721157],[111.838141,38.720679],[111.83797,38.718322],[111.837629,38.717605],[111.837765,38.716648],[111.837492,38.716067],[111.837014,38.715589],[111.836433,38.715316],[111.83493,38.715145],[111.834622,38.714974],[111.833358,38.714872],[111.832744,38.714428],[111.833803,38.712822],[111.836672,38.711148],[111.838312,38.709884],[111.84043,38.708518],[111.841796,38.707595],[111.842001,38.706297],[111.842138,38.706054],[111.842309,38.70575],[111.842475,38.704027],[111.84248,38.703974],[111.844017,38.703052],[111.845691,38.701993],[111.845828,38.700558],[111.845008,38.698372],[111.844359,38.696356],[111.84371,38.695126],[111.842685,38.693384],[111.842104,38.691949],[111.841591,38.690617],[111.841147,38.690104],[111.840567,38.689899],[111.838824,38.689694],[111.836262,38.689694],[111.835852,38.689182],[111.83616,38.68662],[111.835921,38.685697],[111.835272,38.685424],[111.835101,38.684878],[111.835067,38.684058],[111.834584,38.683536],[111.835308,38.681545],[111.83742,38.680158],[111.837619,38.679759],[111.837782,38.679434],[111.838325,38.677504],[111.83852,38.67577],[111.838747,38.673763],[111.840255,38.672376],[111.842608,38.671169],[111.842909,38.670144],[111.842487,38.665438],[111.843151,38.662844],[111.845141,38.66206],[111.848278,38.661336],[111.852079,38.661396],[111.85419,38.661095],[111.856845,38.659647],[111.85956,38.658923],[111.861792,38.658259],[111.86342,38.658561],[111.864084,38.660612],[111.867523,38.661939],[111.869393,38.662482],[111.875365,38.662422],[111.877778,38.661879],[111.880613,38.661215],[111.882242,38.661095],[111.883931,38.663086],[111.886103,38.663267],[111.890929,38.663025],[111.892558,38.662844],[111.894911,38.662241],[111.89666,38.661638],[111.898953,38.661336],[111.898651,38.660492],[111.897022,38.659285],[111.897264,38.657898],[111.899134,38.655786],[111.899918,38.655122],[111.902753,38.654881],[111.903598,38.65458],[111.904141,38.653132],[111.908303,38.65289],[111.910777,38.652589],[111.91144,38.652106],[111.911742,38.650779],[111.912285,38.649512],[111.913552,38.648306],[111.913914,38.646978],[111.916447,38.647039],[111.917594,38.647582],[111.92061,38.647944],[111.921575,38.648245],[111.925617,38.648245],[111.926582,38.647702],[111.929116,38.647642],[111.931408,38.648728],[111.933037,38.649512],[111.933701,38.650839],[111.934545,38.651684],[111.935692,38.651925],[111.938708,38.652408],[111.939432,38.65277],[111.942448,38.65283],[111.945283,38.654338],[111.946912,38.655303],[111.948541,38.655303],[111.95011,38.65458],[111.953066,38.653192],[111.955901,38.651443],[111.957168,38.650839],[111.958676,38.650719],[111.960606,38.648909],[111.962295,38.646616],[111.963924,38.645712],[111.965312,38.644988],[111.965915,38.644445],[111.965794,38.64354],[111.964105,38.642695],[111.962115,38.641308],[111.960365,38.63986],[111.958797,38.638895],[111.958555,38.638291],[111.958857,38.637085],[111.960667,38.635939],[111.961994,38.634853],[111.962537,38.634069],[111.963019,38.632681],[111.963804,38.631957],[111.965975,38.630811],[111.967423,38.629906],[111.970862,38.629363],[111.971406,38.629091],[111.971338,38.62834],[111.97209,38.627793],[111.974037,38.627657],[111.975608,38.627383],[111.97636,38.626734],[111.97759,38.625948],[111.978444,38.624719],[111.979059,38.62448],[111.980049,38.624104],[111.981313,38.624001],[111.982065,38.623557],[111.982987,38.623455],[111.9835,38.622942],[111.98432,38.622806],[111.984866,38.622259],[111.986916,38.622225],[111.987531,38.621473],[111.988146,38.620653],[111.988726,38.619697],[111.988897,38.617852],[111.989376,38.617135],[111.990059,38.616588],[111.991084,38.614743],[111.991494,38.613172],[111.992655,38.612899],[111.993714,38.61266],[111.994876,38.612489],[111.995115,38.611361],[111.996105,38.610849],[111.996959,38.609585],[111.997711,38.608936],[112.00041,38.608731],[112.003143,38.610097],[112.004919,38.610951],[112.006388,38.611566],[112.011137,38.611498],[112.013528,38.611942],[112.01404,38.61225],[112.016773,38.61225],[112.017866,38.611259],[112.018208,38.610132],[112.019609,38.609995],[112.020292,38.609551],[112.020873,38.608458],[112.021078,38.607979],[112.021078,38.605861],[112.022137,38.604324],[112.024118,38.60224],[112.025519,38.600976],[112.02586,38.600293],[112.027124,38.599985],[112.028149,38.599644],[112.029516,38.598243],[112.030506,38.597082],[112.030882,38.595237],[112.031292,38.594349],[112.032385,38.594964],[112.033752,38.596672],[112.035084,38.598004],[112.035426,38.599063],[112.035596,38.601454],[112.035289,38.60224],[112.035255,38.603948],[112.035733,38.605076],[112.036655,38.605827],[112.037954,38.606066],[112.039764,38.606305],[112.040447,38.606955],[112.041199,38.607057],[112.041916,38.607672],[112.042019,38.609312],[112.042531,38.610268],[112.043454,38.611225],[112.044683,38.612215],[112.046289,38.613309],[112.04769,38.613787],[112.049398,38.613992],[112.050559,38.61447],[112.051448,38.615119],[112.052062,38.615256],[112.052541,38.616212],[112.053531,38.61734],[112.054727,38.61792],[112.056059,38.618467],[112.056982,38.618774],[112.058382,38.619253],[112.059441,38.620175],[112.061218,38.621815],[112.062687,38.623352],[112.064566,38.624787],[112.066103,38.625607],[112.067059,38.62629],[112.06723,38.627178],[112.067128,38.63302],[112.067606,38.633942],[112.068118,38.63507],[112.069382,38.635685],[112.071842,38.63589],[112.072628,38.636402],[112.073209,38.637188],[112.074712,38.63811],[112.075429,38.638896],[112.07782,38.638964],[112.078777,38.639647],[112.07987,38.640706],[112.081066,38.642039],[112.082364,38.643644],[112.08332,38.645421],[112.084584,38.646719],[112.085131,38.647744],[112.08578,38.648495],[112.087932,38.648905],[112.088855,38.649486],[112.09029,38.650067],[112.09128,38.650477],[112.092271,38.651502],[112.09251,38.653039],[112.092476,38.655669],[112.091793,38.656728],[112.091519,38.657685],[112.091178,38.658129],[112.091109,38.660042],[112.090631,38.660247],[112.089367,38.660247],[112.088821,38.659974],[112.088274,38.659495],[112.08783,38.658983],[112.087283,38.658436],[112.086942,38.658061],[112.082193,38.658231],[112.081168,38.658949],[112.080588,38.65953],[112.079904,38.660554],[112.078982,38.66216],[112.078196,38.663424],[112.077103,38.664449],[112.076556,38.664893],[112.075327,38.66544],[112.074438,38.665713],[112.073721,38.665849],[112.072491,38.666157],[112.071432,38.666601],[112.070851,38.667284],[112.068973,38.668104],[112.06641,38.668787],[112.065044,38.669163],[112.063541,38.669368],[112.061867,38.669573],[112.060945,38.670188],[112.05992,38.670632],[112.058041,38.670837],[112.056264,38.671213],[112.0536,38.671247],[112.052131,38.671589],[112.051721,38.672067],[112.050764,38.672887],[112.050013,38.673297],[112.048715,38.673707],[112.046767,38.673912],[112.045435,38.674492],[112.044547,38.674868],[112.043488,38.675483],[112.041848,38.676576],[112.040516,38.678079],[112.038876,38.679412],[112.037168,38.680642],[112.035426,38.681256],[112.034196,38.68153],[112.033854,38.681837],[112.028662,38.682111],[112.027842,38.682247],[112.026783,38.683135],[112.025724,38.684297],[112.024357,38.686073],[112.022137,38.68802],[112.021317,38.68884],[112.020531,38.689729],[112.019984,38.690343],[112.019404,38.690514],[112.019267,38.693555],[112.019199,38.695058],[112.018618,38.696049],[112.018106,38.697586],[112.017183,38.699157],[112.016158,38.700865],[112.015373,38.701685],[112.014382,38.702881],[112.014074,38.703223],[112.013904,38.703462],[112.008267,38.703598],[112.006525,38.703837],[112.005705,38.704145],[112.005022,38.704555],[112.003723,38.704452],[112.003792,38.704896],[112.002664,38.704999],[112.002562,38.70558],[112.003006,38.706912],[112.003006,38.7078],[112.004065,38.709372],[112.004338,38.711831],[112.004919,38.71289],[112.004987,38.715316],[112.004304,38.716067],[112.002767,38.718732],[112.000854,38.72085],[111.998838,38.722729],[111.996925,38.724574],[111.9945,38.725906],[111.993851,38.726692],[111.993577,38.727477],[111.993407,38.729493],[111.993167,38.730825],[111.992313,38.731543],[111.991448,38.731963],[111.991049,38.732158],[111.990127,38.732738],[111.989512,38.733524],[111.988624,38.734481],[111.98777,38.735164],[111.985754,38.73472],[111.985174,38.734583],[111.984422,38.734446],[111.982987,38.73431],[111.982441,38.734105],[111.981962,38.733627],[111.97981,38.733763],[111.979093,38.73431],[111.978709,38.734514],[111.97858,38.734583],[111.979264,38.735847],[111.980493,38.737282],[111.980869,38.738136],[111.980938,38.739878],[111.981416,38.740425],[111.981689,38.74186],[111.980801,38.742099],[111.979708,38.742167],[111.97817,38.742372],[111.978,38.742577],[111.976941,38.742611],[111.976633,38.742919],[111.975847,38.743158],[111.974208,38.743089],[111.973798,38.742919],[111.973285,38.742679],[111.972739,38.742611],[111.968981,38.74244],[111.967922,38.742064],[111.96618,38.74203],[111.964437,38.74186],[111.963344,38.741552],[111.962729,38.741415],[111.961158,38.741176],[111.960475,38.740971],[111.959689,38.740835],[111.958869,38.740664],[111.958288,38.740288],[111.957776,38.740083],[111.956444,38.740015],[111.953881,38.739946],[111.95067,38.739707],[111.945512,38.739639],[111.944384,38.73981],[111.942061,38.74203],[111.940387,38.743499],[111.939089,38.744114],[111.937723,38.744387],[111.934033,38.74449],[111.931676,38.744319],[111.931266,38.744183],[111.93031,38.743602],[111.929626,38.743055],[111.929148,38.742679],[111.928909,38.742474],[111.926347,38.74244],[111.925664,38.741962],[111.924058,38.740698],[111.923204,38.739707],[111.922897,38.738648],[111.922954,38.737877],[111.922965,38.737726],[111.92194,38.737077],[111.921052,38.736564],[111.920744,38.736291],[111.920574,38.736292],[111.916167,38.736325],[111.915176,38.736291],[111.913024,38.737384],[111.911247,38.738477],[111.909608,38.739297],[111.908002,38.739639],[111.90708,38.740049],[111.906089,38.740766],[111.905303,38.741245],[111.904108,38.74162],[111.903424,38.74203],[111.902211,38.742064],[111.902195,38.742064],[111.901378,38.742131],[111.900931,38.742167],[111.900864,38.742211],[111.900418,38.742509],[111.898642,38.742509],[111.897822,38.742884],[111.896694,38.743841],[111.894542,38.745447],[111.892356,38.74671],[111.890921,38.747462],[111.889691,38.747462],[111.888291,38.748145],[111.886548,38.748589],[111.885626,38.749102],[111.883679,38.749273],[111.880194,38.749136],[111.879067,38.749341]]]}}]}