{"type":"FeatureCollection","features":[{"type":"Feature","id":"way/1427644156","properties":{"boundary":"protected_area","name":"山西黑茶山国家级自然保护区","name:en":"Shanxi Heicha Mountain National Nature Reserve","name:zh":"山西黑茶山国家级自然保护区","protect_class":"2","protection_title":"自然保护区","ref":"晋45","source":"https://gitcode.com/open-source-toolkit/ca527;https://www.mee.gov.cn/ywgz/zrstbh/zrbhdjg/201309/t20130927_260965.shtml","start_date":"2002-06-20","id":"way/1427644156"},"geometry":{"type":"Polygon","coordinates":[[[111.293274,38.350281],[111.295288,38.352295],[111.295105,38.354675],[111.286682,38.356079],[111.285522,38.358887],[111.282471,38.360291],[111.274902,38.361084],[111.275085,38.362915],[111.273315,38.366516],[111.268127,38.374878],[111.266113,38.379089],[111.263672,38.382324],[111.262695,38.383911],[111.261292,38.386719],[111.261475,38.392273],[111.258484,38.395325],[111.25592,38.396729],[111.254089,38.40033],[111.252686,38.403076],[111.245911,38.403076],[111.24353,38.397278],[111.241882,38.394287],[111.238281,38.393494],[111.236084,38.392883],[111.23291,38.392273],[111.233704,38.388123],[111.235291,38.385071],[111.236511,38.38208],[111.235107,38.380127],[111.234497,38.374329],[111.234314,38.371277],[111.2323,38.36969],[111.231079,38.368286],[111.228271,38.368286],[111.227905,38.364929],[111.230896,38.362488],[111.232483,38.360474],[111.23291,38.358276],[111.231689,38.350281],[111.230103,38.348328],[111.229492,38.346497],[111.229919,38.342285],[111.231689,38.340881],[111.231506,38.337524],[111.229919,38.335876],[111.230103,38.328674],[111.228516,38.327087],[111.228882,38.325073],[111.227905,38.322083],[111.226501,38.320679],[111.225098,38.320679],[111.226501,38.317688],[111.233276,38.316895],[111.236694,38.317871],[111.241699,38.317078],[111.244507,38.317078],[111.242126,38.312317],[111.240479,38.309082],[111.238098,38.308472],[111.237122,38.31012],[111.234497,38.311523],[111.227722,38.31189],[111.227478,38.312683],[111.223511,38.312683],[111.2229,38.307678],[111.223511,38.303894],[111.227295,38.302917],[111.231323,38.30188],[111.233704,38.301086],[111.235901,38.298279],[111.240295,38.296875],[111.2453,38.296082],[111.247498,38.295471],[111.246887,38.293518],[111.246277,38.292725],[111.244873,38.291077],[111.243286,38.288879],[111.243103,38.285278],[111.242493,38.284119],[111.241882,38.282471],[111.235901,38.283081],[111.231079,38.283325],[111.227112,38.282471],[111.217102,38.282471],[111.214905,38.280273],[111.214905,38.27832],[111.218079,38.276672],[111.223083,38.276672],[111.226074,38.275085],[111.227478,38.273926],[111.223877,38.273071],[111.221924,38.272522],[111.22168,38.267517],[111.228516,38.268494],[111.230286,38.26532],[111.234314,38.260681],[111.235474,38.259521],[111.23468,38.258728],[111.231689,38.258728],[111.231689,38.251282],[111.233093,38.249695],[111.231873,38.245483],[111.228516,38.245483],[111.227478,38.24707],[111.218506,38.246887],[111.217896,38.245483],[111.22168,38.242126],[111.221924,38.239075],[111.220276,38.238281],[111.219116,38.238281],[111.220276,38.236084],[111.2229,38.234131],[111.223511,38.231323],[111.228882,38.231323],[111.231689,38.228516],[111.231873,38.222473],[111.230286,38.221497],[111.225098,38.22113],[111.220886,38.222473],[111.212097,38.223328],[111.2099,38.218689],[111.207092,38.216125],[111.202881,38.215088],[111.195313,38.209473],[111.192322,38.206482],[111.193909,38.205322],[111.202881,38.205872],[111.206482,38.20752],[111.210693,38.209717],[111.224304,38.210083],[111.227112,38.20813],[111.231506,38.206116],[111.234497,38.205322],[111.236511,38.203918],[111.237305,38.200684],[111.230896,38.197693],[111.228699,38.194275],[111.22168,38.194275],[111.219727,38.190918],[111.219299,38.187073],[111.214905,38.186096],[111.210083,38.183289],[111.206116,38.180115],[111.201477,38.179077],[111.19989,38.176331],[111.200928,38.173279],[111.203125,38.167725],[111.206299,38.167114],[111.20929,38.169678],[111.216919,38.168518],[111.223511,38.169678],[111.226074,38.171082],[111.224915,38.173889],[111.225708,38.17688],[111.226685,38.180725],[111.228882,38.183472],[111.23291,38.183716],[111.239502,38.184692],[111.24469,38.18927],[111.250671,38.192688],[111.25708,38.196472],[111.263672,38.196716],[111.262878,38.200317],[111.263306,38.203674],[111.267517,38.206116],[111.268921,38.209717],[111.274475,38.210327],[111.274719,38.213318],[111.279907,38.213684],[111.281311,38.212891],[111.282104,38.217896],[111.285706,38.217285],[111.2901,38.215881],[111.291077,38.22052],[111.292114,38.226074],[111.294678,38.227722],[111.297485,38.226318],[111.299927,38.223328],[111.299072,38.220703],[111.298889,38.220093],[111.297729,38.218079],[111.298096,38.210693],[111.30249,38.206482],[111.307129,38.20752],[111.31189,38.208496],[111.314697,38.207092],[111.328491,38.206726],[111.329529,38.205322],[111.324097,38.204895],[111.320679,38.204285],[111.317688,38.202087],[111.314697,38.19989],[111.313904,38.195679],[111.310913,38.196472],[111.31073,38.19873],[111.298889,38.19873],[111.301697,38.195496],[111.304688,38.190674],[111.309692,38.184875],[111.314087,38.179321],[111.316101,38.174683],[111.332275,38.174683],[111.341919,38.172729],[111.351501,38.173096],[111.358704,38.172485],[111.362488,38.17688],[111.365723,38.182129],[111.365723,38.185486],[111.364685,38.189087],[111.364929,38.194519],[111.364319,38.202881],[111.365723,38.208679],[111.367126,38.213074],[111.372314,38.217285],[111.377502,38.22113],[111.384094,38.222473],[111.387695,38.225281],[111.393494,38.231689],[111.398071,38.233093],[111.404724,38.230896],[111.40271,38.23468],[111.398952,38.238863],[111.398953,38.238911],[111.401489,38.240723],[111.40271,38.244324],[111.401917,38.246887],[111.403931,38.251526],[111.407471,38.252075],[111.408691,38.258118],[111.412292,38.259888],[111.416077,38.26593],[111.418274,38.271729],[111.420898,38.274719],[111.42572,38.277893],[111.427673,38.280884],[111.430481,38.282471],[111.43927,38.281921],[111.442688,38.285095],[111.442871,38.289124],[111.43988,38.290527],[111.435913,38.290527],[111.434875,38.298279],[111.424072,38.298279],[111.422913,38.300476],[111.420715,38.30072],[111.418701,38.302917],[111.41449,38.302673],[111.414124,38.304077],[111.395691,38.303894],[111.393127,38.309082],[111.390503,38.311279],[111.370483,38.31189],[111.36853,38.310486],[111.365723,38.307129],[111.363281,38.305725],[111.360291,38.306091],[111.360291,38.30072],[111.3573,38.30072],[111.356323,38.30188],[111.3479,38.302124],[111.346497,38.304871],[111.343506,38.309082],[111.342712,38.314514],[111.337891,38.315918],[111.335693,38.320129],[111.33252,38.322083],[111.329895,38.324097],[111.326904,38.325073],[111.326294,38.327881],[111.323486,38.329529],[111.321716,38.332275],[111.320679,38.333679],[111.314697,38.33429],[111.31311,38.33728],[111.311279,38.338684],[111.307129,38.339478],[111.305908,38.342285],[111.302917,38.342896],[111.298889,38.339478],[111.298096,38.340881],[111.296509,38.34668],[111.295105,38.348083],[111.292297,38.348083],[111.293274,38.350281]]]}}]}