{"type":"FeatureCollection","features":[{"type":"Feature","geometry":{"type":"MultiPolygon","coordinates":[[[[112.51170033436951,35.21975224990691],[112.51133508285399,35.219901472705146],[112.51111408383724,35.220005473365724],[112.51055108364069,35.22025547300532],[112.51051821562757,35.22027073301082],[112.5101590830253,35.2204374772523],[112.50994608263235,35.22055948292069],[112.50978308293568,35.22063848889202],[112.50965208413918,35.22069449318819],[112.50886808370785,35.221205501249464],[112.50860837994607,35.22135433106638],[112.50860808327297,35.22135450149452],[112.50816924509802,35.22161053013563],[112.50765508335652,35.22191050020875],[112.50657288003725,35.222523405682],[112.50650208323206,35.22256350099001],[112.50641437131421,35.22259757738291],[112.50594607602915,35.222779517352706],[112.5056250694826,35.222839525236324],[112.50425505788263,35.223455528765456],[112.50323814631939,35.22377076184565],[112.50318405552368,35.22378752899652],[112.50309018394421,35.2238243535032],[112.50256205565137,35.22403153925278],[112.5023700989326,35.224120779719584],[112.50219205459841,35.224203553813375],[112.50214693980864,35.22421156344993],[112.50202305496921,35.224233556527025],[112.50178942632883,35.22419782470639],[112.50159805469826,35.224168556425404],[112.50114003801987,35.22416063375256],[112.50083499722744,35.2242068068682],[112.50056887558947,35.22419755495315],[112.50055195958487,35.22419696707824],[112.50055161564666,35.22419689834151],[112.50054695819793,35.224195970122125],[112.50045869315288,35.22419665884493],[112.50040894326122,35.22419702956061],[112.49978492252409,35.22418905066686],[112.49915391814852,35.22426205629708],[112.49898731901655,35.22429246666078],[112.49898713294283,35.22429250141018],[112.4989869840706,35.224292528488874],[112.4987759162888,35.2243310561683],[112.4981929165946,35.22445505686769],[112.49779991697923,35.224564056410394],[112.49755891555387,35.22465757333844],[112.49728191690623,35.224765056519935],[112.49705271638078,35.22488820453301],[112.49705259893135,35.22488826817177],[112.49669191684566,35.225082056497826],[112.49634892055774,35.22528757382816],[112.496208178664,35.22537190311125],[112.49620291517533,35.225375056751],[112.49620285527739,35.22537508452887],[112.49544591199398,35.22572605623775],[112.49530959795383,35.22579937062513],[112.49526483456542,35.22582344619608],[112.49525806425223,35.22582708705965],[112.49510828971442,35.22590764050217],[112.49510735763249,35.225908141393234],[112.49510270022371,35.22590847470914],[112.49470314026782,35.226122580193504],[112.49392350632758,35.22635751869307],[112.49275954537019,35.22652284030041],[112.49172317889435,35.2267586778906],[112.49096163467989,35.226932540339746],[112.49052555076948,35.227073099689036],[112.49006930153101,35.227049427318676],[112.48960553960649,35.22702838720664],[112.48870554703268,35.22733401014749],[112.48703281090148,35.22821170539511],[112.48695970315208,35.22852291381423],[112.48678614161469,35.22901848067323],[112.48676016514793,35.22958884118105],[112.48664790716332,35.23015189618359],[112.48664983065608,35.23015509811766],[112.48662555662108,35.23023079280665],[112.48655896249646,35.23043844967192],[112.48655772474812,35.23044231049575],[112.48645581464105,35.23076008733621],[112.48642290094341,35.23088591270183],[112.48641433447597,35.23091866377894],[112.48635380766652,35.231150084879545],[112.48628660079568,35.23127973088436],[112.48622635011145,35.23139595838088],[112.4862262641846,35.23139612526552],[112.48621302836979,35.231421657004596],[112.48621280552995,35.23142208603091],[112.48618677069378,35.23145139255129],[112.48618672763835,35.2314514408461],[112.48618664691968,35.231451531962044],[112.48599780564153,35.231664093706826],[112.4857897956153,35.23187283759634],[112.48571180520638,35.23195110311971],[112.48567090248798,35.23199447936778],[112.48549680641831,35.23217910994125],[112.48543012406164,35.23221787543229],[112.48529238861487,35.23229794108089],[112.4852077992546,35.23234711211633],[112.48485878919911,35.23241011286677],[112.48442677858505,35.23252111182922],[112.48406277783246,35.23257011215322],[112.48357077718721,35.23257611214334],[112.48352113247608,35.23256626446074],[112.48307677779322,35.232478112699724],[112.48270977725095,35.232347111708954],[112.48205577670846,35.23230111271515],[112.48150276683063,35.232183112476676],[112.48098876803235,35.23200911185127],[112.48048512310234,35.231788942121355],[112.48048499909201,35.23178888776109],[112.48048492489235,35.231788854421396],[112.48045577537337,35.23177611228421],[112.48041400518089,35.231748505237455],[112.48038546832838,35.231729642426735],[112.47998977862201,35.23146811204904],[112.47938742960336,35.23111851694543],[112.47933677554344,35.23108911918403],[112.47933659925255,35.23108896812685],[112.4793266936752,35.231080490405596],[112.4788857783283,35.230703136400095],[112.47838577802713,35.230290139848044],[112.4781976314833,35.230115523081615],[112.47794077806351,35.22987714001397],[112.47753177724167,35.229463139291234],[112.47712377752345,35.229064140586544],[112.47684177736504,35.228671139190695],[112.47675597715342,35.228461527457696],[112.47668377759857,35.22828514005923],[112.4764974774364,35.22788123566007],[112.47649718818305,35.22788060831493],[112.47643977860263,35.22775613968338],[112.47593878867762,35.22697413995224],[112.47572199731157,35.2267262688249],[112.4756597871793,35.226655139239746],[112.47556017367612,35.22655778327014],[112.47535078803756,35.22635313967283],[112.47518233232147,35.22623582172643],[112.47515591365593,35.22621742298955],[112.47512678752112,35.22619713938824],[112.47504602078435,35.22615622830561],[112.47482078314034,35.22604213977795],[112.4745547777746,35.2259771419689],[112.47414738050269,35.22598973387185],[112.47410707865785,35.225990979992844],[112.47401529461719,35.225993816549334],[112.47400915285456,35.2259940067097],[112.4739717775182,35.22599516126631],[112.47396960303138,35.225993837677414],[112.4735074829754,35.22606255223381],[112.47302123565062,35.22623970949574],[112.47282339039975,35.22634576094175],[112.47246396902324,35.22666557333628],[112.47210535870818,35.22703043637817],[112.47181822874056,35.22728627920926],[112.47118657134706,35.227622916983485],[112.4704444505332,35.227963146787346],[112.4696133121833,35.22839232398302],[112.46931541929025,35.22854690110838],[112.46896200933281,35.228668354515214],[112.46842039784612,35.228974593554746],[112.46774713023086,35.22932749033935],[112.46715808375569,35.22978300615318],[112.46648764195386,35.230293580450365],[112.46581153101474,35.23068029793866],[112.46535329809635,35.23085257832955],[112.46479110065273,35.23100809129202],[112.46422610838927,35.231046472107835],[112.46373625372513,35.23114027055439],[112.46317296142,35.23131156116517],[112.46261213013872,35.23154365380369],[112.4622324945402,35.23169694846992],[112.46167541360815,35.23198531962659],[112.46142436528511,35.232035667129594],[112.46111166412454,35.23201691160246],[112.46024627562355,35.231842600271285],[112.45975241532027,35.23171336977426],[112.45913032736834,35.23163074674295],[112.45852826521858,35.23159294167286],[112.45799694234556,35.23147992822265],[112.45735556304989,35.231278111811996],[112.45667551141224,35.23098663235926],[112.45598496903686,35.23068400958466],[112.45555402734581,35.23050218375215],[112.45492829168938,35.23021454726551],[112.45435859696326,35.229951018447025],[112.45382717246785,35.22979292420145],[112.45323847064085,35.229502580790836],[112.45294206811343,35.22928082668755],[112.45275431231082,35.22906903245758],[112.45266200155659,35.22882004226893],[112.45263836285832,35.22861078408845],[112.45264521151485,35.228340325477426],[112.45275321020009,35.227890654614995],[112.45274895313182,35.22765187309319],[112.45270514450719,35.227273872273656],[112.45260415593452,35.22703850488321],[112.45242315559297,35.22674326310581],[112.45225538970838,35.22653573429764],[112.45186888531651,35.226380398290644],[112.451376314255,35.22632096539517],[112.45097642037929,35.22641588635664],[112.45019620270017,35.22666407034837],[112.44923626615044,35.22703607147137],[112.44878443340265,35.22722173150949],[112.4479924407659,35.22781252010937],[112.44730828408014,35.228329912993104],[112.44680296598114,35.22863562218398],[112.44642210603246,35.22875959141961],[112.44614950054289,35.228794392951166],[112.4432225874723,35.22918795624213],[112.44143946876035,35.22942381940159],[112.44085624939122,35.229687019385025],[112.4408879563125,35.229772214974915],[112.44097583307116,35.23000833434821],[112.4410238738183,35.23034383778644],[112.4410239076442,35.23034407351196],[112.44102398655006,35.230344622336744],[112.44103783326024,35.230441334047725],[112.44105390520065,35.230691060120286],[112.44106383387513,35.23084533463351],[112.44106811052292,35.231126753099],[112.44106811208476,35.23112684140318],[112.44106883348215,35.231174335148104],[112.44108971985928,35.23122097592549],[112.4412018336365,35.23147133464241],[112.44137056728259,35.23162514273792],[112.44146183383127,35.231708334566655],[112.44151699515115,35.23174556890889],[112.44170183410195,35.231870334686704],[112.44205083242554,35.23200033440738],[112.44249118352238,35.232022630604654],[112.4425248331662,35.23202433394374],[112.44307283375342,35.23206333022732],[112.44338483332591,35.23214731938571],[112.44343618059806,35.232176100416005],[112.4434362149933,35.23217611983332],[112.44360783393444,35.232272311998685],[112.44366556074522,35.232353519286065],[112.44372583249913,35.23243830840275],[112.44373031489503,35.232512054877596],[112.44373676804078,35.23261822833153],[112.44373683331031,35.2326193081544],[112.44371979363454,35.23265775697438],[112.4437197820174,35.232657783249294],[112.44369783419857,35.23270730932874],[112.44358816195518,35.232778277196225],[112.44352783338495,35.232817314453776],[112.44342989821222,35.232838282197804],[112.44321483280848,35.232884325350526],[112.44307283398969,35.23299033051248],[112.44302039438192,35.23303453676375],[112.44295183309087,35.23309233413579],[112.44289779293942,35.2331607292039],[112.44289775856278,35.23316077287389],[112.44288783363915,35.2331733338967],[112.44288777008245,35.23317359061014],[112.44285783267992,35.23329233424776],[112.4428578362067,35.23329253338249],[112.44285866811268,35.233336156694186],[112.44285983398258,35.233397334221486],[112.442935833329,35.2335763342701],[112.44321383306105,35.23385732561988],[112.44325714783852,35.2339016373431],[112.44347383331656,35.23412331605145],[112.44358583316979,35.23427131306078],[112.44361669948017,35.23437252408308],[112.44362883287123,35.234412311119215],[112.44362241246795,35.23444541679434],[112.44359683351753,35.234577312835775],[112.44340983369251,35.23486631908195],[112.44340002142741,35.234876689660126],[112.44339997936272,35.234876733421935],[112.44314583527239,35.23514532732502],[112.44304006568828,35.23518982797053],[112.44304003188239,35.23518984189242],[112.4430008384823,35.2352063326009],[112.44285036887266,35.235232791272274],[112.44263684784387,35.23527033426502],[112.44247018602226,35.23528255644617],[112.44247009276785,35.23528256296524],[112.44218686004089,35.23530333463026],[112.44191797886013,35.23529768025783],[112.4417588613308,35.23529433436574],[112.44118186017279,35.235222334142335],[112.44094687160592,35.23520265515225],[112.44077586149422,35.235188334423555],[112.44073857735826,35.235189766080566],[112.44022886078312,35.23520933409515],[112.43968054881559,35.23527046074206],[112.43962786129784,35.235276334622874],[112.43947362447791,35.235301467623835],[112.4389158606708,35.23539235715836],[112.43874701087634,35.23540625763727],[112.438514861248,35.23542536252738],[112.43841668049302,35.23542931623019],[112.43749686129831,35.23546636233265],[112.43741077057993,35.235480048436315],[112.43691186052733,35.23555936239214],[112.43614794752035,35.23557322603316],[112.43586487021442,35.23557836236519],[112.43557174115394,35.23559598967671],[112.43496688015216,35.235632378433685],[112.43423856737968,35.23569390325985],[112.43407888323807,35.235707390294685],[112.43393794565031,35.23571239139951],[112.43393790283456,35.23571239280809],[112.43393786441179,35.23571239416462],[112.4334588841433,35.23572938936871],[112.43294288548049,35.23577438945344],[112.43283707396019,35.23583011766982],[112.43264288879922,35.23593239000758],[112.43231088935129,35.23615638976555],[112.43205690106421,35.23629264054636],[112.43196788994548,35.236340390483456],[112.431694889015,35.23638839034594],[112.431110889511,35.23635039581431],[112.4306898878784,35.23625041020377],[112.43038145031007,35.236043912779934],[112.4303388891486,35.23601541800194],[112.43033864344842,35.236015063108276],[112.43031981337013,35.23598791549673],[112.4301328881601,35.23571841742361],[112.42981388905714,35.235183418240844],[112.42956887984025,35.23473741805124],[112.4295420819933,35.23470663504007],[112.4294008733132,35.234544418092646],[112.42923675285354,35.23442292164337],[112.42923672613239,35.234422901230104],[112.42914286644674,35.23435341806543],[112.42893938299646,35.23412592720997],[112.4288208610611,35.23399341737803],[112.42849286062096,35.23369741700965],[112.42829886125035,35.233570417369556],[112.42820066044786,35.23353911313998],[112.42735471665686,35.23382546315306],[112.42729421618486,35.23397719448566],[112.42725186218425,35.234083417438555],[112.42725187773334,35.23408386607981],[112.42726002246955,35.234299846637235],[112.42726887194723,35.23453441805825],[112.42745988731737,35.234997417737894],[112.4275193595182,35.235122042814545],[112.42759588822372,35.235282417674114],[112.42772189923885,35.23551256150021],[112.42773988918776,35.23554541716961],[112.42774088886388,35.2355664172118],[112.42780341314153,35.23583485526783],[112.42781588926766,35.235888417397135],[112.42781587984747,35.235888632006734],[112.42781164102124,35.23598653746978],[112.42780588856313,35.23611941862761],[112.42779020446582,35.23631025853549],[112.42779019721172,35.23631034604269],[112.42779016559543,35.23631073575742],[112.42778188907974,35.23641142055252],[112.42778200184199,35.23641171212964],[112.42787288970645,35.236647419887206],[112.42811289539613,35.23689441714256],[112.42823758244403,35.23706497964611],[112.42823790099519,35.2370654175008],[112.42826690693985,35.23724341705277],[112.42826665782076,35.237243806630836],[112.42817491366065,35.23738741817486],[112.42794191673535,35.23761941692832],[112.42742391673325,35.23789843409309],[112.42726529917742,35.23796038526024],[112.42708591663973,35.238030445441915],[112.42696498698596,35.23805726250863],[112.42688725746065,35.23807449896193],[112.42660791718045,35.23813644239198],[112.42614691680687,35.238279445396266],[112.42609953183347,35.2382859953601],[112.4255899172474,35.23835644591921],[112.42474491662482,35.238385445521956],[112.4242710239306,35.238391443973875],[112.42427091629843,35.23839144524067],[112.42426166000264,35.23838866836787],[112.42400091696204,35.2383104455951],[112.42392091676578,35.23818244543164],[112.42390441377738,35.23810307419478],[112.42389991628163,35.23808144564309],[112.4238999503226,35.23808113070483],[112.42391591607017,35.237931445502525],[112.42392991699509,35.23775344527858],[112.42390536637242,35.23770197061992],[112.42390528198108,35.237701793164575],[112.42383691767206,35.23755844554246],[112.42373558159869,35.23745390896883],[112.42352090697352,35.23723245381226],[112.42331790306584,35.2371304610509],[112.4231419022879,35.23709646637083],[112.42298590245095,35.23711947131114],[112.42289190585772,35.237235472984906],[112.42289187457276,35.237235757247916],[112.42288037383236,35.23733980350332],[112.42286891263139,35.237443473468296],[112.42283446972348,35.237514005945606],[112.42282691635656,35.237529472858725],[112.42282679944252,35.237529571568835],[112.42277526367204,35.23757318174765],[112.42277491724394,35.2375734733208],[112.4227228441257,35.237565692158256],[112.42268791726191,35.237560473543105],[112.42243291309462,35.23743447375936],[112.42232302183233,35.23743922531932],[112.42224791360101,35.23744247296365],[112.4221109157731,35.237502473465355],[112.42199437343648,35.237734163063955],[112.42194391695688,35.23783447345158],[112.42183591690181,35.23791047355699],[112.4217242019213,35.237912232213155],[112.42170891709725,35.23791247307127],[112.4215859164954,35.23790947398003],[112.42157696464018,35.237901913970774],[112.42145091652615,35.23779547300312],[112.42140591659572,35.23761847335309],[112.42139239290039,35.23755954865326],[112.42138526787183,35.23752850481085],[112.42137791470019,35.23749647316869],[112.42137138080255,35.23744327675393],[112.42135690997767,35.23732547339363],[112.4213299081418,35.23725347386646],[112.42127690588497,35.23719947313299],[112.4211489038723,35.23717047344662],[112.42096590321194,35.23714347312143],[112.42081890140686,35.237084473503806],[112.42080259215817,35.23706231206829],[112.4206878946278,35.23690647351287],[112.42048188845953,35.23658047365204],[112.42035727832499,35.236440633023285],[112.4203187944644,35.23639744594062],[112.4203018885999,35.23637847376526],[112.4202400400762,35.23633403144434],[112.42013488840333,35.23625847313251],[112.42013020667194,35.23625841090997],[112.4200179594799,35.236256924284234],[112.41998388868215,35.236256473286886],[112.41998141974562,35.236255743400406],[112.4198879308682,35.23628838427271],[112.41968108740264,35.23643501270484],[112.41928651891112,35.236840701171666],[112.41895951153212,35.23730192463351],[112.4187472913022,35.23769195337077],[112.41858902075776,35.2379078577518],[112.41841711982914,35.23801126393012],[112.41800610470735,35.238103954071775],[112.4172802491339,35.23829270922563],[112.41680721719045,35.23837260190841],[112.41598955145676,35.23853313345045],[112.41526116205628,35.23861600873374],[112.41444155600524,35.238625591392065],[112.41383913780561,35.23864840316611],[112.41331108981588,35.23868386312551],[112.41281992391143,35.23882703995412],[112.41251287901015,35.23897707924895],[112.41220524709523,35.2390933266396],[112.41158699079527,35.239192919701686],[112.41068242353678,35.239331897834035],[112.41006029414984,35.23948560362893],[112.40876643668894,35.23954573592571],[112.40741697481107,35.239606502021346],[112.40636007821031,35.23963230844927],[112.40560027173957,35.2396862000498],[112.40493931242847,35.23973893841148],[112.40411950983025,35.23977774438119],[112.4035368935391,35.23987462977005],[112.40322712226919,35.23990751307347],[112.40244510778727,35.240067540086066],[112.4019549757078,35.24019263686574],[112.40148495534353,35.24036932011548],[112.40129754729406,35.24049090787022],[112.40118686774075,35.240602593446695],[112.40105501732842,35.24084070089283],[112.40081088606426,35.24133696709348],[112.4006590593866,35.241611356523755],[112.40029914832293,35.242003063214064],[112.40011135230937,35.24226209530146],[112.3996245222129,35.2425403582287],[112.3993523992674,35.242647150849564],[112.39888000863155,35.2427269664457],[112.39834748635072,35.242703830560956],[112.39766548751659,35.2426125715028],[112.39721787832569,35.242496070985865],[112.39663832418341,35.24225266169975],[112.39559623423804,35.24178251117291],[112.39547781456592,35.24176359856453],[112.39539097955851,35.2417848782117],[112.3949371096236,35.24198388234179],[112.39449027935437,35.242112955310866],[112.39386236486993,35.242212569536704],[112.39319820442019,35.24224049632667],[112.39296133326042,35.242240970117514],[112.39261289107608,35.2421413360175],[112.3922079928893,35.24195222376938],[112.39172920711552,35.24165806214987],[112.3914134517945,35.24130118918796],[112.39119038994292,35.241064919566924],[112.39095998384902,35.2409211128823],[112.39074152839294,35.2408740545483],[112.39047091957255,35.240949265847384],[112.39015235168613,35.241151203646595],[112.38990289552106,35.241419941186585],[112.38968515384865,35.24157565584204],[112.3894302867034,35.241607874299085],[112.38910096834923,35.241582364209734],[112.38877003190252,35.2414216821501],[112.38820245269868,35.24123442323104],[112.38793109319755,35.241254256969285],[112.38757120507728,35.24141001553532],[112.3874344445547,35.24167205003403],[112.38755166496308,35.242284005079526],[112.38794618797802,35.242717550673866],[112.38789512806868,35.24363808475012],[112.38806508901175,35.24499415433809],[112.38819650597291,35.24643827859643],[112.38804324232736,35.2468452521684],[112.38764673333893,35.24707978743221],[112.38686444453842,35.24739540557941],[112.3839819229329,35.249226152479395],[112.38244892957856,35.25009006300394],[112.38110686041088,35.25080630314852],[112.38019414731605,35.251173786412195],[112.37836489146224,35.2516839563752],[112.37293070969804,35.25411166701943],[112.37011791009293,35.25539546467668],[112.36996418934267,35.255644741467414],[112.36981046765482,35.25589401717311],[112.36965483280542,35.25622639867256],[112.36973888009841,35.256430431237916],[112.36982292892671,35.256634463716175],[112.37019244278694,35.25690249831774],[112.37047869344637,35.25742606872171],[112.37079533634152,35.2582135780758],[112.37371388084078,35.26089886352707],[112.3775617885048,35.26292974561971],[112.37869438976414,35.26317570419239],[112.37970518262033,35.263310698811544],[112.38090123758643,35.26354743385505],[112.38181811064189,35.26360850183195],[112.38274848827865,35.26358727342656],[112.38329572836473,35.26396732078131],[112.38395418492209,35.2649292841185],[112.38447147358656,35.265873782345736],[112.38505228732322,35.266596420601964],[112.38700240868187,35.268695855493604],[112.38998490754318,35.2702924189402],[112.39023476189257,35.270610272446085],[112.39099650540288,35.27243357242669],[112.3922711785004,35.273664983445045],[112.39305364711842,35.27402081455947],[112.39383612357696,35.27437664132108],[112.39500063124433,35.27513582044402],[112.3959484526851,35.275488399586635],[112.3973488524394,35.27575837928202],[112.39967305532389,35.27595459747892],[112.40124421470362,35.27600794331679],[112.40271515331386,35.276319963632204],[112.40411879848394,35.27677582434987],[112.40508685533185,35.27726534229303],[112.40540020925867,35.27823460768939],[112.40540649440702,35.27960804909123],[112.40617193707016,35.280486213001545],[112.40711357657031,35.28146247436359],[112.40810437855465,35.28227467878301],[112.40942735057249,35.283080886394245],[112.41007864678448,35.28376587910468],[112.41076957014937,35.28419896720423],[112.41216452839522,35.28498151794051],[112.41252881510192,35.28540186397252],[112.41267278640446,35.28584701264054],[112.41352717034576,35.28571630318191],[112.41441366210304,35.28551994198244],[112.41522489039698,35.285009693033906],[112.41556608031917,35.2845621703824],[112.41593792144405,35.283871062525044],[112.41621256130905,35.28361031329305],[112.41679398206033,35.28293105591099],[112.4173793833662,35.28248066723002],[112.41791344166666,35.28208810697914],[112.41850456941687,35.28196671695803],[112.41916597319685,35.28187311323381],[112.41958165100915,35.281696546332526],[112.41966188221417,35.2812949968976],[112.41986322601525,35.28083479638525],[112.42009945629843,35.2803741859284],[112.42049043467078,35.27978299177545],[112.42074360284622,35.279293565587245],[112.42096262983627,35.27884746374506],[112.42104560216372,35.278603262612464],[112.42105829746076,35.2783312724587],[112.42114026819137,35.27802985461237],[112.42138298299912,35.27794115774467],[112.4218033869441,35.27803636794318],[112.42206854797158,35.27823355505332],[112.42234865152469,35.278287490805376],[112.42247025940524,35.27825744605227],[112.42272991675058,35.27813993259229],[112.42314731962585,35.27806348461202],[112.42330506608847,35.27810455132502],[112.4235702297554,35.278301734160955],[112.42371328732843,35.27850035374093],[112.42408136484448,35.27859617185492],[112.42453566077899,35.27863374504664],[112.42507492211654,35.278541547826826],[112.42536595457247,35.2782233557302],[112.42544264565436,35.277621540975105],[112.42543713047839,35.27730684314486],[112.42542935813749,35.2768634051132],[112.42554569792384,35.27653296384244],[112.42597877765698,35.27635617018856],[112.42663987510176,35.276248222421174],[112.4273530508895,35.27612534919685],[112.42813750466264,35.27608747503021],[112.42888480929233,35.27592126789832],[112.42935226195377,35.27571544067713],[112.42947084660915,35.275513735989975],[112.42951437776367,35.275012462780616],[112.42952352522421,35.27454021051818],[112.42972605323061,35.27415151744864],[112.4300188133078,35.27393344513866],[112.43023878140731,35.27354454503755],[112.43046050817455,35.27325577496763],[112.4306829880949,35.273009917543554],[112.43074722404542,35.27269439495876],[112.43084282344574,35.272178197965886],[112.4311686958143,35.27185958000336],[112.43130395800833,35.27161475423692],[112.4312470999679,35.27135789343107],[112.43122487630288,35.2710863154788],[112.43129112214358,35.27088522824867],[112.43153179163782,35.27068207691878],[112.4317368193637,35.27043642411247],[112.43222066820691,35.270173162734615],[112.43268933893226,35.270038846002095],[112.43312186421717,35.26983341910161],[112.43357107416347,35.269584870083264],[112.43368762219133,35.269268725972786],[112.43401246452633,35.26889288339898],[112.43429634043258,35.26825770385846],[112.43455608333323,35.267762448395295],[112.43482039122226,35.26752617781321],[112.435227941908,35.267352967375594],[112.43568080144163,35.26706264946789],[112.43599429880273,35.2669294091105],[112.43690572226356,35.266672498761835],[112.43789493975082,35.26634989683729],[112.43855418574648,35.26612187505686],[112.4392932877331,35.26594470788688],[112.44010995582049,35.26568890004029],[112.44098148268333,35.26541921467288],[112.44097692313161,35.26516173553571],[112.44078279246239,35.26503528196369],[112.44039681170568,35.2649111116429],[112.43992337473387,35.26477367376802],[112.43906016680931,35.264297493776176],[112.43842218250136,35.2637327857594],[112.43792524770757,35.263252241720686],[112.43753270984337,35.26275614772292],[112.43721069600352,35.26230213743143],[112.43694277558184,35.26194763411567],[112.43672288409904,35.26134933514984],[112.43667790327777,35.260777572438464],[112.43674135033588,35.260419133830624],[112.4372612677461,35.26022696198925],[112.43801042798812,35.26017513660456],[112.43865570762658,35.260167464842866],[112.43933713049684,35.26023089627771],[112.43982798085533,35.26036812963106],[112.44014493755358,35.26053604579023],[112.44069038981786,35.26080139151795],[112.44082411990743,35.26145793937634],[112.44099121320065,35.26202824567411],[112.44150610501687,35.262537177743944],[112.44227956909545,35.26287133635964],[112.44297896558274,35.26296314728083],[112.44357041999145,35.26287024715895],[112.44408703589156,35.26249208856559],[112.44409838432358,35.262148575767874],[112.44388097901033,35.26169333395764],[112.44385744815885,35.26135023741355],[112.44411118203355,35.260903679347905],[112.44401941261454,35.26064724214642],[112.44385610791879,35.26029150650375],[112.44367155895253,35.259721412512384],[112.44369197580875,35.25890564705716],[112.44385926739587,35.25850304289467],[112.44484138710254,35.25781887008624],[112.44593092249866,35.25729078623509],[112.4469219105539,35.25710724969311],[112.44828166229878,35.2570623652954],[112.44910130553924,35.2570525497801],[112.45042413697003,35.25689362412596],[112.45089448422051,35.25685936980502],[112.45094272174285,35.25662987252257],[112.45098815421996,35.25624302842109],[112.45131771082082,35.256138923474126],[112.45171702208108,35.25603398066304],[112.45188656440261,35.255760106367404],[112.45187865529539,35.25531667189732],[112.45176840942648,35.25500323214098],[112.45153941011739,35.25487721304717],[112.45118298512335,35.25445226745226],[112.45121225214343,35.25413715364282],[112.45157412627749,35.253889586362796],[112.4520616388345,35.25384081444195],[112.45255144892761,35.253920778809395],[112.45307460373547,35.25391449683385],[112.45372085011603,35.253963962914206],[112.45435042647955,35.25405654784615],[112.45496154199172,35.25409212315276],[112.45544777450681,35.25397181554231],[112.45580989038913,35.25373854014346],[112.4560968769665,35.253205713507874],[112.45584481049605,35.252765217548884],[112.45515832610134,35.25241579131358],[112.45459314796369,35.25202198082611],[112.45394129657468,35.25165782381109],[112.45355229677199,35.251362042273],[112.45315998071088,35.25088030320862],[112.45303153301278,35.25052416102005],[112.45319901750538,35.25013584918299],[112.45349290426599,35.24998924498652],[112.4538029515189,35.249770909306456],[112.45397017435052,35.24936829314313],[112.45405020992283,35.24896672363546],[112.45371047016195,35.2484986615613],[112.45326917510116,35.24820350706182],[112.45284378789086,35.24782231592801],[112.45241942636918,35.247498340230756],[112.45208225312942,35.247173316686045],[112.45176328461007,35.24689099662685],[112.45144635916996,35.246723109841966],[112.45142458781542,35.246480144534885],[112.45124511965362,35.24619614959497],[112.45098254619555,35.246142068315265],[112.45089001010533,35.245842722087],[112.45116186092248,35.245438854874905],[112.45174680374373,35.24498830815626],[112.45229406004438,35.24438082938592],[112.45250950814763,35.243748716944275],[112.45248492839089,35.2433484047408],[112.45233880549144,35.24297816514435],[112.45203958552548,35.242824374474246],[112.45170702342408,35.24275682800639],[112.45120112002346,35.242748588972745],[112.45091984865523,35.24262319491937],[112.4506327169117,35.24216880063716],[112.4506250733835,35.24173966921409],[112.4506348657549,35.2413103287406],[112.45066132941571,35.24083786633989],[112.4507044640601,35.24032228199925],[112.45069783979407,35.239950368539915],[112.4507755898245,35.23942006177825],[112.45062846329235,35.238992602336324],[112.4502033935525,35.23862570418429],[112.4498131978312,35.23825838665844],[112.44952761571813,35.23788981385544],[112.44927843425563,35.23760665033656],[112.44930974101825,35.237405971486105],[112.44949923525886,35.2372749347438],[112.44969102006046,35.23727263738836],[112.44990202199811,35.23737026098092],[112.45007942782982,35.23753982446103],[112.45038066320086,35.23780805597229],[112.45099751612646,35.23817265415686],[112.45142156734828,35.238482332341064],[112.45205408121839,35.23874658479496],[112.45256429521635,35.238997995537034],[112.45293375426114,35.239179556532285],[112.45339671404697,35.239388608103724],[112.45403596562873,35.24002953118744],[112.45497505923191,35.2405333103763],[112.45582322047007,35.24115263570884],[112.4562457707611,35.2413764695733],[112.45661875838437,35.24142920964747],[112.45689466038787,35.24125419926582],[112.45695587354076,35.24077654903657],[112.45687691996204,35.24026243196705],[112.45686770783524,35.23974747607545],[112.45715866215082,35.239114446418604],[112.4576191670974,35.23886090527947],[112.45815623821333,35.23898797028983],[112.45846493818998,35.23934670468387],[112.45877330041931,35.23968636556444],[112.45896303596366,35.23989392051511],[112.45929054828305,35.24000443001722],[112.45968541046018,35.23998059084073],[112.46038146215825,35.239895886565876],[112.46082692325098,35.240100351157174],[112.46088094439122,35.24051938358556],[112.4609349650499,35.24093841506038],[112.46119445259683,35.2411451242211],[112.46161222508454,35.24110192531434],[112.46207546559523,35.24100094631765],[112.46253904627385,35.24091903727577],[112.46302895824316,35.24100849776576],[112.46326794461106,35.24136806228248],[112.46385153617895,35.24149453908352],[112.46433767971722,35.24137419854518],[112.46484329625132,35.241043777296134],[112.46534925180049,35.240732426583065],[112.46574205671537,35.24059413399954],[112.46626005837265,35.24030647884315],[112.46767235817101,35.239645525018574],[112.46842101218688,35.239254911827224],[112.46878716825186,35.23860663537966],[112.46886015603152,35.23781884266671],[112.46870669676228,35.237367637876254],[112.46832335522306,35.23706229643779],[112.468142132223,35.236682964289734],[112.46830831459609,35.236227880526],[112.46827023244447,35.23572758366566],[112.4681172115199,35.23530021781105],[112.46887141241905,35.23521952915461],[112.47032427754885,35.23520188483642],[112.47180232270574,35.23496930620909],[112.4726692969302,35.23469645695573],[112.47318413222307,35.23423712250849],[112.47346435278448,35.23366141570031],[112.47348392268317,35.233136572573045],[112.4733590735645,35.232661179988625],[112.47328802723017,35.23194667453534],[112.47333794809558,35.23149299929137],[112.47347503530855,35.231038262756115],[112.47364419561117,35.230750054855136],[112.47439964205932,35.23074085368009],[112.47515983731726,35.23099389191501],[112.47571621398625,35.23122556558738],[112.47653539352852,35.23152556712985],[112.47677259425582,35.23178497480183],[112.47692435637255,35.23214080736973],[112.47777606454936,35.232631168614006],[112.4784504155982,35.2329567704946],[112.47889708147689,35.233547453825025],[112.4795460480776,35.23395879064256],[112.48056881203972,35.233987195090926],[112.48184419856175,35.23419660992873],[112.48301429594082,35.234100448666595],[112.48386182581258,35.23409005953622],[112.48463643692583,35.23418284243317],[112.48523954149759,35.23444138091333],[112.48584600602027,35.23488398527208],[112.48616564497318,35.23529451997282],[112.48657244484602,35.23528952343717],[112.48706641543644,35.23528345438484],[112.48729800186318,35.23523291712264],[112.48753045865028,35.23523005995641],[112.48805522822877,35.23531898984119],[112.488518834145,35.23524175184017],[112.48871962021812,35.235096208264196],[112.48917930185355,35.234804405065184],[112.48958217539625,35.23458483579658],[112.49016156661524,35.23448232024339],[112.4906858975791,35.23454739989183],[112.49106887180797,35.23482882814092],[112.4911894645012,35.23506579826956],[112.49139924532898,35.23514359427709],[112.49158680472247,35.235210772259606],[112.49173922221424,35.235208892615574],[112.49183905194597,35.235110377044265],[112.49174190808114,35.234430579961696],[112.49123196994316,35.23340842452884],[112.49097504648199,35.232327557249576],[112.4913313304603,35.231433704190906],[112.49193002819229,35.23082871688027],[112.49234880465984,35.230573391999904],[112.49262599561905,35.22998626357909],[112.4930414556355,35.229550304462094],[112.4935461647257,35.229363405018404],[112.49403801470044,35.22939902754835],[112.49429763083364,35.229701574459874],[112.49435658757238,35.23014557794777],[112.49433189388931,35.23064620582302],[112.49449007619982,35.23096159645432],[112.4948157396382,35.231168348694],[112.49510362331586,35.2311647924856],[112.49552366635388,35.2309789307128],[112.495685612086,35.23057389146196],[112.49579522354166,35.23008611199075],[112.49598771852529,35.2295000229299],[112.49647063718433,35.22904932026454],[112.49692402290421,35.22883524613832],[112.49761371424793,35.22857655118151],[112.49817125105065,35.22850016193891],[112.49864974083543,35.22873050101004],[112.49899966499349,35.22933767220396],[112.49917692943882,35.22976630951618],[112.49952149208214,35.23008169162845],[112.50003612823917,35.230316113983314],[112.50060863086601,35.23063093133798],[112.50118509229752,35.23116030750053],[112.50198145549055,35.231794255734535],[112.50308753708599,35.23267473126533],[112.50397241823964,35.23337910354582],[112.5048599580892,35.23422650936791],[112.50570591394865,35.23518173139954],[112.50642311678438,35.23624585379242],[112.50661333371978,35.237101924345694],[112.50719782078458,35.23806038997136],[112.50761128235796,35.239199824132506],[112.5083641880762,35.23983426935214],[112.50899097850004,35.240720661066526],[112.5095246408975,35.24128629728083],[112.50957485785023,35.2416433530721],[112.50932856930358,35.24246909440715],[112.50973744448028,35.24335819949237],[112.51026714967644,35.2437092713187],[112.51127568548935,35.24401859362974],[112.5121939762264,35.24432602513625],[112.51330961404724,35.244297769285225],[112.51501567729217,35.244133347224256],[112.51665903591856,35.2434117028463],[112.51745628315363,35.2431441760194],[112.51868861535522,35.24282826248054],[112.51893334191509,35.24192383199029],[112.51963751756658,35.24134270006394],[112.52112466365179,35.24066588008065],[112.5216638801583,35.23965758975856],[112.52070530194905,35.23875397489713],[112.52015342827043,35.23721572306113],[112.52028737916329,35.235983613445505],[112.52097139045459,35.2352596543552],[112.52203946828227,35.23455947506091],[112.52209236600784,35.23365745032993],[112.52260254191184,35.232964282012745],[112.52395004470543,35.23228918552933],[112.52540891093034,35.2313667452892],[112.52614419712057,35.230851637161436],[112.52674238204037,35.22987456841094],[112.52760802616812,35.22809321128296],[112.52785850656792,35.22638284475093],[112.52783835682968,35.225308192678455],[112.52756418294297,35.22438428283335],[112.52675628600677,35.223762179023424],[112.52563555856727,35.223508271143096],[112.52514651445036,35.22334545087473],[112.52451621263421,35.22322721789101],[112.52403837551672,35.22303946774894],[112.52350920820595,35.22282307233697],[112.52315643187312,35.222678806493995],[112.52267518482574,35.22256544722008],[112.52237435974897,35.222519663084796],[112.52205465609485,35.22249214046654],[112.52171468572593,35.22240854412228],[112.52141813401188,35.2224077660185],[112.52101712906375,35.2223271871138],[112.52069952662343,35.222191485308905],[112.52020324374706,35.221934105196894],[112.5196921175778,35.22180083123919],[112.51906512502606,35.22182222075535],[112.51838810407016,35.221884790611384],[112.51787937213784,35.22187990613324],[112.51685513322111,35.221469161268345],[112.51605442891969,35.22130345083418],[112.51549047752545,35.221060417336304],[112.51484417167234,35.22092881522683],[112.51436618397051,35.22076806556351],[112.51360116033288,35.22063794206248],[112.51313413198874,35.220438747527425],[112.51260666007609,35.22008934806846],[112.51210209059305,35.219753178788665],[112.51170033436951,35.21975224990691]]],[[[112.42735471665686,35.23382546315306],[112.42707855792314,35.23391894094775],[112.42652685148776,35.23408055410188],[112.42588748231533,35.23427421884767],[112.4250850251685,35.23451116301816],[112.42383074705675,35.23485682408794],[112.42331520322763,35.234924932783684],[112.42283547479762,35.23487887084279],[112.42243441960233,35.235007672048916],[112.42141144603897,35.23560910339376],[112.41998141974562,35.236255743400406],[112.41998388868215,35.236256473286886],[112.4200179594799,35.236256924284234],[112.42013020667194,35.23625841090997],[112.42013488840333,35.23625847313251],[112.4202400400762,35.23633403144434],[112.4203018885999,35.23637847376526],[112.4203187944644,35.23639744594062],[112.42035727832499,35.236440633023285],[112.42048188845953,35.23658047365204],[112.4206878946278,35.23690647351287],[112.42080259215817,35.23706231206829],[112.42081890140686,35.237084473503806],[112.42096590321194,35.23714347312143],[112.4211489038723,35.23717047344662],[112.42127690588497,35.23719947313299],[112.4213299081418,35.23725347386646],[112.42135690997767,35.23732547339363],[112.42137138080255,35.23744327675393],[112.42137791470019,35.23749647316869],[112.42138526787183,35.23752850481085],[112.42139239290039,35.23755954865326],[112.42140591659572,35.23761847335309],[112.42145091652615,35.23779547300312],[112.42157696464018,35.237901913970774],[112.4215859164954,35.23790947398003],[112.42170891709725,35.23791247307127],[112.4217242019213,35.237912232213155],[112.42183591690181,35.23791047355699],[112.42194391695688,35.23783447345158],[112.42199437343648,35.237734163063955],[112.4221109157731,35.237502473465355],[112.42224791360101,35.23744247296365],[112.42232302183233,35.23743922531932],[112.42243291309462,35.23743447375936],[112.42268791726191,35.237560473543105],[112.4227228441257,35.237565692158256],[112.42277491724394,35.2375734733208],[112.42277526367204,35.23757318174765],[112.42282679944252,35.237529571568835],[112.42282691635656,35.237529472858725],[112.42283446972348,35.237514005945606],[112.42286891263139,35.237443473468296],[112.42288037383236,35.23733980350332],[112.42289187457276,35.237235757247916],[112.42289190585772,35.237235472984906],[112.42298590245095,35.23711947131114],[112.4231419022879,35.23709646637083],[112.42331790306584,35.2371304610509],[112.42352090697352,35.23723245381226],[112.42373558159869,35.23745390896883],[112.42383691767206,35.23755844554246],[112.42390528198108,35.237701793164575],[112.42390536637242,35.23770197061992],[112.42392991699509,35.23775344527858],[112.42391591607017,35.237931445502525],[112.4238999503226,35.23808113070483],[112.42389991628163,35.23808144564309],[112.42390441377738,35.23810307419478],[112.42392091676578,35.23818244543164],[112.42400091696204,35.2383104455951],[112.42426166000264,35.23838866836787],[112.42427091629843,35.23839144524067],[112.4242710239306,35.238391443973875],[112.42474491662482,35.238385445521956],[112.4255899172474,35.23835644591921],[112.42609953183347,35.2382859953601],[112.42614691680687,35.238279445396266],[112.42660791718045,35.23813644239198],[112.42688725746065,35.23807449896193],[112.42696498698596,35.23805726250863],[112.42708591663973,35.238030445441915],[112.42726529917742,35.23796038526024],[112.42742391673325,35.23789843409309],[112.42794191673535,35.23761941692832],[112.42817491366065,35.23738741817486],[112.42826665782076,35.237243806630836],[112.42826690693985,35.23724341705277],[112.42823790099519,35.2370654175008],[112.42823758244403,35.23706497964611],[112.42811289539613,35.23689441714256],[112.42787288970645,35.236647419887206],[112.42778200184199,35.23641171212964],[112.42778188907974,35.23641142055252],[112.42779016559543,35.23631073575742],[112.42779019721172,35.23631034604269],[112.42779020446582,35.23631025853549],[112.42780588856313,35.23611941862761],[112.42781164102124,35.23598653746978],[112.42781587984747,35.235888632006734],[112.42781588926766,35.235888417397135],[112.42780341314153,35.23583485526783],[112.42774088886388,35.2355664172118],[112.42773988918776,35.23554541716961],[112.42772189923885,35.23551256150021],[112.42759588822372,35.235282417674114],[112.4275193595182,35.235122042814545],[112.42745988731737,35.234997417737894],[112.42726887194723,35.23453441805825],[112.42726002246955,35.234299846637235],[112.42725187773334,35.23408386607981],[112.42725186218425,35.234083417438555],[112.42729421618486,35.23397719448566],[112.42735471665686,35.23382546315306]]],[[[112.44085624939122,35.229687019385025],[112.44085431081811,35.22968789414881],[112.440055543787,35.23004836179925],[112.43874896051622,35.23081361008689],[112.43735398526715,35.23128251225661],[112.43600620118502,35.2315863570881],[112.43509321815658,35.23179673153509],[112.43446245259899,35.2320824328996],[112.433844819483,35.23254256087273],[112.43321093540831,35.23289752254794],[112.43240341061389,35.23289900251316],[112.43129934690579,35.23287065983107],[112.43008209291608,35.23306389404007],[112.42828131751098,35.233511810374814],[112.42820066044786,35.23353911313998],[112.42829886125035,35.233570417369556],[112.42849286062096,35.23369741700965],[112.4288208610611,35.23399341737803],[112.42893938299646,35.23412592720997],[112.42914286644674,35.23435341806543],[112.42923672613239,35.234422901230104],[112.42923675285354,35.23442292164337],[112.4294008733132,35.234544418092646],[112.4295420819933,35.23470663504007],[112.42956887984025,35.23473741805124],[112.42981388905714,35.235183418240844],[112.4301328881601,35.23571841742361],[112.43031981337013,35.23598791549673],[112.43033864344842,35.236015063108276],[112.4303388891486,35.23601541800194],[112.43038145031007,35.236043912779934],[112.4306898878784,35.23625041020377],[112.431110889511,35.23635039581431],[112.431694889015,35.23638839034594],[112.43196788994548,35.236340390483456],[112.43205690106421,35.23629264054636],[112.43231088935129,35.23615638976555],[112.43264288879922,35.23593239000758],[112.43283707396019,35.23583011766982],[112.43294288548049,35.23577438945344],[112.4334588841433,35.23572938936871],[112.43393786441179,35.23571239416462],[112.43393790283456,35.23571239280809],[112.43393794565031,35.23571239139951],[112.43407888323807,35.235707390294685],[112.43423856737968,35.23569390325985],[112.43496688015216,35.235632378433685],[112.43557174115394,35.23559598967671],[112.43586487021442,35.23557836236519],[112.43614794752035,35.23557322603316],[112.43691186052733,35.23555936239214],[112.43741077057993,35.235480048436315],[112.43749686129831,35.23546636233265],[112.43841668049302,35.23542931623019],[112.438514861248,35.23542536252738],[112.43874701087634,35.23540625763727],[112.4389158606708,35.23539235715836],[112.43947362447791,35.235301467623835],[112.43962786129784,35.235276334622874],[112.43968054881559,35.23527046074206],[112.44022886078312,35.23520933409515],[112.44073857735826,35.235189766080566],[112.44077586149422,35.235188334423555],[112.44094687160592,35.23520265515225],[112.44118186017279,35.235222334142335],[112.4417588613308,35.23529433436574],[112.44191797886013,35.23529768025783],[112.44218686004089,35.23530333463026],[112.44247009276785,35.23528256296524],[112.44247018602226,35.23528255644617],[112.44263684784387,35.23527033426502],[112.44285036887266,35.235232791272274],[112.4430008384823,35.2352063326009],[112.44304003188239,35.23518984189242],[112.44304006568828,35.23518982797053],[112.44314583527239,35.23514532732502],[112.44339997936272,35.234876733421935],[112.44340002142741,35.234876689660126],[112.44340983369251,35.23486631908195],[112.44359683351753,35.234577312835775],[112.44362241246795,35.23444541679434],[112.44362883287123,35.234412311119215],[112.44361669948017,35.23437252408308],[112.44358583316979,35.23427131306078],[112.44347383331656,35.23412331605145],[112.44325714783852,35.2339016373431],[112.44321383306105,35.23385732561988],[112.442935833329,35.2335763342701],[112.44285983398258,35.233397334221486],[112.44285866811268,35.233336156694186],[112.4428578362067,35.23329253338249],[112.44285783267992,35.23329233424776],[112.44288777008245,35.23317359061014],[112.44288783363915,35.2331733338967],[112.44289775856278,35.23316077287389],[112.44289779293942,35.2331607292039],[112.44295183309087,35.23309233413579],[112.44302039438192,35.23303453676375],[112.44307283398969,35.23299033051248],[112.44321483280848,35.232884325350526],[112.44342989821222,35.232838282197804],[112.44352783338495,35.232817314453776],[112.44358816195518,35.232778277196225],[112.44369783419857,35.23270730932874],[112.4437197820174,35.232657783249294],[112.44371979363454,35.23265775697438],[112.44373683331031,35.2326193081544],[112.44373676804078,35.23261822833153],[112.44373031489503,35.232512054877596],[112.44372583249913,35.23243830840275],[112.44366556074522,35.232353519286065],[112.44360783393444,35.232272311998685],[112.4434362149933,35.23217611983332],[112.44343618059806,35.232176100416005],[112.44338483332591,35.23214731938571],[112.44307283375342,35.23206333022732],[112.4425248331662,35.23202433394374],[112.44249118352238,35.232022630604654],[112.44205083242554,35.23200033440738],[112.44170183410195,35.231870334686704],[112.44151699515115,35.23174556890889],[112.44146183383127,35.231708334566655],[112.44137056728259,35.23162514273792],[112.4412018336365,35.23147133464241],[112.44108971985928,35.23122097592549],[112.44106883348215,35.231174335148104],[112.44106811208476,35.23112684140318],[112.44106811052292,35.231126753099],[112.44106383387513,35.23084533463351],[112.44105390520065,35.230691060120286],[112.44103783326024,35.230441334047725],[112.44102398655006,35.230344622336744],[112.4410239076442,35.23034407351196],[112.4410238738183,35.23034383778644],[112.44097583307116,35.23000833434821],[112.4408879563125,35.229772214974915],[112.44085624939122,35.229687019385025]]],[[[112.48664790716332,35.23015189618359],[112.48664758613532,35.23015350524773],[112.48566188985103,35.23090159576017],[112.48519242896691,35.231154894442035],[112.48484354753542,35.23132665239187],[112.48451335449562,35.231387933271975],[112.48425107137486,35.231348228424736],[112.48405256219952,35.23110018468343],[112.48329406433379,35.23014373499413],[112.48236190616532,35.229225177001354],[112.48127365401389,35.228192617047355],[112.4806195264069,35.22720842303318],[112.47985150315192,35.226575642831854],[112.47924230863987,35.22606935061765],[112.47832985598389,35.226101905846065],[112.4770542060808,35.22624591595276],[112.4767987885008,35.226278007089775],[112.47633250889353,35.22627215167236],[112.47608057911447,35.2262248627196],[112.47566724922062,35.226005965217155],[112.47485524734408,35.22582321107343],[112.47396960303138,35.225993837677414],[112.4739717775182,35.22599516126631],[112.47400915285456,35.2259940067097],[112.47401529461719,35.225993816549334],[112.47410707865785,35.225990979992844],[112.47414738050269,35.22598973387185],[112.4745547777746,35.2259771419689],[112.47482078314034,35.22604213977795],[112.47504602078435,35.22615622830561],[112.47512678752112,35.22619713938824],[112.47515591365593,35.22621742298955],[112.47518233232147,35.22623582172643],[112.47535078803756,35.22635313967283],[112.47556017367612,35.22655778327014],[112.4756597871793,35.226655139239746],[112.47572199731157,35.2267262688249],[112.47593878867762,35.22697413995224],[112.47643977860263,35.22775613968338],[112.47649718818305,35.22788060831493],[112.4764974774364,35.22788123566007],[112.47668377759857,35.22828514005923],[112.47675597715342,35.228461527457696],[112.47684177736504,35.228671139190695],[112.47712377752345,35.229064140586544],[112.47753177724167,35.229463139291234],[112.47794077806351,35.22987714001397],[112.4781976314833,35.230115523081615],[112.47838577802713,35.230290139848044],[112.4788857783283,35.230703136400095],[112.4793266936752,35.231080490405596],[112.47933659925255,35.23108896812685],[112.47933677554344,35.23108911918403],[112.47938742960336,35.23111851694543],[112.47998977862201,35.23146811204904],[112.48038546832838,35.231729642426735],[112.48041400518089,35.231748505237455],[112.48045577537337,35.23177611228421],[112.48048492489235,35.231788854421396],[112.48048499909201,35.23178888776109],[112.48048512310234,35.231788942121355],[112.48098876803235,35.23200911185127],[112.48150276683063,35.232183112476676],[112.48205577670846,35.23230111271515],[112.48270977725095,35.232347111708954],[112.48307677779322,35.232478112699724],[112.48352113247608,35.23256626446074],[112.48357077718721,35.23257611214334],[112.48406277783246,35.23257011215322],[112.48442677858505,35.23252111182922],[112.48485878919911,35.23241011286677],[112.4852077992546,35.23234711211633],[112.48529238861487,35.23229794108089],[112.48543012406164,35.23221787543229],[112.48549680641831,35.23217910994125],[112.48567090248798,35.23199447936778],[112.48571180520638,35.23195110311971],[112.4857897956153,35.23187283759634],[112.48599780564153,35.231664093706826],[112.48618664691968,35.231451531962044],[112.48618672763835,35.2314514408461],[112.48618677069378,35.23145139255129],[112.48621280552995,35.23142208603091],[112.48621302836979,35.231421657004596],[112.4862262641846,35.23139612526552],[112.48622635011145,35.23139595838088],[112.48628660079568,35.23127973088436],[112.48635380766652,35.231150084879545],[112.48641433447597,35.23091866377894],[112.48642290094341,35.23088591270183],[112.48645581464105,35.23076008733621],[112.48655772474812,35.23044231049575],[112.48655896249646,35.23043844967192],[112.48662555662108,35.23023079280665],[112.48664983065608,35.23015509811766],[112.48664790716332,35.23015189618359]]],[[[112.51170033436951,35.21975224990691],[112.51169487913253,35.21975223692834],[112.51017209096959,35.21970057693321],[112.50973790937391,35.21913334947309],[112.50883373685473,35.21875604495022],[112.5073402865785,35.21885645964061],[112.50607032231291,35.21891317138682],[112.50495249582451,35.219111140284035],[112.50375651840311,35.21912600480193],[112.50291351519854,35.219361443334066],[112.50250501457711,35.22018457871916],[112.5019054614538,35.221460018035685],[112.50067956886599,35.222559158671494],[112.49870423441213,35.22356531150088],[112.4973417503837,35.22423700979745],[112.49644150451343,35.224665442559974],[112.49510270022371,35.22590847470914],[112.49510735763249,35.225908141393234],[112.49510828971442,35.22590764050217],[112.49525806425223,35.22582708705965],[112.49526483456542,35.22582344619608],[112.49530959795383,35.22579937062513],[112.49544591199398,35.22572605623775],[112.49620285527739,35.22537508452887],[112.49620291517533,35.225375056751],[112.496208178664,35.22537190311125],[112.49634892055774,35.22528757382816],[112.49669191684566,35.225082056497826],[112.49705259893135,35.22488826817177],[112.49705271638078,35.22488820453301],[112.49728191690623,35.224765056519935],[112.49755891555387,35.22465757333844],[112.49779991697923,35.224564056410394],[112.4981929165946,35.22445505686769],[112.4987759162888,35.2243310561683],[112.4989869840706,35.224292528488874],[112.49898713294283,35.22429250141018],[112.49898731901655,35.22429246666078],[112.49915391814852,35.22426205629708],[112.49978492252409,35.22418905066686],[112.50040894326122,35.22419702956061],[112.50045869315288,35.22419665884493],[112.50054695819793,35.224195970122125],[112.50055161564666,35.22419689834151],[112.50055195958487,35.22419696707824],[112.50056887558947,35.22419755495315],[112.50083499722744,35.2242068068682],[112.50114003801987,35.22416063375256],[112.50159805469826,35.224168556425404],[112.50178942632883,35.22419782470639],[112.50202305496921,35.224233556527025],[112.50214693980864,35.22421156344993],[112.50219205459841,35.224203553813375],[112.5023700989326,35.224120779719584],[112.50256205565137,35.22403153925278],[112.50309018394421,35.2238243535032],[112.50318405552368,35.22378752899652],[112.50323814631939,35.22377076184565],[112.50425505788263,35.223455528765456],[112.5056250694826,35.222839525236324],[112.50594607602915,35.222779517352706],[112.50641437131421,35.22259757738291],[112.50650208323206,35.22256350099001],[112.50657288003725,35.222523405682],[112.50765508335652,35.22191050020875],[112.50816924509802,35.22161053013563],[112.50860808327297,35.22135450149452],[112.50860837994607,35.22135433106638],[112.50886808370785,35.221205501249464],[112.50965208413918,35.22069449318819],[112.50978308293568,35.22063848889202],[112.50994608263235,35.22055948292069],[112.5101590830253,35.2204374772523],[112.51051821562757,35.22027073301082],[112.51055108364069,35.22025547300532],[112.51111408383724,35.220005473365724],[112.51133508285399,35.219901472705146],[112.51170033436951,35.21975224990691]]]]},"properties":{"code":"SXNR-N08","name_short":"阳城蟒河猕猴","name_full":"山西阳城蟒河猕猴国家级自然保护区","zone":"core","area_km2":34.23,"feature_count":5}},{"type":"Feature","geometry":{"type":"MultiPolygon","coordinates":[[[[112.42304904212584,35.28784230661927],[112.42374020164783,35.28717985388143],[112.42381513645277,35.28709968717733],[112.4241436793037,35.286615688346046],[112.42415891480115,35.28633448559144],[112.42422770236651,35.285963803623915],[112.42420972388874,35.28582840734109],[112.4242001604292,35.285692437000876],[112.42419903786603,35.285556242886315],[112.42420635686472,35.28542017918054],[112.42422210042909,35.28528459576668],[112.42424622740305,35.285149843712],[112.4242786756889,35.285016270723524],[112.42431936008164,35.2848842229764],[112.42436817548739,35.28475404056963],[112.42442499698684,35.284626061130496],[112.4244896775591,35.28450061533521],[112.42456204916522,35.2843780259951],[112.42464192500957,35.284258611635046],[112.42472909941381,35.28414267928527],[112.42482334571426,35.28403052991357],[112.42492442166179,35.28392245295465],[112.42503206394346,35.28381872727598],[112.4251459969738,35.28371962107443],[112.4252659251868,35.283625391066124],[112.42539153738424,35.28353627973163],[112.42552251117868,35.28345251796758],[112.42584756154156,35.28297011755118],[112.42657134207752,35.282405092936315],[112.42756882816846,35.28162637984862],[112.42980456559981,35.279775778082566],[112.43062121387277,35.27908652043511],[112.43134874113171,35.278291006808125],[112.43151310977363,35.277716766653455],[112.43189866903938,35.277318749712784],[112.43267796595934,35.276987605021546],[112.43445584429935,35.27639423778995],[112.43514853595352,35.27609987310501],[112.43568315429272,35.275883220799706],[112.43642501156079,35.27562670530518],[112.43657930332404,35.275465472915315],[112.43656476688605,35.275342519860914],[112.43641415043162,35.27510917946516],[112.43613568508255,35.275030005660206],[112.4358630162652,35.27488320849413],[112.4356236766341,35.274650282155285],[112.43540654034513,35.274274358551665],[112.43523388341728,35.273790426660625],[112.43525148207277,35.27336427736269],[112.43528502776839,35.27245195804769],[112.43522607702737,35.27136160946267],[112.43535326697307,35.270692444017065],[112.4354857704397,35.27032447465686],[112.43565063557168,35.270102679342074],[112.43604652904769,35.270032843303206],[112.43642573226693,35.27014233082213],[112.43759700361697,35.27046161606855],[112.43804461482318,35.27064919599042],[112.4392420362945,35.270870722158],[112.44012516602834,35.27105097478549],[112.44098701347023,35.270943005006984],[112.4419578717346,35.27026377912858],[112.44311398668893,35.26939506725281],[112.44489612902191,35.268559577843234],[112.44677806436611,35.26788110635175],[112.44830740227587,35.267120866051314],[112.44853883594809,35.26683873008113],[112.4482052348896,35.26641789991786],[112.44765677973024,35.265981027560215],[112.44714479394656,35.26549784286177],[112.44704153506231,35.264933311962515],[112.44707093105289,35.2644895222883],[112.44707815238252,35.26384721598569],[112.44719911437625,35.263310584781046],[112.44726796329691,35.26298865113143],[112.44710960413661,35.26247065271658],[112.44680812723585,35.26215435169627],[112.44632089157567,35.261730955773935],[112.44567990456916,35.26105797675463],[112.44536643091052,35.26043219689441],[112.44546914816344,35.259667908010876],[112.44571409029376,35.25905453237404],[112.44619596278169,35.25868631894356],[112.44687130975696,35.25873547332257],[112.447525440662,35.258899337182676],[112.44839966383327,35.25957760143466],[112.44889038647374,35.259677249812285],[112.44972124937355,35.25965133521463],[112.45036738229089,35.25915144736484],[112.4514089995452,35.25887188433262],[112.45224123062862,35.258555835345895],[112.45264309077018,35.258092282138996],[112.45287436713248,35.257576168773646],[112.45297769190226,35.25685002019207],[112.45375974974596,35.25636371221227],[112.45529813514078,35.25655505814293],[112.45609518854837,35.25690792163229],[112.4571384630083,35.256723671473075],[112.45743288597258,35.25628136551969],[112.45796306975586,35.25601744527727],[112.45839769800432,35.25464374598346],[112.45851008145368,35.25363318801454],[112.45836831164243,35.25267417165535],[112.45803238023062,35.252096386627514],[112.45607307532286,35.251062275415705],[112.45576407587006,35.250851383033535],[112.45580191472973,35.25052901182651],[112.45627761551803,35.25030867570258],[112.45675331370136,35.250088338663524],[112.45682329539622,35.25006273157585],[112.45735979118338,35.24986642372657],[112.45757648139977,35.24979227696333],[112.45761431270374,35.24946990441931],[112.45738994212789,35.24911492252431],[112.45764574277494,35.2487899243029],[112.45781435315749,35.24846597698657],[112.45776371689333,35.24807313362583],[112.45749575765306,35.24771867695521],[112.4570540697423,35.24740207965124],[112.45648352561258,35.247194338074706],[112.45586939258521,35.24698711823884],[112.45555849177957,35.24666894250096],[112.45580981609012,35.24609362236188],[112.45615087893636,35.245660295944234],[112.45644706604944,35.245155972113885],[112.45666246539871,35.24501030508691],[112.45691889539029,35.244721069506184],[112.45704263085884,35.244326125902326],[112.45751765244971,35.24407002548515],[112.4578138266437,35.2435656985119],[112.45832346594018,35.24280841879712],[112.45866578301167,35.242446606914676],[112.45896514756099,35.242121081635],[112.45931578899274,35.242224158838816],[112.4594536078159,35.242615950371416],[112.45976322545768,35.24286259516022],[112.46011258874059,35.242894147895555],[112.46054656696413,35.24278160511078],[112.46097990241196,35.242633299787926],[112.46137221378203,35.24262856248931],[112.46146516907865,35.24294935588663],[112.46146966129216,35.24319968107115],[112.46134274048069,35.24341582552621],[112.46138953988448,35.24359410226068],[112.4614382647687,35.243879661949336],[112.4615760968075,35.24427145064411],[112.46196969994438,35.24433823228704],[112.46236201825414,35.244333491595015],[112.46297229173055,35.24432611464973],[112.46423450027588,35.24420354120534],[112.4651434743585,35.24383485387282],[112.465833201114,35.24339727849704],[112.4661293196698,35.24289293243733],[112.46638506611063,35.24256791673667],[112.46699210447065,35.24238171616095],[112.46751195989734,35.242196570825364],[112.46803181397622,35.24201142239373],[112.46872344310705,35.24168111296213],[112.46928300981017,35.24128086669374],[112.46988486731561,35.240808567644855],[112.47044183979257,35.24026527365368],[112.4710507888037,35.24018633498445],[112.47148085977406,35.23985918939986],[112.4714756912937,35.23957310434174],[112.47177047011434,35.23899722453004],[112.47176013042376,35.238425054405816],[112.47157751315834,35.238071273422044],[112.47127713687709,35.237832032321414],[112.47091091499911,35.23764843716595],[112.47068848141919,35.23749443526932],[112.47040833637855,35.23731762785754],[112.47042375614014,35.237113723281034],[112.47063883386916,35.236860379766036],[112.47090193263197,35.23662212399823],[112.47114748989877,35.23647026817399],[112.47138647069693,35.23648303267744],[112.4716649154437,35.23656583493603],[112.47213828464064,35.23686565349999],[112.47262058683647,35.23711904362047],[112.47308612391218,35.23701395008175],[112.47412508898877,35.23660784424593],[112.47520115408737,35.23584359379455],[112.47593045628716,35.235190868861295],[112.47607714642169,35.234992049858874],[112.47608257805325,35.23476476105679],[112.47596133523325,35.23439798103188],[112.47583409359497,35.234227156603836],[112.47557517319335,35.23416763125059],[112.47533421273694,35.23404520460008],[112.47534120697603,35.23390408485903],[112.47553102401127,35.233839087931365],[112.47563406070088,35.23372813711076],[112.47567498741559,35.23335154462467],[112.47583445581022,35.23319289371012],[112.4761017854716,35.23318963329357],[112.4764392129841,35.23336572881019],[112.47666505324685,35.233707725803036],[112.47686282125527,35.23408140671056],[112.47712401479176,35.23426626509114],[112.4776533967618,35.234494861180295],[112.47932432755617,35.23518018209069],[112.4804456684196,35.235471692812226],[112.4813793160996,35.235670108237564],[112.48226543469752,35.235811869409545],[112.48273208725713,35.23590153515575],[112.48336389498549,35.23612270974504],[112.48402207833132,35.23651524585892],[112.48433053252883,35.23685483941262],[112.48491745099695,35.237288828602374],[112.48520061237079,35.23777631731649],[112.48540899145975,35.23826472236696],[112.48547638086352,35.23922536398163],[112.48558877920564,35.23991951508945],[112.48614803305301,35.24086029765958],[112.48685459051886,35.241352375085505],[112.48755789175149,35.24166564699641],[112.48856370820286,35.24183211922832],[112.48952266881132,35.24182031861022],[112.4900886723076,35.24177758141005],[112.4905609527177,35.24137831280634],[112.49111647698692,35.240763405932924],[112.49145470764437,35.24018694446563],[112.49200956214398,35.23953627321382],[112.4923094352785,35.23924642844724],[112.49221570785224,35.23888990093963],[112.49159893447008,35.238539821664624],[112.49093596064381,35.23804723482523],[112.49014419720129,35.237663536081136],[112.48961330677342,35.23724085153042],[112.48964904495331,35.236811190746295],[112.49003674428215,35.23655603898591],[112.49034119385743,35.236516522171726],[112.49062966489632,35.23663585215058],[112.49106617920036,35.23671240570482],[112.49162232220478,35.23669969917574],[112.49204565681997,35.23651542544752],[112.49259831224825,35.2359072705193],[112.49341024473226,35.23508371823768],[112.49440155742221,35.234463418694595],[112.49543775167118,35.23391409287828],[112.49665549616437,35.233755964274906],[112.49813408581105,35.233558826900136],[112.49896219048406,35.23354857251045],[112.49953339697404,35.23379187433461],[112.50019506839283,35.23421289311769],[112.50129918689446,35.23498610401371],[112.50218737724025,35.23586928986735],[112.50234187800572,35.237155031141974],[112.50223881863255,35.238658579096345],[112.5018669755807,35.2397720116367],[112.50178284647009,35.24075645192991],[112.50165265454115,35.24195375420604],[112.50142756957503,35.2427239269332],[112.50148258031282,35.24334785709975],[112.50151255221878,35.24379363647297],[112.50197815695634,35.244269701018354],[112.50246683315636,35.24481686101204],[112.5032280482477,35.24501304755628],[112.50550202739544,35.24537822550364],[112.50668492983117,35.24568541634574],[112.5078658553196,35.2458853137826],[112.5090031949146,35.246085744088994],[112.50966169962471,35.246327907358925],[112.51002501907745,35.24711027455589],[112.51029651709406,35.247643409259034],[112.51059548115215,35.248409260377436],[112.51129871052696,35.24777095914511],[112.51165284256133,35.24617842606869],[112.51191110786357,35.24505923192952],[112.5121939762264,35.24432602513625],[112.51127568548935,35.24401859362974],[112.51026714967644,35.2437092713187],[112.50973744448028,35.24335819949237],[112.50932856930358,35.24246909440715],[112.50957485785023,35.2416433530721],[112.5095246408975,35.24128629728083],[112.50899097850004,35.240720661066526],[112.5083641880762,35.23983426935214],[112.50761128235796,35.239199824132506],[112.50719782078458,35.23806038997136],[112.50661333371978,35.237101924345694],[112.50642311678438,35.23624585379242],[112.50570591394865,35.23518173139954],[112.5048599580892,35.23422650936791],[112.50397241823964,35.23337910354582],[112.50308753708599,35.23267473126533],[112.50198145549055,35.231794255734535],[112.50118509229752,35.23116030750053],[112.50060863086601,35.23063093133798],[112.50003612823917,35.230316113983314],[112.49952149208214,35.23008169162845],[112.49917692943882,35.22976630951618],[112.49899966499349,35.22933767220396],[112.49864974083543,35.22873050101004],[112.49817125105065,35.22850016193891],[112.49761371424793,35.22857655118151],[112.49692402290421,35.22883524613832],[112.49647063718433,35.22904932026454],[112.49598771852529,35.2295000229299],[112.49579522354166,35.23008611199075],[112.495685612086,35.23057389146196],[112.49552366635388,35.2309789307128],[112.49510362331586,35.2311647924856],[112.4948157396382,35.231168348694],[112.49449007619982,35.23096159645432],[112.49433189388931,35.23064620582302],[112.49435658757238,35.23014557794777],[112.49429763083364,35.229701574459874],[112.49403801470044,35.22939902754835],[112.4935461647257,35.229363405018404],[112.4930414556355,35.229550304462094],[112.49262599561905,35.22998626357909],[112.49234880465984,35.230573391999904],[112.49193002819229,35.23082871688027],[112.4913313304603,35.231433704190906],[112.49097504648199,35.232327557249576],[112.49123196994316,35.23340842452884],[112.49174190808114,35.234430579961696],[112.49183905194597,35.235110377044265],[112.49173922221424,35.235208892615574],[112.49158680472247,35.235210772259606],[112.49139924532898,35.23514359427709],[112.4911894645012,35.23506579826956],[112.49106887180797,35.23482882814092],[112.4906858975791,35.23454739989183],[112.49016156661524,35.23448232024339],[112.48958217539625,35.23458483579658],[112.48917930185355,35.234804405065184],[112.48871962021812,35.235096208264196],[112.488518834145,35.23524175184017],[112.48805522822877,35.23531898984119],[112.48753045865028,35.23523005995641],[112.48729800186318,35.23523291712264],[112.48706641543644,35.23528345438484],[112.48657244484602,35.23528952343717],[112.48616564497318,35.23529451997282],[112.48584600602027,35.23488398527208],[112.48523954149759,35.23444138091333],[112.48463643692583,35.23418284243317],[112.48386182581258,35.23409005953622],[112.48301429594082,35.234100448666595],[112.48184419856175,35.23419660992873],[112.48056881203972,35.233987195090926],[112.4795460480776,35.23395879064256],[112.47889708147689,35.233547453825025],[112.4784504155982,35.2329567704946],[112.47777606454936,35.232631168614006],[112.47692435637255,35.23214080736973],[112.47677259425582,35.23178497480183],[112.47653539352852,35.23152556712985],[112.47571621398625,35.23122556558738],[112.47515983731726,35.23099389191501],[112.47439964205932,35.23074085368009],[112.47364419561117,35.230750054855136],[112.47347503530855,35.231038262756115],[112.47333794809558,35.23149299929137],[112.47328802723017,35.23194667453534],[112.4733590735645,35.232661179988625],[112.47348392268317,35.233136572573045],[112.47346435278448,35.23366141570031],[112.47318413222307,35.23423712250849],[112.4726692969302,35.23469645695573],[112.47180232270574,35.23496930620909],[112.47032427754885,35.23520188483642],[112.46887141241905,35.23521952915461],[112.4681172115199,35.23530021781105],[112.46827023244447,35.23572758366566],[112.46830831459609,35.236227880526],[112.468142132223,35.236682964289734],[112.46832335522306,35.23706229643779],[112.46870669676228,35.237367637876254],[112.46886015603152,35.23781884266671],[112.46878716825186,35.23860663537966],[112.46842101218688,35.239254911827224],[112.46767235817101,35.239645525018574],[112.46626005837265,35.24030647884315],[112.46574205671537,35.24059413399954],[112.46534925180049,35.240732426583065],[112.46484329625132,35.241043777296134],[112.46433767971722,35.24137419854518],[112.46385153617895,35.24149453908352],[112.46326794461106,35.24136806228248],[112.46302895824316,35.24100849776576],[112.46253904627385,35.24091903727577],[112.46207546559523,35.24100094631765],[112.46161222508454,35.24110192531434],[112.46119445259683,35.2411451242211],[112.4609349650499,35.24093841506038],[112.46088094439122,35.24051938358556],[112.46082692325098,35.240100351157174],[112.46038146215825,35.239895886565876],[112.45968541046018,35.23998059084073],[112.45929054828305,35.24000443001722],[112.45896303596366,35.23989392051511],[112.45877330041931,35.23968636556444],[112.45846493818998,35.23934670468387],[112.45815623821333,35.23898797028983],[112.4576191670974,35.23886090527947],[112.45715866215082,35.239114446418604],[112.45686770783524,35.23974747607545],[112.45687691996204,35.24026243196705],[112.45695587354076,35.24077654903657],[112.45689466038787,35.24125419926582],[112.45661875838437,35.24142920964747],[112.4562457707611,35.2413764695733],[112.45582322047007,35.24115263570884],[112.45497505923191,35.2405333103763],[112.45403596562873,35.24002953118744],[112.45339671404697,35.239388608103724],[112.45293375426114,35.239179556532285],[112.45256429521635,35.238997995537034],[112.45205408121839,35.23874658479496],[112.45142156734828,35.238482332341064],[112.45099751612646,35.23817265415686],[112.45038066320086,35.23780805597229],[112.45007942782982,35.23753982446103],[112.44990202199811,35.23737026098092],[112.44969102006046,35.23727263738836],[112.44949923525886,35.2372749347438],[112.44930974101825,35.237405971486105],[112.44927843425563,35.23760665033656],[112.44952761571813,35.23788981385544],[112.4498131978312,35.23825838665844],[112.4502033935525,35.23862570418429],[112.45062846329235,35.238992602336324],[112.4507755898245,35.23942006177825],[112.45069783979407,35.239950368539915],[112.4507044640601,35.24032228199925],[112.45066132941571,35.24083786633989],[112.4506348657549,35.2413103287406],[112.4506250733835,35.24173966921409],[112.4506327169117,35.24216880063716],[112.45091984865523,35.24262319491937],[112.45120112002346,35.242748588972745],[112.45170702342408,35.24275682800639],[112.45203958552548,35.242824374474246],[112.45233880549144,35.24297816514435],[112.45248492839089,35.2433484047408],[112.45250950814763,35.243748716944275],[112.45229406004438,35.24438082938592],[112.45174680374373,35.24498830815626],[112.45116186092248,35.245438854874905],[112.45089001010533,35.245842722087],[112.45098254619555,35.246142068315265],[112.45124511965362,35.24619614959497],[112.45142458781542,35.246480144534885],[112.45144635916996,35.246723109841966],[112.45176328461007,35.24689099662685],[112.45208225312942,35.247173316686045],[112.45241942636918,35.247498340230756],[112.45284378789086,35.24782231592801],[112.45326917510116,35.24820350706182],[112.45371047016195,35.2484986615613],[112.45405020992283,35.24896672363546],[112.45397017435052,35.24936829314313],[112.4538029515189,35.249770909306456],[112.45349290426599,35.24998924498652],[112.45319901750538,35.25013584918299],[112.45303153301278,35.25052416102005],[112.45315998071088,35.25088030320862],[112.45355229677199,35.251362042273],[112.45394129657468,35.25165782381109],[112.45459314796369,35.25202198082611],[112.45515832610134,35.25241579131358],[112.45584481049605,35.252765217548884],[112.4560968769665,35.253205713507874],[112.45580989038913,35.25373854014346],[112.45544777450681,35.25397181554231],[112.45496154199172,35.25409212315276],[112.45435042647955,35.25405654784615],[112.45372085011603,35.253963962914206],[112.45307460373547,35.25391449683385],[112.45255144892761,35.253920778809395],[112.4520616388345,35.25384081444195],[112.45157412627749,35.253889586362796],[112.45121225214343,35.25413715364282],[112.45118298512335,35.25445226745226],[112.45153941011739,35.25487721304717],[112.45176840942648,35.25500323214098],[112.45187865529539,35.25531667189732],[112.45188656440261,35.255760106367404],[112.45171702208108,35.25603398066304],[112.45131771082082,35.256138923474126],[112.45098815421996,35.25624302842109],[112.45094272174285,35.25662987252257],[112.45089448422051,35.25685936980502],[112.45042413697003,35.25689362412596],[112.44910130553924,35.2570525497801],[112.44828166229878,35.2570623652954],[112.4469219105539,35.25710724969311],[112.44593092249866,35.25729078623509],[112.44484138710254,35.25781887008624],[112.44385926739587,35.25850304289467],[112.44369197580875,35.25890564705716],[112.44367155895253,35.259721412512384],[112.44385610791879,35.26029150650375],[112.44401941261454,35.26064724214642],[112.44411118203355,35.260903679347905],[112.44385744815885,35.26135023741355],[112.44388097901033,35.26169333395764],[112.44409838432358,35.262148575767874],[112.44408703589156,35.26249208856559],[112.44357041999145,35.26287024715895],[112.44297896558274,35.26296314728083],[112.44227956909545,35.26287133635964],[112.44150610501687,35.262537177743944],[112.44099121320065,35.26202824567411],[112.44082411990743,35.26145793937634],[112.44069038981786,35.26080139151795],[112.44014493755358,35.26053604579023],[112.43982798085533,35.26036812963106],[112.43933713049684,35.26023089627771],[112.43865570762658,35.260167464842866],[112.43801042798812,35.26017513660456],[112.4372612677461,35.26022696198925],[112.43674135033588,35.260419133830624],[112.43667790327777,35.260777572438464],[112.43672288409904,35.26134933514984],[112.43694277558184,35.26194763411567],[112.43721069600352,35.26230213743143],[112.43753270984337,35.26275614772292],[112.43792524770757,35.263252241720686],[112.43842218250136,35.2637327857594],[112.43906016680931,35.264297493776176],[112.43992337473387,35.26477367376802],[112.44039681170568,35.2649111116429],[112.44078279246239,35.26503528196369],[112.44097692313161,35.26516173553571],[112.44098148268333,35.26541921467288],[112.44010995582049,35.26568890004029],[112.4392932877331,35.26594470788688],[112.43855418574648,35.26612187505686],[112.43789493975082,35.26634989683729],[112.43690572226356,35.266672498761835],[112.43599429880273,35.2669294091105],[112.43568080144163,35.26706264946789],[112.435227941908,35.267352967375594],[112.43482039122226,35.26752617781321],[112.43455608333323,35.267762448395295],[112.43429634043258,35.26825770385846],[112.43401246452633,35.26889288339898],[112.43368762219133,35.269268725972786],[112.43357107416347,35.269584870083264],[112.43312186421717,35.26983341910161],[112.43268933893226,35.270038846002095],[112.43222066820691,35.270173162734615],[112.4317368193637,35.27043642411247],[112.43153179163782,35.27068207691878],[112.43129112214358,35.27088522824867],[112.43122487630288,35.2710863154788],[112.4312470999679,35.27135789343107],[112.43130395800833,35.27161475423692],[112.4311686958143,35.27185958000336],[112.43084282344574,35.272178197965886],[112.43074722404542,35.27269439495876],[112.4306829880949,35.273009917543554],[112.43046050817455,35.27325577496763],[112.43023878140731,35.27354454503755],[112.4300188133078,35.27393344513866],[112.42972605323061,35.27415151744864],[112.42952352522421,35.27454021051818],[112.42951437776367,35.275012462780616],[112.42947084660915,35.275513735989975],[112.42935226195377,35.27571544067713],[112.42888480929233,35.27592126789832],[112.42813750466264,35.27608747503021],[112.4273530508895,35.27612534919685],[112.42663987510176,35.276248222421174],[112.42597877765698,35.27635617018856],[112.42554569792384,35.27653296384244],[112.42542935813749,35.2768634051132],[112.42543713047839,35.27730684314486],[112.42544264565436,35.277621540975105],[112.42536595457247,35.2782233557302],[112.42507492211654,35.278541547826826],[112.42453566077899,35.27863374504664],[112.42408136484448,35.27859617185492],[112.42371328732843,35.27850035374093],[112.4235702297554,35.278301734160955],[112.42330506608847,35.27810455132502],[112.42314731962585,35.27806348461202],[112.42272991675058,35.27813993259229],[112.42247025940524,35.27825744605227],[112.42234865152469,35.278287490805376],[112.42206854797158,35.27823355505332],[112.4218033869441,35.27803636794318],[112.42138298299912,35.27794115774467],[112.42114026819137,35.27802985461237],[112.42105829746076,35.2783312724587],[112.42104560216372,35.278603262612464],[112.42096262983627,35.27884746374506],[112.42074360284622,35.279293565587245],[112.42049043467078,35.27978299177545],[112.42009945629843,35.2803741859284],[112.41986322601525,35.28083479638525],[112.41966188221417,35.2812949968976],[112.41958165100915,35.281696546332526],[112.41916597319685,35.28187311323381],[112.41850456941687,35.28196671695803],[112.41791344166666,35.28208810697914],[112.4173793833662,35.28248066723002],[112.41679398206033,35.28293105591099],[112.41621256130905,35.28361031329305],[112.41593792144405,35.283871062525044],[112.41556608031917,35.2845621703824],[112.41522489039698,35.285009693033906],[112.41441366210304,35.28551994198244],[112.41352717034576,35.28571630318191],[112.41267278640446,35.28584701264054],[112.41279733921368,35.28623211961377],[112.41212838320408,35.286898072874116],[112.41255951135254,35.28760840889737],[112.41405909376508,35.28854947962043],[112.41584384022835,35.28882905392571],[112.41762440796279,35.28843476962591],[112.41827463651894,35.28769746864951],[112.41940338372746,35.2873837711222],[112.41984049168238,35.28786652442159],[112.4206077029773,35.2883997621821],[112.42137844750327,35.288855803002264],[112.4225240758552,35.28965202523594],[112.42255909509558,35.289028135929385],[112.42251608508961,35.288781208915],[112.42242058628833,35.2886300655401],[112.42233398862997,35.28854543399431],[112.4222855176785,35.28842863189987],[112.42236043900745,35.28828817369532],[112.42304904212584,35.28784230661927]]]]},"properties":{"code":"SXNR-N08","name_short":"阳城蟒河猕猴","name_full":"山西阳城蟒河猕猴国家级自然保护区","zone":"buffer","area_km2":5.885,"feature_count":1}},{"type":"Feature","geometry":{"type":"MultiPolygon","coordinates":[[[[112.43688020725189,35.28875964009965],[112.43755873036102,35.28862173142517],[112.43852637691292,35.28871410106913],[112.43960212182266,35.28894549555425],[112.44070540627327,35.28948317381017],[112.44100048527486,35.28947620101909],[112.44240652214395,35.289058833477554],[112.44295388172596,35.288437087334714],[112.44349894628851,35.28768660172072],[112.44439418604922,35.287003467410614],[112.44516119683456,35.286607988732236],[112.44621201755068,35.28526842155995],[112.44769889904515,35.283843743822146],[112.44977019152702,35.28257896284784],[112.45187873289555,35.28102423628054],[112.45378866013337,35.279970603304456],[112.45509563806971,35.27953431565661],[112.45573098302025,35.27928821477433],[112.45711052267872,35.27932156359569],[112.4583072266063,35.27956944150806],[112.45961252936637,35.2793867769856],[112.45981347386966,35.279241278522534],[112.45982035233797,35.2791030492714],[112.45993681369912,35.27882249236966],[112.4598722487658,35.27846558877864],[112.45966915477607,35.277681136907404],[112.45911612878518,35.27684129273149],[112.45815973874225,35.276208997180845],[112.45787543581959,35.27575935877257],[112.45771533559747,35.27493861617705],[112.45737965446682,35.27402912446846],[112.45678395912046,35.27304239035761],[112.45675245004728,35.272324096369076],[112.45710253250247,35.27209051652044],[112.45847313133318,35.271793789758625],[112.45902076747745,35.271524883606894],[112.46023123984548,35.27092606051601],[112.46141304033377,35.269844832758125],[112.4621309459571,35.2690206381648],[112.46255387280591,35.26828585065821],[112.46306425793229,35.26756431209834],[112.4639170836155,35.26745384183516],[112.4646520306299,35.26776076684521],[112.46556502586273,35.26799325591254],[112.46615423810215,35.2680287150507],[112.46679547694599,35.26811632364068],[112.46755492751227,35.26830979956683],[112.4684412081481,35.268743895365716],[112.47032748238716,35.26886405594031],[112.47242911035912,35.2683520437226],[112.47382373012312,35.26733354619],[112.47526233864282,35.26585666384574],[112.47619901047585,35.264600500270795],[112.47729105913255,35.26325658789257],[112.47727132362554,35.262169473107456],[112.47739526525265,35.26130951951867],[112.47747155769952,35.260707680791484],[112.47753221421485,35.26054584986559],[112.4777341624348,35.26045992356582],[112.47814178753322,35.26052732175685],[112.47865068231485,35.260769377465515],[112.47908121569404,35.260974157415156],[112.48079786561544,35.2613680689295],[112.48238776125044,35.261505978004294],[112.48431341485683,35.26092438008869],[112.48558176441462,35.25969269076718],[112.48649038179757,35.25882309062749],[112.48689997056296,35.257373018825945],[112.48769659729953,35.25610418179533],[112.48832299751577,35.2550663513226],[112.48889968493974,35.254172201782566],[112.48992147481223,35.25377332499234],[112.49097917834858,35.253431226024524],[112.49213206301565,35.25257288194599],[112.49286078252294,35.25236359047263],[112.49459054489968,35.25252822887793],[112.49675468299937,35.25260162621618],[112.49834205671132,35.25261059189567],[112.50039682593932,35.25242774761334],[112.50152579938926,35.252170517409326],[112.50222754960934,35.251446442187245],[112.50313800840335,35.25069115402589],[112.5042690626703,35.25054833217825],[112.50481727712595,35.250012144726625],[112.5053792177645,35.24927548221807],[112.50625607342019,35.248592126923484],[112.50752340858148,35.24827589009921],[112.50919734744124,35.248255021321555],[112.51059548115215,35.248409260377436],[112.51029651709406,35.247643409259034],[112.51002501907745,35.24711027455589],[112.50966169962471,35.246327907358925],[112.5090031949146,35.246085744088994],[112.5078658553196,35.2458853137826],[112.50668492983117,35.24568541634574],[112.50550202739544,35.24537822550364],[112.5032280482477,35.24501304755628],[112.50246683315636,35.24481686101204],[112.50197815695634,35.244269701018354],[112.50151255221878,35.24379363647297],[112.50148258031282,35.24334785709975],[112.50142756957503,35.2427239269332],[112.50165265454115,35.24195375420604],[112.50178284647009,35.24075645192991],[112.5018669755807,35.2397720116367],[112.50223881863255,35.238658579096345],[112.50234187800572,35.237155031141974],[112.50218737724025,35.23586928986735],[112.50129918689446,35.23498610401371],[112.50019506839283,35.23421289311769],[112.49953339697404,35.23379187433461],[112.49896219048406,35.23354857251045],[112.49813408581105,35.233558826900136],[112.49665549616437,35.233755964274906],[112.49543775167118,35.23391409287828],[112.49440155742221,35.234463418694595],[112.49341024473226,35.23508371823768],[112.49259831224825,35.2359072705193],[112.49204565681997,35.23651542544752],[112.49162232220478,35.23669969917574],[112.49106617920036,35.23671240570482],[112.49062966489632,35.23663585215058],[112.49034119385743,35.236516522171726],[112.49003674428215,35.23655603898591],[112.48964904495331,35.236811190746295],[112.48961330677342,35.23724085153042],[112.49014419720129,35.237663536081136],[112.49093596064381,35.23804723482523],[112.49159893447008,35.238539821664624],[112.49221570785224,35.23888990093963],[112.4923094352785,35.23924642844724],[112.49200956214398,35.23953627321382],[112.49145470764437,35.24018694446563],[112.49111647698692,35.240763405932924],[112.4905609527177,35.24137831280634],[112.4900886723076,35.24177758141005],[112.48952266881132,35.24182031861022],[112.48856370820286,35.24183211922832],[112.48755789175149,35.24166564699641],[112.48685459051886,35.241352375085505],[112.48614803305301,35.24086029765958],[112.48558877920564,35.23991951508945],[112.48547638086352,35.23922536398163],[112.48540899145975,35.23826472236696],[112.48520061237079,35.23777631731649],[112.48491745099695,35.237288828602374],[112.48433053252883,35.23685483941262],[112.48402207833132,35.23651524585892],[112.48336389498549,35.23612270974504],[112.48273208725713,35.23590153515575],[112.48226543469752,35.235811869409545],[112.4813793160996,35.235670108237564],[112.4804456684196,35.235471692812226],[112.47932432755617,35.23518018209069],[112.4776533967618,35.234494861180295],[112.47712401479176,35.23426626509114],[112.47686282125527,35.23408140671056],[112.47666505324685,35.233707725803036],[112.4764392129841,35.23336572881019],[112.4761017854716,35.23318963329357],[112.47583445581022,35.23319289371012],[112.47567498741559,35.23335154462467],[112.47563406070088,35.23372813711076],[112.47553102401127,35.233839087931365],[112.47534120697603,35.23390408485903],[112.47533421273694,35.23404520460008],[112.47557517319335,35.23416763125059],[112.47583409359497,35.234227156603836],[112.47596133523325,35.23439798103188],[112.47608257805325,35.23476476105679],[112.47607714642169,35.234992049858874],[112.47593045628716,35.235190868861295],[112.47520115408737,35.23584359379455],[112.47412508898877,35.23660784424593],[112.47308612391218,35.23701395008175],[112.47262058683647,35.23711904362047],[112.47213828464064,35.23686565349999],[112.4716649154437,35.23656583493603],[112.47138647069693,35.23648303267744],[112.47114748989877,35.23647026817399],[112.47090193263197,35.23662212399823],[112.47063883386916,35.236860379766036],[112.47042375614014,35.237113723281034],[112.47040833637855,35.23731762785754],[112.47068848141919,35.23749443526932],[112.47091091499911,35.23764843716595],[112.47127713687709,35.237832032321414],[112.47157751315834,35.238071273422044],[112.47176013042376,35.238425054405816],[112.47177047011434,35.23899722453004],[112.4714756912937,35.23957310434174],[112.47148085977406,35.23985918939986],[112.4710507888037,35.24018633498445],[112.47044183979257,35.24026527365368],[112.46988486731561,35.240808567644855],[112.46928300981017,35.24128086669374],[112.46872344310705,35.24168111296213],[112.46803181397622,35.24201142239373],[112.46751195989734,35.242196570825364],[112.46699210447065,35.24238171616095],[112.46638506611063,35.24256791673667],[112.4661293196698,35.24289293243733],[112.465833201114,35.24339727849704],[112.4651434743585,35.24383485387282],[112.46423450027588,35.24420354120534],[112.46297229173055,35.24432611464973],[112.46236201825414,35.244333491595015],[112.46196969994438,35.24433823228704],[112.4615760968075,35.24427145064411],[112.4614382647687,35.243879661949336],[112.46138953988448,35.24359410226068],[112.46134274048069,35.24341582552621],[112.46146966129216,35.24319968107115],[112.46146516907865,35.24294935588663],[112.46137221378203,35.24262856248931],[112.46097990241196,35.242633299787926],[112.46054656696413,35.24278160511078],[112.46011258874059,35.242894147895555],[112.45976322545768,35.24286259516022],[112.4594536078159,35.242615950371416],[112.45931578899274,35.242224158838816],[112.45896514756099,35.242121081635],[112.45866578301167,35.242446606914676],[112.45832346594018,35.24280841879712],[112.4578138266437,35.2435656985119],[112.45751765244971,35.24407002548515],[112.45704263085884,35.244326125902326],[112.45691889539029,35.244721069506184],[112.45666246539871,35.24501030508691],[112.45644706604944,35.245155972113885],[112.45615087893636,35.245660295944234],[112.45580981609012,35.24609362236188],[112.45555849177957,35.24666894250096],[112.45586939258521,35.24698711823884],[112.45648352561258,35.247194338074706],[112.4570540697423,35.24740207965124],[112.45749575765306,35.24771867695521],[112.45776371689333,35.24807313362583],[112.45781435315749,35.24846597698657],[112.45764574277494,35.2487899243029],[112.45738994212789,35.24911492252431],[112.45761431270374,35.24946990441931],[112.45757648139977,35.24979227696333],[112.45735979118338,35.24986642372657],[112.45682329539622,35.25006273157585],[112.45675331370136,35.250088338663524],[112.45627761551803,35.25030867570258],[112.45580191472973,35.25052901182651],[112.45576407587006,35.250851383033535],[112.45607307532286,35.251062275415705],[112.45803238023062,35.252096386627514],[112.45836831164243,35.25267417165535],[112.45851008145368,35.25363318801454],[112.45839769800432,35.25464374598346],[112.45796306975586,35.25601744527727],[112.45743288597258,35.25628136551969],[112.4571384630083,35.256723671473075],[112.45609518854837,35.25690792163229],[112.45529813514078,35.25655505814293],[112.45375974974596,35.25636371221227],[112.45297769190226,35.25685002019207],[112.45287436713248,35.257576168773646],[112.45264309077018,35.258092282138996],[112.45224123062862,35.258555835345895],[112.4514089995452,35.25887188433262],[112.45036738229089,35.25915144736484],[112.44972124937355,35.25965133521463],[112.44889038647374,35.259677249812285],[112.44839966383327,35.25957760143466],[112.447525440662,35.258899337182676],[112.44687130975696,35.25873547332257],[112.44619596278169,35.25868631894356],[112.44571409029376,35.25905453237404],[112.44546914816344,35.259667908010876],[112.44536643091052,35.26043219689441],[112.44567990456916,35.26105797675463],[112.44632089157567,35.261730955773935],[112.44680812723585,35.26215435169627],[112.44710960413661,35.26247065271658],[112.44726796329691,35.26298865113143],[112.44719911437625,35.263310584781046],[112.44707815238252,35.26384721598569],[112.44707093105289,35.2644895222883],[112.44704153506231,35.264933311962515],[112.44714479394656,35.26549784286177],[112.44765677973024,35.265981027560215],[112.4482052348896,35.26641789991786],[112.44853883594809,35.26683873008113],[112.44830740227587,35.267120866051314],[112.44677806436611,35.26788110635175],[112.44489612902191,35.268559577843234],[112.44311398668893,35.26939506725281],[112.4419578717346,35.27026377912858],[112.44098701347023,35.270943005006984],[112.44012516602834,35.27105097478549],[112.4392420362945,35.270870722158],[112.43804461482318,35.27064919599042],[112.43759700361697,35.27046161606855],[112.43642573226693,35.27014233082213],[112.43604652904769,35.270032843303206],[112.43565063557168,35.270102679342074],[112.4354857704397,35.27032447465686],[112.43535326697307,35.270692444017065],[112.43522607702737,35.27136160946267],[112.43528502776839,35.27245195804769],[112.43525148207277,35.27336427736269],[112.43523388341728,35.273790426660625],[112.43540654034513,35.274274358551665],[112.4356236766341,35.274650282155285],[112.4358630162652,35.27488320849413],[112.43613568508255,35.275030005660206],[112.43641415043162,35.27510917946516],[112.43656476688605,35.275342519860914],[112.43657930332404,35.275465472915315],[112.43642501156079,35.27562670530518],[112.43568315429272,35.275883220799706],[112.43514853595352,35.27609987310501],[112.43445584429935,35.27639423778995],[112.43267796595934,35.276987605021546],[112.43189866903938,35.277318749712784],[112.43151310977363,35.277716766653455],[112.43134874113171,35.278291006808125],[112.43062121387277,35.27908652043511],[112.42980456559981,35.279775778082566],[112.42756882816846,35.28162637984862],[112.42657134207752,35.282405092936315],[112.42584756154156,35.28297011755118],[112.42552251117868,35.28345251796758],[112.42539153738424,35.28353627973163],[112.4252659251868,35.283625391066124],[112.4251459969738,35.28371962107443],[112.42503206394346,35.28381872727598],[112.42492442166179,35.28392245295465],[112.42482334571426,35.28403052991357],[112.42472909941381,35.28414267928527],[112.42464192500957,35.284258611635046],[112.42456204916522,35.2843780259951],[112.4244896775591,35.28450061533521],[112.42442499698684,35.284626061130496],[112.42436817548739,35.28475404056963],[112.42431936008164,35.2848842229764],[112.4242786756889,35.285016270723524],[112.42424622740305,35.285149843712],[112.42422210042909,35.28528459576668],[112.42420635686472,35.28542017918054],[112.42419903786603,35.285556242886315],[112.4242001604292,35.285692437000876],[112.42420972388874,35.28582840734109],[112.42422770236651,35.285963803623915],[112.42415891480115,35.28633448559144],[112.4241436793037,35.286615688346046],[112.42381513645277,35.28709968717733],[112.42374020164783,35.28717985388143],[112.42304904212584,35.28784230661927],[112.42236043900745,35.28828817369532],[112.4222855176785,35.28842863189987],[112.42233398862997,35.28854543399431],[112.42242058628833,35.2886300655401],[112.42251608508961,35.288781208915],[112.42255909509558,35.289028135929385],[112.4225240758552,35.28965202523594],[112.4226437122386,35.290177468965055],[112.4226153920548,35.290570067171],[112.42253842505461,35.290824376157886],[112.42216328627883,35.29132652174636],[112.42185573008669,35.29203358392225],[112.42173227128612,35.29283614111369],[112.42247053290198,35.29357287520506],[112.42347880208557,35.294347915429725],[112.42433522961774,35.29442367588361],[112.42501908252002,35.29361440610331],[112.42580133249385,35.292446289418436],[112.42727051180671,35.291642053694794],[112.42927800172107,35.29092061957968],[112.43101527919127,35.2904803917306],[112.4333121652442,35.29010981376494],[112.4342864729825,35.29000627324664],[112.43543732511506,35.289555840992],[112.43609520806919,35.2891455127292],[112.43688020725189,35.28875964009965]]]]},"properties":{"code":"SXNR-N08","name_short":"阳城蟒河猕猴","name_full":"山西阳城蟒河猕猴国家级自然保护区","zone":"experimental","area_km2":16.836,"feature_count":1}}]}