{"type":"FeatureCollection","features":[{"type":"Feature","geometry":{"type":"MultiPolygon","coordinates":[[[[113.58313428871894,39.074577592193656],[113.58113204335478,39.075606190429895],[113.58047693050199,39.07651476814239],[113.58127140129604,39.07733164724914],[113.58246748683686,39.078676069279986],[113.58335579726025,39.079967695520196],[113.58409783281172,39.08144137237118],[113.58499490412551,39.082971213572726],[113.58609951199445,39.08390039396803],[113.58727839152316,39.08476831178728],[113.5885315398238,39.08557496486184],[113.59002704291929,39.08673385134549],[113.58912743619243,39.08723067309824],[113.58777147231486,39.087797222751014],[113.5860989290662,39.08807275359178],[113.5845209759442,39.087452734702595],[113.584007264081,39.08846548390565],[113.58396250205757,39.089753941441074],[113.58295191174399,39.09179669984865],[113.5826441589941,39.093424767723434],[113.58374469702187,39.09340038602862],[113.58548370905035,39.093216080678],[113.58758807106271,39.09140779944324],[113.58839525255654,39.0900547313799],[113.58841955408012,39.088653714029086],[113.58997854113808,39.08861909201076],[113.5922816358044,39.08885401121947],[113.59374892197191,39.088821377792506],[113.59485724256413,39.089011294772575],[113.59613587960104,39.0888397774842],[113.59686952291939,39.088823439228655],[113.59733329127012,39.08895616160117],[113.59753243160283,39.089380881873204],[113.59746956303898,39.09016907165633],[113.59702413461322,39.09053662383094],[113.59537077967836,39.09050191313634],[113.5945375566915,39.090305879736945],[113.5936248698069,39.091340314899234],[113.59409674462918,39.092026115934075],[113.59526361720087,39.09381214385382],[113.59694415674004,39.096254298734145],[113.59904260340119,39.09832870731348],[113.59991259422624,39.0980232091788],[113.60062322989634,39.0973779315559],[113.60132755290034,39.096561126957155],[113.60164609328702,39.0952379382567],[113.60170459919664,39.09283334976424],[113.60199996885004,39.091069422543434],[113.60116146914845,39.090730500213084],[113.60103563301843,39.08980346606426],[113.60145478037357,39.088721219097586],[113.6018817924742,39.087853373689796],[113.60314988264655,39.08739590883405],[113.60451754569172,39.087150783318656],[113.60562324108542,39.08726913140893],[113.6065534256495,39.08760597103376],[113.60905048360831,39.08812232949621],[113.61082448208955,39.08894093529161],[113.61149486449712,39.087209281954074],[113.61298074309762,39.086000741246316],[113.61264722009717,39.08492100985861],[113.61436352816884,39.0836808840507],[113.61432975637861,39.08276609888245],[113.61322095117856,39.082562073901585],[113.61204723180337,39.08258837923736],[113.61043336640496,39.08262452842869],[113.60952568597428,39.08190097272473],[113.60808558004177,39.0806743323989],[113.60697051175913,39.08029872527665],[113.60593091446292,39.079978642675776],[113.60478642814738,39.07880257543674],[113.60402556053039,39.078075697898804],[113.6023886831289,39.07748281993403],[113.5997354015125,39.0771986990142],[113.59850100271419,39.07756954880334],[113.59622707212564,39.07762021742311],[113.59565911122793,39.078147855431965],[113.59476630306997,39.07782440584596],[113.59423189022914,39.07726409083177],[113.5938882203165,39.07589843450742],[113.59430528733458,39.07525972150138],[113.59508490379672,39.07449849285447],[113.59609922025265,39.07413257910898],[113.59651625616667,39.07349385816536],[113.59692070575628,39.072512087537355],[113.59740478078555,39.07170020605985],[113.59820949455133,39.071625048646744],[113.60005154910012,39.07181285578777],[113.60042638663846,39.0717678090879],[113.60047796657342,39.071685802067876],[113.60068147366081,39.07145778828361],[113.60099724887573,39.07127227182426],[113.60136983719298,39.07111901550792],[113.60166776344404,39.071020353265745],[113.6018125876875,39.07100152927161],[113.60199399638452,39.07099905314539],[113.6022209295639,39.07100909668315],[113.60234077738124,39.071025733198965],[113.60243972013191,39.07105852439315],[113.60275007635578,39.07112990058733],[113.60318233868041,39.07123616071871],[113.60322818727758,39.07124743113897],[113.60376078524408,39.071368998042594],[113.60399527208011,39.071447061481635],[113.60409017844394,39.07149220002279],[113.60417431252505,39.07153971536486],[113.6043197193447,39.07148061969712],[113.60479922242266,39.0713501232586],[113.60496550293533,39.07130587083084],[113.605171837349,39.07127798040441],[113.60557406190337,39.07114025397482],[113.60579754974319,39.0710575583141],[113.60602939974818,39.07089762508035],[113.60628729006095,39.070689102276575],[113.6066188473936,39.070513274460744],[113.606689439255,39.07047487743385],[113.60677585564616,39.07044271406555],[113.60691682299884,39.07040455280972],[113.60700808686855,39.07039172325723],[113.60712288870843,39.07042456003002],[113.6072099748374,39.0704503511045],[113.60731261197262,39.07053182860142],[113.60745990315928,39.07078344865865],[113.60763602451065,39.07101894168737],[113.60792868896402,39.07115205756238],[113.60830852169579,39.071207426081166],[113.6084284761701,39.07120473937955],[113.60856133397098,39.071199007076416],[113.60871405506136,39.071186385488495],[113.60886681066917,39.07116758411362],[113.60899478650737,39.07114869340411],[113.6090902260398,39.07109801501159],[113.60922369057769,39.070982557272735],[113.60941017811876,39.07077957533733],[113.609568370467,39.07067424518142],[113.60968362441885,39.07062595039865],[113.60983637843024,39.0706071460008],[113.61004371522301,39.07057615898592],[113.61014712123172,39.070518554241545],[113.6102388270693,39.07042536336956],[113.61035568502656,39.07026503076312],[113.61045864731344,39.07001849601504],[113.6104605555034,39.06967233973476],[113.6104982349807,39.06931084963724],[113.61059800210644,39.06919373437086],[113.61071325343946,39.06914466866539],[113.61089549506147,39.06917000569472],[113.61120842068956,39.06922359655811],[113.61167137851051,39.06939203500118],[113.6122809799335,39.06957331641331],[113.612957203512,39.06989700831185],[113.61374783500169,39.07032616349112],[113.61423825923417,39.070553504061365],[113.61439249480637,39.07062499931546],[113.6148364916936,39.070638825342805],[113.61508669773696,39.07056238741315],[113.61528564677319,39.07043323620038],[113.61554546481544,39.07029139925434],[113.61576679580055,39.07017107028459],[113.61590151355905,39.07019699693324],[113.61607235310886,39.07034409468901],[113.61649570260387,39.07065130163305],[113.61683875087608,39.070693846136386],[113.61709198087448,39.07072016752481],[113.6172285164336,39.0707875158062],[113.61721643006831,39.07064357818239],[113.61720026316758,39.07051757877945],[113.61718807301598,39.070389271958035],[113.61716388771187,39.070279471051634],[113.61709505658527,39.07017647604833],[113.6169966013042,39.0700532944778],[113.61677331513657,39.06991733607007],[113.61636583556998,39.06974909188657],[113.61607608018026,39.069626056230376],[113.61568427060908,39.06949572395061],[113.61544090580726,39.06940837876516],[113.61524725672996,39.069291836712495],[113.61503015627058,39.069113404775116],[113.61480856465343,39.06887347420455],[113.6148270635227,39.06879725095791],[113.61487835974843,39.068775243674956],[113.61500746275505,39.068730852104466],[113.61530031339056,39.068650680396985],[113.61554956350265,39.06856804815929],[113.61608222941406,39.06849563116564],[113.61656191011475,39.06850648293878],[113.61719840280747,39.068479972235046],[113.61753264130677,39.06844243860441],[113.61761624632454,39.06837858082673],[113.61762850892165,39.0683106239829],[113.61758716076835,39.068258718112276],[113.61744377085459,39.068197204918825],[113.61729033011287,39.06816115483891],[113.61712092304501,39.068145145967975],[113.61697621156948,39.0681446727631],[113.61677788919094,39.0681602490844],[113.61641807547335,39.06816216173967],[113.61619905809343,39.068155258788735],[113.61604261019637,39.068125380426665],[113.61584882507506,39.06803510840028],[113.61566319783316,39.06790236668247],[113.61556082889722,39.0677699003028],[113.6155498420463,39.067602192395526],[113.61558318107767,39.06748639902551],[113.61562931773584,39.06738687358848],[113.61570404382164,39.06731602990429],[113.61583199033431,39.067300995868656],[113.61598950636882,39.0673169655755],[113.61624479338931,39.067398932230724],[113.61692541625142,39.067642254455734],[113.61728873706295,39.06772380914875],[113.61740371188013,39.06772418707376],[113.61747029328274,39.06769272790002],[113.617482468298,39.06764099769527],[113.6174541256805,39.06756672669376],[113.61735151295652,39.067479847927686],[113.61719955625985,39.06735339940633],[113.61657343564528,39.066929448026414],[113.61617752607596,39.066634132973626],[113.61566715793991,39.06635076589316],[113.6150977901027,39.06607208049019],[113.61430417811938,39.065754166146064],[113.61424105517806,39.065732436592924],[113.61425624760423,39.06570693925868],[113.61421839561304,39.06565371631461],[113.61421869489183,39.0655988540569],[113.61421913435758,39.06551849530686],[113.61421948804768,39.065453589566836],[113.61423667209256,39.065392603808554],[113.61427450677124,39.06536104743903],[113.6143607365202,39.06536133206663],[113.61443507206597,39.065361577269705],[113.61446050767601,39.06536415684361],[113.61459257791272,39.065377552757255],[113.61488049380534,39.065471997352326],[113.61545421389368,39.06568638278087],[113.61606415880549,39.06598123672181],[113.61630163091009,39.06605619153823],[113.61645414667126,39.06607909922645],[113.61666136873998,39.06606664769862],[113.61687175277899,39.06601943574664],[113.61717454064413,39.06593002970741],[113.61741405545158,39.06581181725958],[113.61769247131096,39.06564813972438],[113.61794125266991,39.06546505174378],[113.61807056817169,39.06537893317465],[113.61824001618739,39.06520254028115],[113.61827837509269,39.065073625555314],[113.61829191692358,39.06495158497919],[113.61833399907101,39.06468437071817],[113.6183682876284,39.06457476106731],[113.61845903488613,39.06447228880944],[113.61873229002924,39.06434413880807],[113.61890604993485,39.06428675204539],[113.619010122147,39.064287093374624],[113.61912864325329,39.06436475071389],[113.61917385502645,39.06443598553008],[113.61916535837064,39.06454181512637],[113.61909418931643,39.06468993819053],[113.6189192349485,39.06496985045928],[113.61865738112532,39.06518805926808],[113.61857802072468,39.06538406746412],[113.61854842900671,39.065541602619454],[113.61860990016463,39.06572184289744],[113.61881093002931,39.06593808587859],[113.61886787796865,39.066038334579645],[113.61886783941065,39.06604528964502],[113.61888422346914,39.06613188406827],[113.61902300239773,39.06649626976074],[113.61920685789603,39.06677349098017],[113.61951636477706,39.066909718618156],[113.61972669418086,39.06696526490505],[113.61990394187274,39.06699829732124],[113.6201110122798,39.06701519889417],[113.62029207017123,39.067076831785954],[113.62059787830857,39.0671643657344],[113.62080385150938,39.067200580931875],[113.62103503207105,39.067156514947165],[113.62120165813518,39.067044240574575],[113.62123570946605,39.06702367116173],[113.62152483835061,39.066849020488135],[113.62209230962644,39.06656728716527],[113.62234461231355,39.06646533568465],[113.62253887761054,39.066465961424306],[113.62260523657095,39.06647544692316],[113.62262574017703,39.066533464854764],[113.62262536087837,39.066604550801685],[113.62250451862494,39.06677492646051],[113.62208639988069,39.067122421045404],[113.62184467138258,39.06727716140076],[113.62167093853463,39.0673861500844],[113.62140422452792,39.06752027293738],[113.62125658839615,39.067587784548536],[113.62101556764644,39.06769799936403],[113.62059674996847,39.067884429519516],[113.62012541273049,39.06803744454067],[113.61971689130618,39.068175012939136],[113.61917691481965,39.0682583392964],[113.61899355465842,39.06829001490394],[113.61889927596486,39.068322961027526],[113.61884254955153,39.06837168320695],[113.6188521071923,39.06846072565667],[113.61888149118045,39.06851156078345],[113.61890851411353,39.06861422809632],[113.61890790445999,39.06872704170787],[113.61881553126932,39.0689458035429],[113.61877056553386,39.06901288337437],[113.61866549670614,39.06919644254946],[113.61866489150516,39.0693084797646],[113.61866930425245,39.06940894357581],[113.6186885385483,39.06951795394313],[113.61875833913682,39.069624815766225],[113.61889425508195,39.069785980220985],[113.6190384514883,39.0698834214549],[113.61939227323458,39.07007774230209],[113.61991651368074,39.070284983244626],[113.62032767373795,39.070505771238686],[113.62061579239386,39.07075126800153],[113.62082578046166,39.07096444275443],[113.62092440113403,39.07105826051653],[113.62098134118608,39.0711612144162],[113.62101294885653,39.07136762441713],[113.621024247768,39.071663986988355],[113.62106477475105,39.07187042689329],[113.62118797687978,39.072002184519],[113.62133964354872,39.072186580256194],[113.62144986499352,39.07233529459731],[113.62148242886224,39.07254750418023],[113.62146498850112,39.07265716878598],[113.62137816068922,39.07276660753151],[113.6212329047538,39.07286581068954],[113.62114510727183,39.072971386024086],[113.62098793304327,39.07307441690404],[113.62071471662651,39.07318943583529],[113.62054907404237,39.07320821657091],[113.62033350634425,39.0732940557162],[113.6200391774008,39.07346385749919],[113.6198901288764,39.07353059232753],[113.61977910568714,39.073530229898296],[113.61968004635024,39.07351754430242],[113.61943252360484,39.07346187964693],[113.61930685622087,39.07341974705406],[113.61912986436647,39.07333571979175],[113.61896979870241,39.07323861203407],[113.61883743737101,39.07315163604779],[113.61863572946905,39.073057478206266],[113.61834296476245,39.072937523079034],[113.61800069672945,39.072714167409735],[113.61786058831733,39.0736821340765],[113.61766900913409,39.07434411951008],[113.61763552223607,39.07449054773601],[113.61753249082244,39.07464949259719],[113.61755564768978,39.07468153161036],[113.61760838337472,39.074869155787006],[113.61768509060785,39.075166120743425],[113.61778762471712,39.0754531278286],[113.61789351949628,39.075668673030975],[113.61815634283666,39.07601106774107],[113.61817418747307,39.07605158864879],[113.61836744534043,39.07608555300882],[113.61851662559154,39.076120038310826],[113.61867281599375,39.0761472865191],[113.61864905159338,39.07600704278814],[113.61869914229638,39.07585481616957],[113.61867224506237,39.07569606050823],[113.61848034998901,39.07546174715396],[113.61831571881969,39.075332334196865],[113.61836058121654,39.0752730332788],[113.61839359023463,39.07521827998656],[113.61841473816214,39.07515730550384],[113.61843625292461,39.075028337048465],[113.61842039547184,39.074844384785436],[113.61843811316912,39.07468372417818],[113.61846334536534,39.07460035803059],[113.61851730852874,39.07452017550224],[113.61858816177008,39.07443309509757],[113.61869176021904,39.074339941138476],[113.61884483661234,39.074263175023034],[113.61903157589029,39.07419346998468],[113.619201255505,39.074161567614745],[113.61929245165396,39.07416186471532],[113.61936657098056,39.07420382945761],[113.61949000845422,39.07429154483659],[113.61966699382505,39.07437556895108],[113.61993947239525,39.07439886751546],[113.62026584408656,39.074354348502105],[113.62044767745577,39.07427458409852],[113.62066740570125,39.07415321468828],[113.62085853073073,39.074005476524334],[113.62109928124116,39.07384553676661],[113.62131928194124,39.07367239264756],[113.6216047771673,39.073486331201835],[113.62200758881595,39.073143412563965],[113.62245811197748,39.07268125980671],[113.62290467149694,39.07221908108542],[113.6232071124132,39.072012976773216],[113.62356894971037,39.071822512904625],[113.6246137813808,39.07143953996682],[113.62527818728331,39.07101514796103],[113.62602193502688,39.070581735486805],[113.62637609421564,39.07041490574618],[113.62666762345232,39.07041583413571],[113.62691659419293,39.07041662696253],[113.62710198040298,39.07036910982465],[113.6271660033455,39.07033447877742],[113.62716625769187,39.07028637281138],[113.62710267337485,39.07023806517413],[113.62699646046745,39.07020289234397],[113.62678413876402,39.07011264058886],[113.62657247331984,39.069897974583064],[113.62651174972649,39.0697103292832],[113.62651265810136,39.06953780949699],[113.62654955646124,39.0694002419092],[113.62667349091521,39.06930276640726],[113.62680765305154,39.0692832916852],[113.62698398232641,39.06933859864161],[113.62719630558293,39.069428856334646],[113.62749847657396,39.06942981925392],[113.62756905819766,39.069362032498894],[113.627578225237,39.069237647390466],[113.62757899191737,39.069091672349984],[113.62756280769038,39.06893237375947],[113.62740444373874,39.068697976419],[113.6273174714513,39.068554409949975],[113.62731584206766,39.06855171886377],[113.62733531709522,39.06849040319478],[113.62736966051547,39.06843411248948],[113.6274062703102,39.0683512876709],[113.6274069984837,39.068213604108216],[113.62746925906487,39.06810929426086],[113.62757575885237,39.06808972640728],[113.6277180734382,39.06813828577973],[113.62784105291719,39.068221619634066],[113.62803638121268,39.068305180596305],[113.62821303617159,39.068299110064956],[113.62847917886022,39.068271761357884],[113.62873691287326,39.06822447763006],[113.62904777223476,39.06819062907409],[113.62919345107345,39.068189872182046],[113.62911835519914,39.068286849186535],[113.62867372831775,39.068867671873384],[113.62841394591412,39.06919128870247],[113.62834349767965,39.06927904664614],[113.62836487881708,39.069371201324955],[113.62846996501251,39.06962036513392],[113.62854991874575,39.06979314040258],[113.62867221207533,39.07000751869231],[113.6286542151721,39.07019325337404],[113.62858297285487,39.070387115343635],[113.6284385865239,39.07073169622194],[113.62834706652033,39.07113947605503],[113.62833699564689,39.07143637358008],[113.62854830681223,39.07172070850591],[113.62883228727216,39.07194389962563],[113.62932746368023,39.07206988808303],[113.62959326182596,39.07211054449064],[113.63020335385448,39.07223689259641],[113.63061164802362,39.07229292708523],[113.6309756799719,39.07226754045548],[113.63113568174562,39.07219173851251],[113.6313133911115,39.07198494168435],[113.63171626707681,39.071447090531294],[113.6323143563865,39.07060546301834],[113.63271672166695,39.07016381409057],[113.63300153316233,39.069819676616454],[113.63320792181699,39.069619606421185],[113.63338507595631,39.069517315448294],[113.63377726294613,39.06939412991733],[113.63430988998421,39.0692713887572],[113.63469959393885,39.06921621395654],[113.63546131633636,39.06923353752569],[113.63558786460841,39.06925853638226],[113.63610118577863,39.06935993976682],[113.63662325246908,39.06963693089305],[113.6367806066625,39.069749044785056],[113.63725932398312,39.07009012371195],[113.63754965600572,39.07032492631746],[113.63825722989614,39.07094919670905],[113.63903249838448,39.07164997623785],[113.63961611488475,39.071963639146404],[113.6399177718039,39.07206742142726],[113.64036235209136,39.07210363006694],[113.64046881800958,39.07209068652589],[113.64051603625528,39.072065249108114],[113.64060965726694,39.07201481505997],[113.64069168321298,39.07178614976909],[113.64073788670174,39.07148853116819],[113.64075518908993,39.07143384307166],[113.6408086617143,39.07127545287729],[113.64081784586963,39.071248243988705],[113.64089160785028,39.070971441466114],[113.64095434015402,39.07077091101603],[113.64095591932063,39.07046070775917],[113.64092076526724,39.07025987675049],[113.64074576418837,39.06994083476534],[113.64020621276589,39.06933120036306],[113.64002131062824,39.06884678809881],[113.63997102347007,39.06871504246488],[113.63974463213047,39.06762199603935],[113.6397382682394,39.06720062019552],[113.6397597126711,39.066751127335024],[113.63999486156209,39.06570097956036],[113.6402808157072,39.06512125741615],[113.64068259868968,39.06477744941145],[113.64104899316051,39.06448827700942],[113.64156340954155,39.064171350245665],[113.64166546504205,39.06413361315045],[113.64197271671667,39.06401999849505],[113.64246053494507,39.063912015952035],[113.64253572531118,39.0639055587402],[113.64285222274117,39.06387837922787],[113.64289513038513,39.06388336701792],[113.64352634444313,39.063956744970675],[113.64425946032325,39.06415140737887],[113.64498598510315,39.06438918611206],[113.6453214839817,39.06452955386426],[113.64594976811892,39.06484167101953],[113.64628747084552,39.0649671139498],[113.64644705796081,39.064967598398276],[113.646588144691,39.06483697155908],[113.6466080555702,39.06468441383979],[113.64660918487067,39.06445714935415],[113.6466106951109,39.064153579381],[113.64652268177333,39.063882918348135],[113.64643476648581,39.06359235430051],[113.64637099377073,39.06323306370045],[113.64634991928283,39.06311434155333],[113.64635133938133,39.06283067516917],[113.64636978130693,39.062547059021696],[113.64652201729263,39.06231362354808],[113.64679735124544,39.06214194028306],[113.64726885221188,39.06188707935755],[113.64763375431413,39.061674182216656],[113.64815865952563,39.06137716654367],[113.6488884646391,39.06095136653056],[113.64972334326626,39.060574005515605],[113.65023909733976,39.06040302921484],[113.65118083795059,39.06014208345498],[113.65174424551638,39.060063545611335],[113.65308773920738,39.05905872980659],[113.65549055903277,39.05854621799487],[113.65694003787313,39.05805539679534],[113.65722694091227,39.05588155860599],[113.65677212243985,39.05621998096217],[113.65666005494921,39.056303368544576],[113.65654313166485,39.056390367202155],[113.65515497593105,39.056860440180515],[113.65349410173863,39.057555914853346],[113.65120139230217,39.05827328796599],[113.65119145488222,39.0582763967391],[113.65047186870545,39.05850153862355],[113.64709942187837,39.05948245847825],[113.64386735912129,39.06046009687422],[113.64133549656641,39.06136696140759],[113.63792461532597,39.06226627630417],[113.63628937911163,39.062714313004896],[113.63463282954912,39.06317497633824],[113.63371509460411,39.06343016750882],[113.63270174483227,39.06359007999841],[113.63073410839564,39.06360711801964],[113.6305885937596,39.06359424922828],[113.62826566692834,39.0633888038087],[113.62685078857231,39.06314670601184],[113.62631285975193,39.06285741566392],[113.62550373107472,39.061889205889536],[113.62446061426074,39.0602960392474],[113.62392339648522,39.059835040360035],[113.62380721028406,39.05973533524697],[113.62323623047126,39.05950157474722],[113.621751224624,39.05926099662847],[113.6204988491851,39.05865894029616],[113.6200382984029,39.05855969448864],[113.61937514694426,39.05868421287123],[113.61816126593682,39.05912251461762],[113.61677176884642,39.059564752488555],[113.61573848779148,39.0601359797509],[113.61378632536298,39.061522440388366],[113.61362122090743,39.061623343604005],[113.61356305457547,39.06165889225385],[113.61296608165036,39.06202372074035],[113.61155212208303,39.06288779763076],[113.61065518304974,39.06334632208762],[113.60997298806069,39.063909615798586],[113.60947745983877,39.064770153561554],[113.60938127858043,39.06484163670575],[113.60879322412727,39.06527868824911],[113.60789550344586,39.06582771585483],[113.60789166900402,39.06583006029371],[113.60721199166555,39.06624572049998],[113.60521126171929,39.06727690278211],[113.6038917654724,39.06771742153863],[113.60305389754164,39.06787313001333],[113.60164705286965,39.067849748334496],[113.60077104125298,39.0679241057572],[113.59851727807606,39.067809976831505],[113.5971455454676,39.067785753262],[113.59399194712361,39.06764360665179],[113.59381615890254,39.06763568037557],[113.59348394384135,39.06762069748299],[113.5924323115971,39.06769890304557],[113.59069327675769,39.068203390554],[113.59022414934704,39.06843201302992],[113.58969177962533,39.06869145265104],[113.58897922099541,39.06939231518558],[113.58840715637605,39.07009003141588],[113.58838170711206,39.0701557216504],[113.58809953937048,39.070884031502544],[113.58809044236698,39.07090751155925],[113.58792530055214,39.07133377854292],[113.58746157848768,39.07211128496399],[113.58671984064293,39.07297717885755],[113.58639267064395,39.07325466307377],[113.58630294289814,39.07333076267068],[113.58549233657884,39.074018246315234],[113.58473756732529,39.074528190569275],[113.58425281041133,39.074730746625136],[113.58313428871894,39.074577592193656]]],[[[113.58129439960122,39.07166866606198],[113.5828966877913,39.07157356600014],[113.58452287796091,39.07213356774104],[113.58507509180859,39.072598161644514],[113.58472567619606,39.07349998651359],[113.58313428871894,39.074577592193656],[113.58425281041133,39.074730746625136],[113.58473756732529,39.074528190569275],[113.58549233657884,39.074018246315234],[113.58630294289814,39.07333076267068],[113.58639267064395,39.07325466307377],[113.58671984064293,39.07297717885755],[113.58746157848768,39.07211128496399],[113.58792530055214,39.07133377854292],[113.58809044236698,39.07090751155925],[113.58809953937048,39.070884031502544],[113.58838170711206,39.0701557216504],[113.58840715637605,39.07009003141588],[113.58897922099541,39.06939231518558],[113.58969177962533,39.06869145265104],[113.59022414934704,39.06843201302992],[113.59069327675769,39.068203390554],[113.5924323115971,39.06769890304557],[113.59348394384135,39.06762069748299],[113.59381615890254,39.06763568037557],[113.59399194712361,39.06764360665179],[113.5971455454676,39.067785753262],[113.59851727807606,39.067809976831505],[113.60077104125298,39.0679241057572],[113.60164705286965,39.067849748334496],[113.60305389754164,39.06787313001333],[113.6038917654724,39.06771742153863],[113.60521126171929,39.06727690278211],[113.60721199166555,39.06624572049998],[113.60789166900402,39.06583006029371],[113.60789550344586,39.06582771585483],[113.60879322412727,39.06527868824911],[113.60938127858043,39.06484163670575],[113.60947745983877,39.064770153561554],[113.60997298806069,39.063909615798586],[113.61065518304974,39.06334632208762],[113.61155212208303,39.06288779763076],[113.61296608165036,39.06202372074035],[113.61356305457547,39.06165889225385],[113.61362122090743,39.061623343604005],[113.61378632536298,39.061522440388366],[113.61573848779148,39.0601359797509],[113.61677176884642,39.059564752488555],[113.61816126593682,39.05912251461762],[113.61937514694426,39.05868421287123],[113.6200382984029,39.05855969448864],[113.6204988491851,39.05865894029616],[113.621751224624,39.05926099662847],[113.62323623047126,39.05950157474722],[113.62380721028406,39.05973533524697],[113.62392339648522,39.059835040360035],[113.62446061426074,39.0602960392474],[113.62550373107472,39.061889205889536],[113.62631285975193,39.06285741566392],[113.62685078857231,39.06314670601184],[113.62826566692834,39.0633888038087],[113.6305885937596,39.06359424922828],[113.63073410839564,39.06360711801964],[113.63270174483227,39.06359007999841],[113.63371509460411,39.06343016750882],[113.63463282954912,39.06317497633824],[113.63628937911163,39.062714313004896],[113.63792461532597,39.06226627630417],[113.64133549656641,39.06136696140759],[113.64386735912129,39.06046009687422],[113.64709942187837,39.05948245847825],[113.65047186870545,39.05850153862355],[113.65119145488222,39.0582763967391],[113.65120139230217,39.05827328796599],[113.65349410173863,39.057555914853346],[113.65515497593105,39.056860440180515],[113.65654313166485,39.056390367202155],[113.65666005494921,39.056303368544576],[113.65677212243985,39.05621998096217],[113.65722694091227,39.05588155860599],[113.65834975469365,39.05489688369993],[113.65898607198469,39.05406030239879],[113.65923821394505,39.05328730950957],[113.65668557674286,39.05242696128074],[113.65566127526078,39.05202114085541],[113.6538843625285,39.05197360353926],[113.65215894555772,39.0524420606949],[113.64998323884117,39.053135317834496],[113.64696386669249,39.05334700504433],[113.6446884194088,39.05382784205026],[113.64277691223154,39.05422885352398],[113.64188430646392,39.05489284589102],[113.64008306123468,39.055792005456],[113.63945208186361,39.056092411111464],[113.63825515273929,39.055976462350394],[113.6370502456241,39.05564609885347],[113.63646835779907,39.054800933642255],[113.63581609750187,39.05452957897306],[113.63471617727663,39.054554455658625],[113.63437611382209,39.05527742124961],[113.63376637466973,39.05614953664828],[113.63285772076443,39.05638465480105],[113.63077867967274,39.05721841593432],[113.62885639508534,39.057333325728415],[113.62837420842135,39.056700456174674],[113.62853366578963,39.05605311132862],[113.62769279961823,39.055642912614154],[113.62692240198419,39.054658898219856],[113.62669932841885,39.05359101573241],[113.62606036440998,39.053676944993676],[113.62459911372525,39.0538529241856],[113.62338901406613,39.05337948372754],[113.62226265106038,39.0526895656941],[113.62158930689401,39.0518463890922],[113.62026381298936,39.05073176900452],[113.61880525114252,39.0509791432916],[113.61745946078317,39.05179618381051],[113.61621321633034,39.05282555468126],[113.61513178489908,39.053350521858],[113.61394549264293,39.053520195859825],[113.61347401346472,39.05317313574942],[113.61227981257302,39.05312838898055],[113.61117990721121,39.05315304354794],[113.61045453846316,39.05338387718354],[113.61066946326018,39.05423738699073],[113.61037393059794,39.056175237718875],[113.60924022961308,39.0577742219508],[113.6077946415526,39.058378797700136],[113.60631221255159,39.057982803376376],[113.60492934988173,39.05779914496278],[113.60414114926547,39.05881813683355],[113.60392395051448,39.06039657932806],[113.60285544458478,39.061278771868515],[113.59873031322941,39.06137083629227],[113.59787645205658,39.06060308233068],[113.59728188779012,39.05940038324904],[113.59579949886508,39.059004255492034],[113.593429245592,39.05941466294832],[113.59169279618627,39.0595963482165],[113.58872025162223,39.058589526658835],[113.58743692287288,39.05861802913408],[113.5844823354564,39.06061480518535],[113.58325370428103,39.062144098142575],[113.58235783825963,39.06273616229107],[113.58086244344248,39.06198250206476],[113.5795322001389,39.0607244853581],[113.57834310032909,39.060822327944585],[113.5766195790604,39.061361130065045],[113.57593560031967,39.062735244789486],[113.57400789065757,39.06270631426652],[113.57184668708605,39.063826917291244],[113.57132431990605,39.0595468932365],[113.57078557026344,39.057341478422906],[113.56944003871585,39.05565453524042],[113.56807027655869,39.0558277841081],[113.5659853218656,39.05651744785106],[113.56345751974914,39.0576459703545],[113.56074630352566,39.058778467810455],[113.55954429976768,39.05851877267863],[113.5598244189403,39.05357735439616],[113.5593041453189,39.05187216887152],[113.55801834953702,39.05182887928594],[113.55609868305162,39.05201405961716],[113.55484381574433,39.052828364184755],[113.55309970713694,39.05279506835451],[113.55070111554456,39.052418449304014],[113.54837878094659,39.05161096169085],[113.54443928559328,39.04919367751427],[113.54410262857371,39.048570846117286],[113.54415460063062,39.04803529325749],[113.54433945126553,39.047875564668104],[113.54503208548142,39.04782174969377],[113.54955816002325,39.04614923163479],[113.55117441915773,39.045184018136915],[113.55222272168145,39.043730546629845],[113.55318963678086,39.04256495008565],[113.54842410156617,39.0428737862104],[113.54638255088307,39.042576591094324],[113.54388544541732,39.04147744291149],[113.54159008205089,39.04089812285089],[113.53965329322823,39.03939116110182],[113.53808146273728,39.03922843838693],[113.53810072167997,39.039595336073326],[113.53810210841587,39.03962178127037],[113.53811408530768,39.03984997362664],[113.53813093434748,39.04130181483856],[113.53812998594873,39.041307902727695],[113.53795949925728,39.04240155538752],[113.53790515597014,39.042758725222036],[113.53781728407665,39.043336257728114],[113.5374897209724,39.04400099479947],[113.53707821084086,39.044283954275166],[113.53639249577571,39.044409690747],[113.53616381001471,39.04469806173769],[113.53596864792904,39.0447976771167],[113.53577007507906,39.04480199988095],[113.53556631774516,39.04456117890049],[113.53438029737346,39.0447786364967],[113.53351761256245,39.04493680367875],[113.53355824940954,39.045362718338865],[113.53382182222369,39.04589342323146],[113.53392412550916,39.046189218956584],[113.53374508207479,39.04631232143825],[113.5335617790071,39.04631630765378],[113.53337251195697,39.04615353226031],[113.53322608982539,39.045906378124776],[113.53295704214827,39.045649970246046],[113.53269097697206,39.04547694330014],[113.53250384442669,39.0453737234569],[113.53210590178466,39.04539013811719],[113.53192114834197,39.04549209274447],[113.53168613508527,39.04579859887859],[113.53162960620548,39.04618342901039],[113.53171547453375,39.04661996508633],[113.53188752413976,39.04684206856638],[113.5323416980929,39.04742836501124],[113.53282162057685,39.04807553971679],[113.53312305745216,39.048644391436255],[113.53314380729937,39.04922499120354],[113.53314849853967,39.04935623946991],[113.5330734951897,39.05020727353442],[113.53336485320781,39.05168822162464],[113.53341702569442,39.051953412825426],[113.53365255367927,39.05271205499],[113.53381415954001,39.05323258620785],[113.53418879216001,39.0538820430382],[113.53451558860333,39.05417634088052],[113.53530084450333,39.05451546756323],[113.53704694580809,39.05518988544902],[113.53803275962274,39.05587969767015],[113.53870171265135,39.0563477788639],[113.53917363959141,39.05667799077692],[113.53932501452513,39.05678726926506],[113.53962441606458,39.05700340847852],[113.54003018374874,39.057296329724586],[113.54003948132147,39.05730304087008],[113.5409053135326,39.057928070090256],[113.54198825305924,39.05872646664329],[113.5426282071524,39.05893171248156],[113.54440762236771,39.05955049750732],[113.54495077868388,39.0598203916323],[113.54551689341257,39.06010168831905],[113.54610640422976,39.06047597210672],[113.54622168283689,39.06028243863853],[113.54668378383022,39.06026822657644],[113.54669062615113,39.06026801582585],[113.54678561746505,39.060077495367956],[113.54703639322001,39.059964749713544],[113.54716706820946,39.05989621271442],[113.54795711810773,39.06017546693736],[113.54792539763854,39.06028419407339],[113.54806284987993,39.06034380915293],[113.54800196372555,39.06043914559908],[113.54811114053723,39.06052941494639],[113.5482525935024,39.06122042048384],[113.5474510676682,39.061513347503016],[113.5482353329547,39.062398694208326],[113.54912452221114,39.06357589332703],[113.54916112842169,39.0636243552935],[113.54941624162302,39.063962090554845],[113.55083909017848,39.065410582741116],[113.55091373731733,39.06547928416034],[113.55153874393211,39.064992516995154],[113.5525490643827,39.065447228538844],[113.55348944362848,39.066082276300904],[113.55475691326718,39.06730619192002],[113.5562848838777,39.06727268757377],[113.5590545959564,39.06774834534257],[113.55945165661045,39.068156858321316],[113.56151659474278,39.06817109669383],[113.56216657114099,39.06922969296996],[113.56238401302141,39.071013049329785],[113.56234424134537,39.07202720115258],[113.56320408013394,39.072544737380234],[113.56421242738426,39.072939790098005],[113.56508523329151,39.07381465383979],[113.56588165467308,39.07469119435187],[113.56710847405859,39.074783390288616],[113.56895734970037,39.07515989042097],[113.57003569071635,39.07537453760822],[113.57171880677596,39.07539701969515],[113.57328007347932,39.074170468427994],[113.57570122725407,39.07346133727058],[113.5784935124489,39.0724459223548],[113.58129439960122,39.07166866606198]]],[[[113.52854113731654,38.92607100367526],[113.53260316908306,38.926505564585874],[113.53447709675514,38.92659544782803],[113.53570171902419,38.926582610508135],[113.53687942976565,38.927081442589056],[113.53839757355364,38.92685756594799],[113.53929549116239,38.9263611113403],[113.54006116380748,38.9255814325283],[113.5406404164784,38.92471045419346],[113.54061481706492,38.92399574623223],[113.53925073282566,38.923405654408434],[113.53830510979824,38.92256798729171],[113.53838447178163,38.921374143475795],[113.53859093182756,38.920320576205995],[113.53941071641123,38.919348979072744],[113.54011873208029,38.91866592665256],[113.54082844134867,38.91803051538149],[113.54085700629408,38.91712388561985],[113.53954721724122,38.91634187378816],[113.53849846225545,38.91603099219202],[113.53719077258033,38.91660569433114],[113.5347971536452,38.918352941695275],[113.53384512302114,38.91904128197498],[113.53267046422529,38.91938663755954],[113.531614692493,38.91923216657413],[113.53062444082897,38.91856160830974],[113.52988896742033,38.917649244295504],[113.52912819978064,38.916855168242634],[113.52863348592328,38.91667519519889],[113.52816208920385,38.916593947549124],[113.52668350971152,38.91676528615896],[113.52638534723063,38.91696250474806],[113.5264006194778,38.91739133149603],[113.52728674098424,38.91827806776846],[113.52988098434056,38.92034078608911],[113.5298283423622,38.921083833525465],[113.52923709675694,38.92162122735322],[113.52823586130201,38.92264437809692],[113.52699740459776,38.923863414268965],[113.5257572083345,38.92503478930462],[113.52559966627527,38.92575347424097],[113.52598092345096,38.92617434812894],[113.52665020357618,38.926112118758496],[113.52854113731654,38.92607100367526]]],[[[113.57895627060164,39.08585934298823],[113.57707101392431,39.08588846630741],[113.57581799086311,39.085081690993675],[113.57521282108829,39.08386784764743],[113.57451040505212,39.0847416688724],[113.57344116562004,39.08562358415849],[113.57340819057862,39.08654599844483],[113.57560748955957,39.08714930854731],[113.57563868492352,39.08800692758024],[113.57351590330715,39.08856129370975],[113.5735979736429,39.09060256698969],[113.57377724585552,39.09070129153644],[113.57402473272545,39.09076081812204],[113.57525499937748,39.090336516613604],[113.57531605236561,39.089229990185295],[113.57692851844499,39.088920764102],[113.57697152066197,39.08887726821537],[113.57736286363264,39.08746814509034],[113.57895627060164,39.08585934298823]]],[[[113.55275285822992,39.09688213703224],[113.55398558061567,39.095007415880865],[113.55421395170444,39.09285666587049],[113.55605795662517,39.090968526263495],[113.5587446582703,39.08912146895853],[113.55967355848033,39.08731294933056],[113.56144284488732,39.08515999520831],[113.55929668712673,39.08502831602667],[113.55576857526852,39.084748088059726],[113.55326738518318,39.08325318292366],[113.55179831508694,39.08280851496346],[113.5514497362257,39.08162406135415],[113.55113681706628,39.079306345399694],[113.55082606372642,39.07704818589636],[113.55098449469924,39.0750777781163],[113.55333593449032,39.074549458962615],[113.55488030964801,39.07284669652483],[113.5562211982788,39.07186362580908],[113.55584680676077,39.06996449532795],[113.55137606091108,39.0668438139227],[113.55020006712834,39.06603509220311],[113.55091373731733,39.06547928416034],[113.55083909017848,39.065410582741116],[113.54941624162302,39.063962090554845],[113.54916112842169,39.0636243552935],[113.54912452221114,39.06357589332703],[113.5482353329547,39.062398694208326],[113.5474510676682,39.061513347503016],[113.54728289590376,39.061323498332],[113.54655988248814,39.06076388847105],[113.54610640422976,39.06047597210672],[113.54551689341257,39.06010168831905],[113.54495077868388,39.0598203916323],[113.54440762236771,39.05955049750732],[113.5426282071524,39.05893171248156],[113.54198825305924,39.05872646664329],[113.54090531350033,39.057928069190375],[113.54003948132147,39.05730304087008],[113.54003018259455,39.05729632974973],[113.53963725423684,39.057012675811464],[113.53962441606458,39.05700340847852],[113.53932501452513,39.05678726926506],[113.53917363959141,39.05667799077692],[113.53870171265135,39.0563477788639],[113.53839750565429,39.05613492000771],[113.53803275959051,39.05587969677027],[113.53704694577588,39.055189884549144],[113.53530084450333,39.05451546756323],[113.53451558857114,39.05417633998063],[113.53418879216001,39.0538820430382],[113.53381415954001,39.05323258620785],[113.53365255367927,39.05271205499],[113.53341702569442,39.051953412825426],[113.53336485205372,39.05168822164972],[113.53317180428512,39.05174610211955],[113.53295547664261,39.051771907756034],[113.53273298965318,39.05173810118633],[113.53241243040159,39.051640719324446],[113.53225455983679,39.05159430733224],[113.53212940445061,39.05159040073958],[113.53199397273377,39.05159931552085],[113.53186702043496,39.05164675126073],[113.5317942153401,39.051762990605454],[113.53177319774744,39.051816454624955],[113.53173240788988,39.05191912465812],[113.53171857089882,39.05203540604466],[113.53173842984646,39.052065341483384],[113.53181164222335,39.052114919688286],[113.53199653154658,39.0521867442935],[113.53224572247467,39.052369243909006],[113.53257577502102,39.052685465349064],[113.53276553428618,39.05303310918547],[113.53290195929397,39.05354261009082],[113.53302843938326,39.05417812224229],[113.53305304989087,39.05468575253428],[113.53296812616937,39.05498324894445],[113.53280279314468,39.0554484134994],[113.53263478239973,39.05599673824691],[113.53255802946778,39.05611490281221],[113.53242533247749,39.056236636105616],[113.53232644103723,39.056301639181655],[113.53217410658344,39.05636026718733],[113.53202187747772,39.05640278036654],[113.53184905977788,39.05643383667919],[113.531702001883,39.056429454492694],[113.53143249941715,39.05642149775097],[113.53131357356754,39.056391164339146],[113.53111648583354,39.0563235536752],[113.53090904374247,39.05625922049414],[113.53073447118598,39.05618743687235],[113.5306109770801,39.05611206736602],[113.5301937219471,39.05583671903372],[113.53004737931289,39.05572523798145],[113.5298329500675,39.05561585510752],[113.52964094144254,39.05551651304762],[113.52951725905277,39.055470519883066],[113.52940860261633,39.05545017784445],[113.52928949217056,39.05544780226885],[113.52918319884213,39.05543742053094],[113.52873605007176,39.055364765184315],[113.52862422170543,39.05536431308466],[113.52850819310554,39.055355788201474],[113.52839381207285,39.055373332696696],[113.52826716097452,39.05540835971091],[113.52806856785219,39.05547674307677],[113.52787022888322,39.055598201933186],[113.5275972379507,39.05584043210466],[113.5271898590061,39.05613922073567],[113.52693711278211,39.05639883118852],[113.52670480632787,39.05673647671602],[113.52652815723759,39.05706747577537],[113.52619938614886,39.057652568342526],[113.5260997486926,39.05782797418766],[113.5258929255845,39.058034691824254],[113.5257114702714,39.058219073339565],[113.52572424995229,39.0582205228181],[113.52586075187989,39.058258515137524],[113.52591819938318,39.05830234798164],[113.52595134046133,39.05834560436372],[113.52595105991298,39.05838730479095],[113.52589453692636,39.058477585841274],[113.52579429389354,39.058516273353966],[113.52553085539893,39.0585545327902],[113.52536340827679,39.05859934748508],[113.52530965906902,39.05863846270302],[113.52528921702347,39.05869571987823],[113.525278327471,39.058778605139075],[113.52525755587189,39.058885144915706],[113.52523638661998,39.05896040520603],[113.52521119028594,39.05900153144372],[113.52521077941218,39.059062661196386],[113.5252176750791,39.05912192423477],[113.52525017803026,39.0591694444949],[113.52526322035189,39.05926403755648],[113.52526044190864,39.05931568231805],[113.52525777288798,39.05935121235682],[113.52523441162732,39.05939045084004],[113.52518368526523,39.05943194739583],[113.52510196302488,39.05947284474663],[113.52500065755646,39.05953356488695],[113.52494900460778,39.059622446741606],[113.52494382332372,39.059669814442934],[113.5249433343167,39.05974279126804],[113.52500273960527,39.05990249632148],[113.52500003175898,39.059943714383174],[113.52497431962043,39.05997109442076],[113.52490119493449,39.05999875501018],[113.52479471146741,39.060015853884195],[113.52473607111408,39.06005921118416],[113.52471734554395,39.060132112946725],[113.5247274145068,39.06017148631166],[113.52477028827245,39.06021336322667],[113.52504550489817,39.06032300626571],[113.52515938659322,39.0603808105513],[113.52518697386168,39.060436366960424],[113.52520148051607,39.06053878497921],[113.52517196498003,39.06063462430883],[113.52506479101622,39.06075455357625],[113.52499256441011,39.06092011741549],[113.52490844796488,39.06104582767972],[113.52482648124389,39.06112273549654],[113.52481333166976,39.061180021923505],[113.52482340086618,39.06121939526706],[113.5248688035804,39.0612470655696],[113.5249646104763,39.061281101621326],[113.52501557496865,39.06129505345473],[113.52501780608709,39.06132491621327],[113.52501517842138,39.0613542862491],[113.52497652536661,39.061407677235216],[113.5249433591744,39.0615039765398],[113.52495095622024,39.061549500380046],[113.52498076173707,39.06163681739351],[113.52502059964719,39.06167820700825],[113.5250484135842,39.061700119013864],[113.52513181910273,39.06177154206232],[113.52517728689674,39.061789261176145],[113.5252580989394,39.061793854857946],[113.52537721910251,39.06179623693038],[113.52545556169679,39.06180650812913],[113.52550340792956,39.06183229163796],[113.52553348396546,39.0618798031344],[113.5255331414999,39.061930981728416],[113.52551519760293,39.06197829638202],[113.52545124369091,39.06208892391922],[113.52544589485572,39.062161880841536],[113.52544808752502,39.06219743070514],[113.52546546528114,39.062234938107395],[113.52556120584434,39.06232512918219],[113.52575244702943,39.062541526123574],[113.52579268224268,39.062614667733214],[113.52579245524787,39.06264831215543],[113.52579213723281,39.06269569965604],[113.52579924872622,39.062723212368454],[113.52581976738038,39.06274509495987],[113.5258700717801,39.06276709751658],[113.52593302293063,39.06280668813476],[113.52603425223876,39.062848328253196],[113.52615802335194,39.062882475852476],[113.52626509835252,39.06291395295795],[113.52647516974966,39.06295034971877],[113.52651055565241,39.062976083199956],[113.5265227647233,39.06305906126913],[113.52655479310903,39.06317766274622],[113.52657685871087,39.06324125370897],[113.52662999283089,39.06329454389598],[113.52674620857704,39.06336799490685],[113.5269331171689,39.06341424825092],[113.5271632070091,39.06345688393395],[113.5273100257475,39.063498708724254],[113.52739117302666,39.06354453044148],[113.52745156048321,39.0636040111598],[113.5274992078495,39.06365964886711],[113.52761777624154,39.063699700266746],[113.52788366695621,39.06375195890213],[113.52793706457604,39.06376591788973],[113.52798232120033,39.063815858825734],[113.52802999827583,39.06386723140175],[113.5281405984046,39.06396245551812],[113.52838586741477,39.064099455799365],[113.52845383700945,39.06411584249212],[113.52852252313123,39.064116121079635],[113.52859861175881,39.064100317612315],[113.52870749374853,39.06408890978744],[113.52877853228846,39.06410104469308],[113.52891246924831,39.064160821778714],[113.52900785504244,39.064213570469065],[113.52921552824593,39.0642456797499],[113.52942037121512,39.064246501690306],[113.52961288660782,39.0642728638982],[113.52973169389733,39.06432310072727],[113.52979941881341,39.06437644915918],[113.52987515106577,39.0644141913456],[113.52997880224069,39.06445820877362],[113.53008021999005,39.064472359932324],[113.53014252612907,39.0644723753024],[113.53017076385945,39.064430788455915],[113.53021678370031,39.06436605242117],[113.53027796156896,39.0643070626118],[113.53032370617444,39.06428355398906],[113.53040699315804,39.06428199517903],[113.53048844494006,39.06428232325142],[113.53053646521711,39.06428251710668],[113.53059513150149,39.064235365793195],[113.53058252447414,39.06421162098915],[113.53053463764674,39.064191524076215],[113.53050206259604,39.06415395659618],[113.53048167206116,39.06411217189504],[113.53050776550106,39.06402745128047],[113.53054336002249,39.06397641599931],[113.53059949194146,39.06394489259124],[113.53070366777169,39.06390977097869],[113.53083830350008,39.06386482079853],[113.53091675222173,39.06385945186011],[113.53098216182444,39.06389525699637],[113.53103791406161,39.06392107092373],[113.53108348893218,39.06392315034892],[113.53113154601367,39.06391765688243],[113.53120775003022,39.06388431936789],[113.53130939032873,39.063864825161986],[113.53139326053044,39.06386705884717],[113.53157924493375,39.06391590761956],[113.53211619793187,39.06397493407989],[113.53236449025293,39.06402332122604],[113.53248326084127,39.06407924320601],[113.53251580918185,39.06412107585955],[113.53252812029892,39.064189837992544],[113.53251817732514,39.06426870012318],[113.53252634777346,39.06450377904775],[113.53249523807132,39.064612172826756],[113.53245215219437,39.06469303485644],[113.53233490885228,39.064773597176],[113.53215186261518,39.06487758941265],[113.53206592803994,39.064957566685],[113.53199903370566,39.065053969329874],[113.53192009956642,39.06513279025924],[113.53177497504635,39.06520139370879],[113.53149331359039,39.065326787019615],[113.5308172656128,39.06561786923532],[113.53067962118948,39.065750000807405],[113.5306969524081,39.065795089483466],[113.53074495669001,39.06579765212056],[113.53080728909089,39.06579387599908],[113.53093610097217,39.06580245218769],[113.53103978376814,39.06584220278595],[113.53110018936272,39.06589978541462],[113.53111268183642,39.06594106427946],[113.53112737815646,39.066016470584216],[113.53116771103412,39.066075869707696],[113.53122276625011,39.06611542353375],[113.53131668264935,39.06616129471395],[113.53142548933124,39.06616173311557],[113.53151187111806,39.066152128909614],[113.53157285419351,39.06612252055941],[113.53168696705895,39.066056163433295],[113.53187361972803,39.06586736135777],[113.53197425059578,39.065770856258474],[113.53212410843017,39.065722175065986],[113.53225320532103,39.065687152714645],[113.53232701202755,39.06564811722987],[113.53238817496111,39.06559102418029],[113.5324469307008,39.0655301289136],[113.53251290249547,39.06548111039515],[113.53254136052304,39.06540587694851],[113.53271907361884,39.06523480844592],[113.53276020008022,39.065173842243844],[113.53282427726674,39.065043782592916],[113.53286782828054,39.06498472152778],[113.53293640370855,39.064909649978816],[113.53308908295394,39.064801742487504],[113.53320378687906,39.06473728119037],[113.53330258370427,39.0646883943975],[113.53334126886611,39.064629313745385],[113.5333360444111,39.06454612524113],[113.53337412060988,39.0644870425052],[113.5334223631413,39.0644535908832],[113.53350090285234,39.06443447623346],[113.5336330794688,39.06439330469905],[113.53369433437126,39.064322467892296],[113.53372044898597,39.064233956491435],[113.53372353284527,39.06413492715376],[113.53375921562811,39.064070147009936],[113.53381071709607,39.06400306237627],[113.53384957226902,39.063872188838666],[113.53385767241511,39.06374995860135],[113.53387886338074,39.06369619781264],[113.53501923000809,39.063434417113356],[113.53514415889974,39.0643615219911],[113.53546267592621,39.06557051475232],[113.53561319866326,39.067212309369836],[113.53531044283181,39.06900701436188],[113.53489040673749,39.07008902218156],[113.53210148419882,39.07137183050477],[113.53105825778277,39.072397518052874],[113.53003906610846,39.07620125967442],[113.52994141833057,39.07656566728632],[113.52990360882478,39.076706766264806],[113.53031582842915,39.0773548770096],[113.53034414059395,39.07734602014618],[113.5304609347762,39.07733654153204],[113.5306056687057,39.07733096619089],[113.53078065847251,39.0772549043482],[113.5309740722214,39.07715095726855],[113.53102868990335,39.077120139216184],[113.53111258668952,39.077120478422664],[113.53116533213107,39.07714248943436],[113.53120593298308,39.0771625568855],[113.53125368782729,39.07720397750892],[113.53128911215796,39.07727141085872],[113.53129082591876,39.07737993778148],[113.53135360147601,39.07781473999817],[113.53173031650202,39.07839864873114],[113.5318020453907,39.07856930845648],[113.53204550831008,39.07916978719952],[113.53247759636226,39.07921896540729],[113.53778499279626,39.07801127712966],[113.54067564479999,39.07855861543272],[113.5420342146728,39.07912503708413],[113.54321576900793,39.079635040979845],[113.5439064096546,39.080978943424505],[113.54403405051438,39.08197750589407],[113.54229631300916,39.083163688265074],[113.54194207197447,39.084172315756526],[113.54098925488323,39.08532556081015],[113.5400214525213,39.08606189756715],[113.5390685782702,39.08721512667425],[113.53888202443797,39.08841126585717],[113.53783504072499,39.08928564144098],[113.53831059039119,39.08948068812613],[113.53821410888126,39.08955511435957],[113.53821346909754,39.08965284827296],[113.53821284683752,39.089748009751034],[113.53826516301766,39.089822806028934],[113.53840335205693,39.08988765793697],[113.53856751845119,39.090016909670204],[113.53880057378535,39.09021073927906],[113.53921178587096,39.090415563799134],[113.53976216533556,39.090536063804485],[113.54017462929176,39.090547989758925],[113.5402973586941,39.09045331206363],[113.54046426950272,39.09016333704167],[113.54083913415599,39.08986645984545],[113.54161933807323,39.089407856075965],[113.54195082585507,39.089182829405964],[113.54233461505432,39.08903516859493],[113.54264018672976,39.088735450429034],[113.54288914500103,39.08851266683656],[113.5436482830702,39.087990968224325],[113.5438706362008,39.08779894080536],[113.5441757792118,39.08756351760467],[113.54510003887859,39.08727650987218],[113.54576047712426,39.08721479997076],[113.54640815550744,39.086826388825685],[113.54682216481588,39.08659395437078],[113.54678024177197,39.08644204170733],[113.54650743204449,39.0862712222651],[113.54626354524683,39.08605416490106],[113.54721340674598,39.08553010389367],[113.54724156566384,39.08552306092879],[113.54809406867716,39.08535406282525],[113.54860294708662,39.0852506050664],[113.54897599630256,39.08522891781051],[113.54933610095274,39.08514566449773],[113.54973091980649,39.085811419918805],[113.5514771617149,39.0865182679289],[113.55338764735524,39.086476441434705],[113.5553964842875,39.08659269968584],[113.55561600185341,39.08758923812109],[113.5544599356758,39.08861592366235],[113.55131686515193,39.08898137477329],[113.5481419730679,39.09027384102788],[113.54619228774193,39.092525327980034],[113.54740026720351,39.09305484861208],[113.54739586198365,39.09311369404699],[113.54728599607783,39.093262441435506],[113.54713320466892,39.093413594120726],[113.54710373474232,39.09352142137611],[113.54717574869434,39.09372626024047],[113.5473798781466,39.093804218490725],[113.54765389619405,39.09379242872706],[113.54793133078128,39.09376264753832],[113.54817892981136,39.093753327251484],[113.54836712563181,39.09377066137304],[113.54890792476984,39.093820469747065],[113.54942890922638,39.09389708702319],[113.54996599680015,39.09403806405893],[113.55023884236974,39.09421145053646],[113.55069247411252,39.09450127788079],[113.550990899789,39.09480336225483],[113.55122332056092,39.095105189856184],[113.55134663012494,39.095437459103834],[113.55131591263739,39.09559680687959],[113.55120618108812,39.09572498217207],[113.550958237272,39.09578831955916],[113.55088077913992,39.095788019665704],[113.55053636827078,39.09596921636102],[113.55011854284257,39.096015174502796],[113.54974578853526,39.09598028989116],[113.54933410040336,39.095839797922864],[113.54908662453039,39.09582854709094],[113.5489214616958,39.09584847960796],[113.54881178918487,39.09596636321636],[113.54883668207769,39.09620308809759],[113.54883572858128,39.09635226148316],[113.54878175514283,39.09653466418703],[113.5485732809977,39.09661872716364],[113.54849076831692,39.096618404762054],[113.54824301653309,39.0966508748725],[113.54814695598579,39.096704512956336],[113.54807697201878,39.09680969164947],[113.5480053234581,39.097174638285935],[113.54799149516117,39.09727232178816],[113.54790700459355,39.09758063186598],[113.54782310388194,39.09779635425519],[113.54760037801397,39.09804239769564],[113.55071722510442,39.098943400166156],[113.55173114759829,39.09923647725705],[113.55303430935095,39.099217538418344],[113.55275285822992,39.09688213703224]]],[[[113.56274735719288,39.073008268502996],[113.56133591810317,39.07163213229697],[113.56144779819101,39.070497187173956],[113.56078920767779,39.06920035919316],[113.55945165661045,39.068156858321316],[113.5590545959564,39.06774834534257],[113.5562848838777,39.06727268757377],[113.55475691326718,39.06730619192002],[113.55348944362848,39.066082276300904],[113.5525490643827,39.065447228538844],[113.55153874393211,39.064992516995154],[113.55091373731733,39.06547928416034],[113.55185692184426,39.0663473187235],[113.55205998026008,39.06648787280992],[113.55304646232192,39.06717070325533],[113.55438142038847,39.06812788136477],[113.55582687877813,39.06892453454352],[113.55595930584626,39.06899752018639],[113.557650665862,39.06990854271155],[113.55811003969401,39.07015596868897],[113.55904593061777,39.070765640546256],[113.5600570218458,39.07151065577232],[113.56017620544678,39.07167087367533],[113.56075895010986,39.07245427875904],[113.56104102229774,39.07273427110707],[113.56148812786249,39.07317807432046],[113.56204168242577,39.07390572087636],[113.56229447852483,39.074512062605784],[113.56241353293422,39.07479762226715],[113.56261900612199,39.075290450324054],[113.56271228503003,39.07561656023217],[113.56286044294765,39.076134561181426],[113.5628530256926,39.07690195073572],[113.5628372851608,39.07702912870668],[113.56271699348218,39.078000950262535],[113.56273191008346,39.078024384833654],[113.56294060936003,39.07835224008889],[113.56366888481925,39.0790486411586],[113.5647083579035,39.079601194037735],[113.56541683758516,39.079750014501656],[113.56618863124828,39.07970563534115],[113.56694560946852,39.07975903682034],[113.56766890912226,39.079810058557],[113.56811452065202,39.079852689377134],[113.5681204652356,39.079853258116515],[113.56999720624668,39.08003278148409],[113.57130386897549,39.08019576370724],[113.5725813750646,39.080523791887224],[113.57325576291022,39.08070071780446],[113.57388409211664,39.08057725194758],[113.57429268387432,39.080212029309514],[113.57458687315315,39.07974757519003],[113.57459191377094,39.07973961711819],[113.57488139694246,39.07910254775724],[113.57494328359364,39.07896635346762],[113.5751452966979,39.07852176878728],[113.5755062901659,39.0780493420601],[113.5762527284337,39.077072478684386],[113.57669742184603,39.07673385055279],[113.57772729827984,39.076053456507964],[113.57942053932625,39.075248786614246],[113.58130533879091,39.07487826425074],[113.58217246680503,39.074557641314065],[113.58287496958168,39.07454208387568],[113.58313428871894,39.074577592193656],[113.58472567619606,39.07349998651359],[113.58507509180859,39.072598161644514],[113.58452287796091,39.07213356774104],[113.5828966877913,39.07157356600014],[113.58129439960122,39.07166866606198],[113.5784935124489,39.0724459223548],[113.57673738922811,39.07308454833593],[113.57391296432931,39.07475254168353],[113.57351079513596,39.07631114613929],[113.5720958145035,39.07735565820746],[113.57074639339984,39.07810068066799],[113.56952383325911,39.078127636406876],[113.56844113317698,39.07779387009808],[113.56780178150309,39.077033095645206],[113.56677392838505,39.0761020595591],[113.56546852149359,39.07595198403872],[113.56407593093246,39.07550578882863],[113.56326659101342,39.07427189469957],[113.56274735719288,39.073008268502996]]],[[[113.57351079513596,39.07631114613929],[113.57391296432931,39.07475254168353],[113.57673738922811,39.07308454833593],[113.57570122725407,39.07346133727058],[113.57328007347932,39.074170468427994],[113.57171880677596,39.07539701969515],[113.57003569071635,39.07537453760822],[113.56895734970037,39.07515989042097],[113.56710847405859,39.074783390288616],[113.56588165467308,39.07469119435187],[113.56508523329151,39.07381465383979],[113.56421242738426,39.072939790098005],[113.56320408013394,39.072544737380234],[113.56234424134537,39.07202720115258],[113.56238401302141,39.071013049329785],[113.56216657114099,39.06922969296996],[113.56151659474278,39.06817109669383],[113.55945165661045,39.068156858321316],[113.56078920767779,39.06920035919316],[113.56144779819101,39.070497187173956],[113.56133591810317,39.07163213229697],[113.56274735719288,39.073008268502996],[113.56326659101342,39.07427189469957],[113.56407593093246,39.07550578882863],[113.56546852149359,39.07595198403872],[113.56677392838505,39.0761020595591],[113.56780178150309,39.077033095645206],[113.56844113317698,39.07779387009808],[113.56952383325911,39.078127636406876],[113.57074639339984,39.07810068066799],[113.5720958145035,39.07735565820746],[113.57351079513596,39.07631114613929]]],[[[113.56679078097036,39.08289661013294],[113.56765277484891,39.08389090522016],[113.5681613810793,39.084433994607],[113.56891232350321,39.08445920251234],[113.56911564581712,39.083739467260834],[113.56908539666881,39.08290567051039],[113.56981496616407,39.081935916069625],[113.57071464000701,39.081439242854465],[113.57255072931738,39.08145834363112],[113.57434071632225,39.08231289972724],[113.57668515563543,39.083691618940925],[113.5785321492138,39.08400841024895],[113.58052547920009,39.08414311993748],[113.58071086942032,39.08503308870827],[113.58203385077952,39.085659448218166],[113.58342675465957,39.086105429889194],[113.5845209759442,39.087452734702595],[113.5860989290662,39.08807275359178],[113.58777147231486,39.087797222751014],[113.58912743619243,39.08723067309824],[113.59002704291929,39.08673385134549],[113.5885315398238,39.08557496486184],[113.58727839152316,39.08476831178728],[113.58609951199445,39.08390039396803],[113.58499490412551,39.082971213572726],[113.58409783281172,39.08144137237118],[113.58335579726025,39.079967695520196],[113.58246748683686,39.078676069279986],[113.58127140129604,39.07733164724914],[113.58047693050199,39.07651476814239],[113.58113204335478,39.075606190429895],[113.58313428871894,39.074577592193656],[113.58287496958168,39.07454208387568],[113.58217246680503,39.074557641314065],[113.58130533879091,39.07487826425074],[113.57942053932625,39.075248786614246],[113.57772729827984,39.076053456507964],[113.57669742184603,39.07673385055279],[113.5762527284337,39.077072478684386],[113.5755062901659,39.0780493420601],[113.5751452966979,39.07852176878728],[113.57494328359364,39.07896635346762],[113.57488139694246,39.07910254775724],[113.57459191377094,39.07973961711819],[113.57458687315315,39.07974757519003],[113.57429268387432,39.080212029309514],[113.57388409211664,39.08057725194758],[113.57325576291022,39.08070071780446],[113.5725813750646,39.080523791887224],[113.57130386897549,39.08019576370724],[113.56999720624668,39.08003278148409],[113.5681204652356,39.079853258116515],[113.56811452065202,39.079852689377134],[113.56766890912226,39.079810058557],[113.56694560946852,39.07975903682034],[113.56618863124828,39.07970563534115],[113.56541683758516,39.079750014501656],[113.5647083579035,39.079601194037735],[113.56366888481925,39.0790486411586],[113.56294060936003,39.07835224008889],[113.56273191008346,39.078024384833654],[113.56271699348218,39.078000950262535],[113.5628372851608,39.07702912870668],[113.5628530256926,39.07690195073572],[113.56286044294765,39.076134561181426],[113.56271228503003,39.07561656023217],[113.56261900612199,39.075290450324054],[113.56241353293422,39.07479762226715],[113.56229447852483,39.074512062605784],[113.56204168242577,39.07390572087636],[113.56148812786249,39.07317807432046],[113.56104102229774,39.07273427110707],[113.56075895010986,39.07245427875904],[113.56017620544678,39.07167087367533],[113.5600570218458,39.07151065577232],[113.55904593061777,39.070765640546256],[113.55811003969401,39.07015596868897],[113.557650665862,39.06990854271155],[113.55595930584626,39.06899752018639],[113.55582687877813,39.06892453454352],[113.55438142038847,39.06812788136477],[113.55304646232192,39.06717070325533],[113.55205998026008,39.06648787280992],[113.55185692184426,39.0663473187235],[113.55091373731733,39.06547928416034],[113.55020006712834,39.06603509220311],[113.55137606091108,39.0668438139227],[113.55584680676077,39.06996449532795],[113.5562211982788,39.07186362580908],[113.55448417963316,39.074583904151865],[113.55371672411114,39.076627267258246],[113.55407052769738,39.08007656456312],[113.55465482813516,39.081434659551704],[113.55699025199068,39.08257554425143],[113.5593106826758,39.08329948234871],[113.56137821761854,39.08337328279961],[113.56472756737314,39.082942018959926],[113.56679078097036,39.08289661013294]]],[[[113.55915851306466,39.09590200293317],[113.55885361044044,39.095828134809096],[113.5584152178609,39.09585290112511],[113.55808759698687,39.09579657138986],[113.55769862130948,39.09560340782739],[113.55734296514156,39.09525129320868],[113.55765750287402,39.095008575527736],[113.55810298815706,39.09484928250665],[113.55875547351174,39.09462735786508],[113.55895905966743,39.09450812035564],[113.5591192165375,39.0944962005507],[113.5594019492971,39.09449727255117],[113.55983797255452,39.09439978551571],[113.56011031336497,39.094253207018156],[113.56024116345243,39.09412591664469],[113.56032424623056,39.09394997122383],[113.56041896472584,39.09372119269925],[113.56042027212882,39.09350968378053],[113.56036317360437,39.09314372634757],[113.56038033656435,39.09265687123971],[113.56052466556692,39.09217931193106],[113.56077257301295,39.09186849156135],[113.56106802367495,39.091640471945354],[113.56149381300675,39.09136667852695],[113.56182493619895,39.09120126609849],[113.5618965292166,39.09116550171287],[113.56233317113923,39.09096445285483],[113.56272461484937,39.090756624497416],[113.56329085141954,39.09062877351509],[113.56390380708787,39.09048285834593],[113.56406205907977,39.09041784615222],[113.56418048486812,39.09036919555023],[113.56441779460393,39.09017532969163],[113.56457806780196,39.090042111428424],[113.56466153557426,39.08993249715036],[113.56470663679826,39.089828712866016],[113.56469489469507,39.08974383188279],[113.56466327730064,39.08964931812821],[113.56454896876194,39.08953895957122],[113.56429348250184,39.0894483828982],[113.56411833054034,39.08943090448904],[113.56343345047317,39.088926459704766],[113.56375367308385,39.087872013418576],[113.56408946262404,39.08676627542438],[113.56552046327748,39.08573343940373],[113.56506523046366,39.08494986630874],[113.56502381050045,39.08380637107845],[113.56583615748085,39.08343086824051],[113.56666921959867,39.08362710650847],[113.56688370559841,39.08448068857269],[113.56771094442009,39.08539911395908],[113.57009518149164,39.08534657767531],[113.57074549183207,39.08468169906374],[113.57034756145814,39.08383216583417],[113.57040813074134,39.082972524497066],[113.57084845944455,39.082462136247855],[113.57174726772854,39.08194163237128],[113.57313830108384,39.082340090422164],[113.57435894591038,39.0830999239275],[113.57521282108829,39.08386784764743],[113.57581799086311,39.085081690993675],[113.57707101392431,39.08588846630741],[113.57895627060164,39.08585934298823],[113.5801457898714,39.08576149836123],[113.58182768842163,39.08658257341161],[113.5845209759442,39.087452734702595],[113.58342675465957,39.086105429889194],[113.58203385077952,39.085659448218166],[113.58071086942032,39.08503308870827],[113.58052547920009,39.08414311993748],[113.5785321492138,39.08400841024895],[113.57668515563543,39.083691618940925],[113.57434071632225,39.08231289972724],[113.57255072931738,39.08145834363112],[113.57071464000701,39.081439242854465],[113.56981496616407,39.081935916069625],[113.56908539666881,39.08290567051039],[113.56911564581712,39.083739467260834],[113.56891232350321,39.08445920251234],[113.5681613810793,39.084433994607],[113.56765277484891,39.08389090522016],[113.56679078097036,39.08289661013294],[113.56472756737314,39.082942018959926],[113.56137821761854,39.08337328279961],[113.5593106826758,39.08329948234871],[113.55699025199068,39.08257554425143],[113.55465482813516,39.081434659551704],[113.55407052769738,39.08007656456312],[113.55371672411114,39.076627267258246],[113.55448417963316,39.074583904151865],[113.5562211982788,39.07186362580908],[113.55488030964801,39.07284669652483],[113.55333593449032,39.074549458962615],[113.55098449469924,39.0750777781163],[113.55082606372642,39.07704818589636],[113.55113681706628,39.079306345399694],[113.5514497362257,39.08162406135415],[113.55179831508694,39.08280851496346],[113.55326738518318,39.08325318292366],[113.55576857526852,39.084748088059726],[113.55929668712673,39.08502831602667],[113.56144284488732,39.08515999520831],[113.55967355848033,39.08731294933056],[113.5587446582703,39.08912146895853],[113.55605795662517,39.090968526263495],[113.55421395170444,39.09285666587049],[113.55398558061567,39.095007415880865],[113.55275285822992,39.09688213703224],[113.55303430935095,39.099217538418344],[113.55839098520048,39.09913953827096],[113.55961720851974,39.09806955083888],[113.55946352593843,39.09777593179292],[113.55946501066036,39.09753798631261],[113.55946650348868,39.09729783604012],[113.55950490075045,39.09703359253656],[113.55950673431184,39.096738362826606],[113.55950844740569,39.09646296280203],[113.55949851184405,39.096242598805205],[113.55938090083936,39.09605928024187],[113.55915851306466,39.09590200293317]]],[[[113.66035608291914,39.04268898359712],[113.66052868805076,39.04207466519721],[113.6605453057468,39.04154020590574],[113.66056478689988,39.041081978103826],[113.66057216303626,39.04087104836747],[113.66034817229472,39.040524234038294],[113.65988534224157,39.04024868776526],[113.65916270389054,39.03989323773663],[113.65900853825002,39.03973656194092],[113.65894717658719,39.03936407790288],[113.65871150663378,39.038949822000646],[113.65832272043335,39.03869165520729],[113.65788541866391,39.038444131278325],[113.65720490159362,39.03818501537291],[113.65711679707722,39.03811212456512],[113.65498885485813,39.03741555538487],[113.65402871948338,39.037288417661514],[113.65171549541084,39.036745030716816],[113.65035684836597,39.03617988191538],[113.64820677002754,39.034887628019376],[113.64496694186349,39.035110258187004],[113.64405071185392,39.03387597676555],[113.64279442184645,39.03218350956623],[113.64189587774153,39.032680748864735],[113.63978443058159,39.033443902301634],[113.63800499279822,39.034914777389716],[113.63894795829117,39.03560869839594],[113.64129656999613,39.037105240726206],[113.64347921529966,39.03824786504189],[113.64412511524647,39.0388092108832],[113.64745931674936,39.03966491418996],[113.64941787696515,39.039715756225036],[113.65142880250518,39.03966801638161],[113.65219247219946,39.03965063149117],[113.6530503517201,39.04010795239189],[113.65414626933206,39.040798272819615],[113.65473353654313,39.041172336229394],[113.65495347133954,39.041942215323985],[113.65463658770416,39.04266472011418],[113.65417522575058,39.0426593382694],[113.65321152306416,39.042789193413014],[113.65268976394131,39.04285949533447],[113.65244082271967,39.04326791155134],[113.65210545601285,39.044110042913516],[113.65176740456246,39.04488070683137],[113.65168800757836,39.04602696665426],[113.65330335063075,39.046705472286824],[113.65396610970991,39.04807325699683],[113.65463603603257,39.049631617673676],[113.6550608973113,39.05200508277675],[113.65566127526078,39.05202114085541],[113.65668557674286,39.05242696128074],[113.65923821394505,39.05328730950957],[113.6592135603566,39.05263021627815],[113.65914802102142,39.051937743233275],[113.65910797480697,39.05151464642711],[113.65909710268224,39.0513998022212],[113.65919952513899,39.05038359618256],[113.659644441701,39.04926935978561],[113.65970661575142,39.049113647976924],[113.65990621391171,39.048613753946604],[113.65997147239389,39.04852957017339],[113.66040894112001,39.04796523672852],[113.66057656370658,39.047749001243375],[113.66060083173964,39.04769366225475],[113.66080908910574,39.04721878667317],[113.66084288763317,39.047141718247346],[113.66096499185984,39.04686328815566],[113.66106428763432,39.04576493538163],[113.66108824996967,39.0445313209022],[113.66068180680372,39.04419794975877],[113.66042381906483,39.04384143114263],[113.66043251339136,39.043421597684464],[113.66036646031293,39.04296532324002],[113.66035608291914,39.04268898359712]]],[[[113.65210545601285,39.044110042913516],[113.65244082271967,39.04326791155134],[113.65268976394131,39.04285949533447],[113.65247166801382,39.04288888033383],[113.65100194808579,39.04320310095092],[113.65016124483532,39.04524886201686],[113.65003968679133,39.046086124123285],[113.65283821227669,39.047333785968256],[113.65336338254446,39.04911003262842],[113.6534347663654,39.0510158270027],[113.6538843625285,39.05197360353926],[113.6550608973113,39.05200508277675],[113.65463603603257,39.049631617673676],[113.65396610970991,39.04807325699683],[113.65330335063075,39.046705472286824],[113.65168800757836,39.04602696665426],[113.65176740456246,39.04488070683137],[113.65210545601285,39.044110042913516]]]]},"properties":{"code":"SXOR-O03","name_short":"忻州五台山高山草甸","merged":true,"area_km2":33.296}}]}