{"type":"FeatureCollection","features":[{"type":"Feature","geometry":{"type":"MultiPolygon","coordinates":[[[[113.58301527935197,37.11029993887239],[113.59281637041258,37.109728364445644],[113.59631970922199,37.10774492903002],[113.59878212946234,37.10578422517302],[113.60483881187068,37.100169412507476],[113.61424811596521,37.09257366946227],[113.61500123762882,37.0915628497135],[113.61541661041947,37.09106724221467],[113.61417034736627,37.090311154984015],[113.61159841694395,37.08905698746209],[113.60645888585206,37.08666755668909],[113.6054814059919,37.08418647215854],[113.5994546832275,37.08193539746226],[113.59374585160487,37.080272905850755],[113.59068816205766,37.077837192141445],[113.59356320015077,37.07491421753211],[113.59174330102489,37.073881486746615],[113.58909126507665,37.070245143795724],[113.58568839280822,37.06638677324699],[113.5831653131125,37.06215161526577],[113.58316846395965,37.05786137873275],[113.58031307414981,37.05697019034408],[113.5771847648945,37.05679989355891],[113.57417284598635,37.05567361437451],[113.57110490251655,37.057289421731845],[113.56871950979463,37.05710278665304],[113.56420181337629,37.05541300863995],[113.55927058509366,37.05468535855382],[113.55690128300307,37.05497482446353],[113.55400552267088,37.0573015134237],[113.55202108972732,37.06020437903264],[113.55043842532211,37.0617876768071],[113.54895246508849,37.06181963638715],[113.5485875102772,37.059801554970676],[113.54757643177247,37.05624811772832],[113.54636114104873,37.05103064163093],[113.54645526107676,37.04495082310211],[113.54287930953421,37.04026066317091],[113.54051202609222,37.0361403592659],[113.54181877097017,37.0307495782954],[113.54014293038055,37.02506518456054],[113.5355168638284,37.02003973443061],[113.53055653554055,37.018358077774764],[113.52743379817942,37.01830549184655],[113.52059426558075,37.01821270132623],[113.516064171058,37.0160445903154],[113.51139366205184,37.01411762135677],[113.50785296946943,37.01490758401862],[113.50433566198491,37.01641199167765],[113.49656191664823,37.019555235495204],[113.49342298344507,37.0235540186933],[113.49325444391981,37.027490310675105],[113.4962602479022,37.02849964566225],[113.49841392560853,37.030718598426354],[113.50118145287183,37.03352043301731],[113.50158017443998,37.03661054224612],[113.50924650548201,37.03918955754609],[113.51238189428209,37.03959986100091],[113.51559987528381,37.042510969699784],[113.51733636230732,37.04557262186405],[113.51990928475907,37.046948046556565],[113.52240076360209,37.0503510886058],[113.52669127197557,37.05419243790196],[113.5305403993947,37.058162217516895],[113.53258298320658,37.061455434954894],[113.53416012043779,37.064162700923355],[113.53517070479859,37.067716268015936],[113.53521433289997,37.0690262318853],[113.53294948884901,37.06800209479768],[113.53166951718416,37.065288469652714],[113.52934152925096,37.06235884695129],[113.52732277144308,37.05978010091891],[113.52467820789506,37.056261262566494],[113.52018393009877,37.05075574981101],[113.5166722022768,37.047970186105815],[113.5114171746794,37.04641318468237],[113.50867623858565,37.04444525991865],[113.49894903371948,37.04250553649714],[113.49630608830647,37.04351459711332],[113.49432362828813,37.04653566359518],[113.4893220479904,37.05271864379831],[113.48738576213597,37.05716871420477],[113.4892506393781,37.05963222260446],[113.49623865725438,37.059604464639605],[113.4984088977363,37.06229973913746],[113.501357476243,37.061522522749215],[113.50670748985964,37.06593810327573],[113.50681337251348,37.06915354005109],[113.50720474716415,37.072005416906066],[113.51027928265766,37.075038845556584],[113.51321330139339,37.078313514270086],[113.51498507981313,37.07791841562885],[113.51519968405947,37.07541123372315],[113.51659931226175,37.07275972437855],[113.51756671655161,37.07351790500137],[113.52198341449309,37.075991282805326],[113.52222677321254,37.077647276270014],[113.51927821414274,37.07967318457127],[113.516839651317,37.08002702049409],[113.51138742661938,37.08044469921967],[113.50496312254384,37.07423796655403],[113.50029927900736,37.07569557915145],[113.49968902087444,37.07423804980446],[113.49957388127089,37.07390892731635],[113.50112231415669,37.07350682881588],[113.50030838353788,37.07181982192197],[113.50057064159427,37.07176105957982],[113.50192719090671,37.07144225513409],[113.5027735907335,37.07306678660646],[113.50371812015726,37.07284424629846],[113.50356300196968,37.072395062291406],[113.50336210472618,37.07140248044684],[113.50442257685852,37.0692658524688],[113.50398139057508,37.067311960762346],[113.5010474949703,37.064051534214705],[113.49858951148511,37.06380133213392],[113.4956457514481,37.065977571952786],[113.49274629949005,37.06951195906179],[113.49047154702033,37.069106721400026],[113.4848031463044,37.062882959877854],[113.48336682434415,37.05928864537916],[113.4814493565106,37.058271674309],[113.47298552990543,37.05875055875417],[113.46607200369037,37.06055576149283],[113.46166965563,37.06427167918596],[113.46276259402295,37.06893052681403],[113.46447935233573,37.07538859974865],[113.46446206149743,37.0806745662848],[113.46067244355669,37.085887888416806],[113.45851438533205,37.089104035166365],[113.46067934021664,37.09192843466117],[113.46503909692476,37.09848258423823],[113.46897867873385,37.103686161086436],[113.47026609799225,37.108491862102575],[113.47250213393698,37.110712785916824],[113.47640523053835,37.11120377293409],[113.49861609674025,37.11389729674059],[113.49988783335512,37.11184453841902],[113.50705680806881,37.112646455610545],[113.5188316788788,37.113230942388846],[113.52154383704864,37.11424580559226],[113.52114514215575,37.11568435402321],[113.53727269167895,37.11736601593094],[113.548120177594,37.116894884844115],[113.55931330807499,37.113436019187404],[113.56861266863697,37.111208885052264],[113.58301527935197,37.11029993887239]]],[[[113.53724460703145,37.179822015695656],[113.53722746505295,37.17983182443774],[113.53753447768617,37.179748976400155],[113.53724460703145,37.179822015695656]]],[[[113.53724460703145,37.179822015695656],[113.55388488867649,37.17029762666378],[113.5654953883155,37.16134725054955],[113.56981786335659,37.157082584752125],[113.57203688012974,37.15226761228127],[113.573845044022,37.144124762039496],[113.57515888641534,37.13897188622585],[113.58084148688582,37.13098298182221],[113.5887805662678,37.11936942465387],[113.59352519686323,37.11449885262811],[113.59287669135009,37.11311160491013],[113.5921122841975,37.11164108438839],[113.58815835686741,37.11298595585424],[113.58103472861376,37.113541759603386],[113.5728981900333,37.1137187208544],[113.56201845675119,37.11515571382538],[113.5552800559514,37.116559673105364],[113.5511244507126,37.118308084878144],[113.54515540373559,37.119237289327096],[113.54350868910866,37.119272651621],[113.54350111511955,37.1204689440746],[113.53835654558,37.12042673361655],[113.53832835504811,37.1191081261843],[113.52540107125091,37.11805832069026],[113.51063998219152,37.116655938879376],[113.48153246541503,37.11337931587273],[113.47458456089188,37.11278097699806],[113.47411841208624,37.1138203678989],[113.47601090967909,37.11709861794228],[113.48046036620418,37.119922910526],[113.48407220145904,37.123336623861974],[113.48701163323244,37.128022800066184],[113.48834701721172,37.13171294571416],[113.49001516555644,37.134652442276135],[113.49137333654635,37.139028500386075],[113.49325035753814,37.14179194321118],[113.49317506561819,37.14602652613793],[113.49371807259956,37.14950445792748],[113.49304338853692,37.15071991522387],[113.49475352318098,37.15274320305421],[113.49633972358677,37.15534110137861],[113.49980915272161,37.15652638374596],[113.50347785359244,37.15724973021449],[113.5088251583802,37.15902426307561],[113.51485528313037,37.16198530059918],[113.51948703142897,37.16371732992133],[113.52420182211898,37.16579061701917],[113.52745975429575,37.167036781456424],[113.53038735168847,37.16909074135122],[113.53182653472906,37.171519668732245],[113.53226194245508,37.17385564051387],[113.53274208554848,37.17538982627585],[113.53306332523843,37.17858626374676],[113.53431596295705,37.17970349957489],[113.53604576082097,37.18012408101687],[113.53724460703145,37.179822015695656]]],[[[113.58594844338131,37.05631112985961],[113.58317577008303,37.05522753154869],[113.58037735059196,37.0533817292248],[113.5784589794015,37.04941930109285],[113.57576685719535,37.047189721881615],[113.57166171681745,37.04889957008206],[113.56874173719426,37.04696078125945],[113.56432196268982,37.04286159811849],[113.56074735341815,37.03912534143102],[113.55660449089348,37.03616392601673],[113.55356728279874,37.03069976495352],[113.55123388236477,37.024934362030066],[113.55105219217623,37.019503991530385],[113.5483289885258,37.00917065371967],[113.5461759257722,37.00521267483564],[113.5441927031049,37.00277642592615],[113.53602344004695,37.000186538827975],[113.52362276428404,36.99902091984935],[113.5137387512481,36.998468067806805],[113.50936888947184,36.999323303184376],[113.50650257372688,37.002530102688546],[113.50146961893213,37.00492449107597],[113.49743066190857,37.00500959798036],[113.49170001592161,37.00789496346008],[113.48870139386977,37.010722766550835],[113.48480882583958,37.01166243345684],[113.47994711767163,37.012050201833475],[113.4750221882587,37.01415520871071],[113.470849982961,37.01748375494767],[113.46929454532396,37.02085304502887],[113.46750132630763,37.02422726366323],[113.46552750107527,37.02569841211415],[113.46219225010934,37.029199940917664],[113.46041698773641,37.03314572259758],[113.46263614630246,37.035578495763104],[113.4675611719145,37.03709689052022],[113.47038109733346,37.03970768769524],[113.469410252168,37.04277877759028],[113.46828343616387,37.04470903046435],[113.46328832606919,37.0447175662362],[113.45839976258692,37.04434232337238],[113.45687304370857,37.04494600553589],[113.45655640293265,37.04619198393775],[113.45385942291247,37.04739190709502],[113.45128735270372,37.0487798672363],[113.44769129826582,37.051619014132996],[113.44798109352533,37.05323380943597],[113.45078873914616,37.05546396340551],[113.45211784716629,37.05610386018527],[113.45473006197433,37.05595446533591],[113.4580647427574,37.05607605489159],[113.45978132225356,37.057661226564626],[113.46367040162339,37.056531739958906],[113.46888241808286,37.05585128323678],[113.46952004479193,37.05717275616472],[113.47291487496284,37.0554812256424],[113.47533260802919,37.05667018346],[113.48039149303149,37.05494368749675],[113.48563430403952,37.055215243145476],[113.48762931831293,37.05152693991679],[113.4873415079077,37.04840466203812],[113.48445373169604,37.04533688803225],[113.47887744649026,37.04530463036856],[113.4789047086832,37.042896254357316],[113.48380923390866,37.0426689734681],[113.48541262152732,37.040549828671374],[113.48740407742123,37.039572068143336],[113.48514721639032,37.03578725237603],[113.48562378858622,37.03562946803817],[113.4873873475147,37.03496037959895],[113.48821269748888,37.036075494493275],[113.4885551412272,37.036580481085515],[113.48888343923217,37.03707412281103],[113.48963468978647,37.03632045435961],[113.49179049026408,37.03669178714511],[113.49477130496412,37.03692704837037],[113.49406808216419,37.032472814974156],[113.49325444391981,37.027490310675105],[113.49342298344507,37.0235540186933],[113.49656191664823,37.019555235495204],[113.50433566198491,37.01641199167765],[113.50785296946943,37.01490758401862],[113.51139366205184,37.01411762135677],[113.516064171058,37.0160445903154],[113.52059426558075,37.01821270132623],[113.52743379817942,37.01830549184655],[113.53055653554055,37.018358077774764],[113.5355168638284,37.02003973443061],[113.54014293038055,37.02506518456054],[113.54181877097017,37.0307495782954],[113.54051202609222,37.0361403592659],[113.54287930953421,37.04026066317091],[113.54645526107676,37.04495082310211],[113.54636114104873,37.05103064163093],[113.54757643177247,37.05624811772832],[113.5485875102772,37.059801554970676],[113.54895246508849,37.06181963638715],[113.55043842532211,37.0617876768071],[113.55202108972732,37.06020437903264],[113.55400552267088,37.0573015134237],[113.55690128300307,37.05497482446353],[113.55927058509366,37.05468535855382],[113.56420181337629,37.05541300863995],[113.56871950979463,37.05710278665304],[113.57110490251655,37.057289421731845],[113.57417284598635,37.05567361437451],[113.5771847648945,37.05679989355891],[113.58031307414981,37.05697019034408],[113.58316846395965,37.05786137873275],[113.5831653131125,37.06215161526577],[113.58568839280822,37.06638677324699],[113.58909126507665,37.070245143795724],[113.59174330102489,37.073881486746615],[113.59356320015077,37.07491421753211],[113.59068816205766,37.077837192141445],[113.59374585160487,37.080272905850755],[113.5994546832275,37.08193539746226],[113.6054814059919,37.08418647215854],[113.60645888585206,37.08666755668909],[113.61159841694395,37.08905698746209],[113.61417034736627,37.090311154984015],[113.61541661041947,37.09106724221467],[113.6156728466081,37.09076150633573],[113.61620944584732,37.09002038179704],[113.61673763937058,37.08859055741603],[113.61702409444574,37.08754980894535],[113.61765996487145,37.08587648639225],[113.61802271625307,37.08564727789667],[113.61819083210153,37.08534563900096],[113.61822142681552,37.084947157929335],[113.61821339379972,37.08461820348568],[113.6182007348359,37.084500931844225],[113.61543451422638,37.08359782098071],[113.61146814101453,37.08244591253896],[113.6039689512788,37.07889279223524],[113.59935317114056,37.07613401445576],[113.59668410170269,37.07113967709074],[113.59659635221003,37.068567509187666],[113.59600061132669,37.06505309872694],[113.59701851217406,37.06350541546703],[113.59285995411918,37.06016432002061],[113.59052038984123,37.05783204414315],[113.58594844338131,37.05631112985961]]],[[[113.46166965563,37.06427167918596],[113.4588990831218,37.0634952415596],[113.45582029077632,37.063940417358104],[113.45068046402365,37.06318872080367],[113.44856805449899,37.064090427317794],[113.4529769995252,37.068003546993275],[113.45651206593344,37.074318092213375],[113.45410508032327,37.080851029490496],[113.44980030363433,37.08389560142679],[113.44757515599758,37.08870854335365],[113.45108546590242,37.0905427892238],[113.45792914404203,37.09240318324147],[113.46069054642214,37.09682682034402],[113.46598723173997,37.1023417230973],[113.46770982532759,37.107740178163],[113.46935610829931,37.110316615962354],[113.47250223967941,37.11071289000902],[113.47250213393698,37.110712785916824],[113.47026609799225,37.108491862102575],[113.46897867873385,37.103686161086436],[113.46503909692476,37.09848258423823],[113.46067934021664,37.09192843466117],[113.45851438533205,37.089104035166365],[113.46067244355669,37.085887888416806],[113.46446206149743,37.0806745662848],[113.46447935233573,37.07538859974865],[113.46276259402295,37.06893052681403],[113.46166965563,37.06427167918596]]],[[[113.53724460703145,37.179822015695656],[113.53753447768617,37.179748976400155],[113.53722746505295,37.17983182443774],[113.53724460703145,37.179822015695656],[113.53604576082097,37.18012408101687],[113.53431596295705,37.17970349957489],[113.53306332523843,37.17858626374676],[113.53274208554848,37.17538982627585],[113.53226194245508,37.17385564051387],[113.53182653472906,37.171519668732245],[113.53038735168847,37.16909074135122],[113.52745975429575,37.167036781456424],[113.52420182211898,37.16579061701917],[113.51948703142897,37.16371732992133],[113.51485528313037,37.16198530059918],[113.5088251583802,37.15902426307561],[113.50347785359244,37.15724973021449],[113.49980915272161,37.15652638374596],[113.49633972358677,37.15534110137861],[113.49475352318098,37.15274320305421],[113.49304338853692,37.15071991522387],[113.49371807259956,37.14950445792748],[113.49317506561819,37.14602652613793],[113.49325035753814,37.14179194321118],[113.49137333654635,37.139028500386075],[113.49001516555644,37.134652442276135],[113.48834701721172,37.13171294571416],[113.48701163323244,37.128022800066184],[113.48407220145904,37.123336623861974],[113.48046036620418,37.119922910526],[113.47601090967909,37.11709861794228],[113.47411841208624,37.1138203678989],[113.47458456089188,37.11278097699806],[113.4745094505117,37.1127063826762],[113.467859831011,37.11202664715779],[113.46251320743075,37.11166315148054],[113.45849435835125,37.11162742636718],[113.45884570559036,37.113288567063606],[113.46060101608352,37.116946509725864],[113.46486739851794,37.12460410292393],[113.46582548501296,37.126610111230406],[113.46964058099363,37.129509976695736],[113.472063014241,37.13077035865971],[113.47363186316615,37.1332402444331],[113.47769457608436,37.13458541979974],[113.48161256858724,37.13605265744137],[113.48609841897833,37.13667363898539],[113.48783611212863,37.1397356440763],[113.49011008052824,37.14552731214178],[113.49107669181365,37.152299805240474],[113.49177738891986,37.155502714502504],[113.49440461570417,37.158426715131334],[113.50059531185065,37.16103712594999],[113.50765166440691,37.162794678806044],[113.51308729167575,37.16506289220413],[113.52051707156359,37.16907599280354],[113.5262828733706,37.17228992527435],[113.52741983419803,37.1751257666738],[113.52755083447543,37.17905560955701],[113.53206570708153,37.184917687655506],[113.53432863155994,37.19023194800674],[113.53677000811953,37.191967222337446],[113.54069718197107,37.1891420982711],[113.54807940633748,37.187195906368025],[113.55778635750423,37.18353068394073],[113.56474120057288,37.18218854604968],[113.57400825921074,37.178769877430206],[113.57712447785639,37.17405448158963],[113.57936370450108,37.169834790733624],[113.58369799498185,37.16592687773309],[113.59116687172032,37.15789850703631],[113.59274469808099,37.15178632801078],[113.5921723088009,37.148104596456164],[113.59034901239856,37.14266267521561],[113.59188767844263,37.13976894126831],[113.59693076480352,37.13489169783397],[113.60011318967574,37.13220015551041],[113.60366807736507,37.12735528968898],[113.60762368465515,37.12119063506467],[113.60850517421704,37.11652361076337],[113.60405831498002,37.11268882237697],[113.60156514973366,37.10940682879519],[113.59800489512058,37.109723283882815],[113.5921122841975,37.11164108438839],[113.59287669135009,37.11311160491013],[113.59352519686323,37.11449885262811],[113.5887805662678,37.11936942465387],[113.58084148688582,37.13098298182221],[113.57515888641534,37.13897188622585],[113.573845044022,37.144124762039496],[113.57203688012974,37.15226761228127],[113.56981786335659,37.157082584752125],[113.5654953883155,37.16134725054955],[113.55388488867649,37.17029762666378],[113.53724460703145,37.179822015695656]]],[[[113.5533574023796,37.006200052389154],[113.55164623992475,37.004953783895594],[113.54903883345118,37.003054640749056],[113.54852593272031,37.002681043326824],[113.5475652800217,37.00225188726845],[113.54708409992584,37.00208107721083],[113.54661083869793,37.00206872854459],[113.54594659442486,37.001972917933465],[113.54569457215875,37.00176196707943],[113.54494557407075,37.001134504108414],[113.54456520993016,37.00065025223541],[113.5445613004792,37.00064527430504],[113.54442085932509,37.000466472183085],[113.54441868274172,37.00040119479471],[113.54425441926627,37.00010916846832],[113.54433102069615,36.9995545611117],[113.54431372811034,36.99943862244914],[113.54425447810101,36.99904137445707],[113.54422894269574,36.998631966283185],[113.54447913853735,36.998292914059],[113.54460502982059,36.99814720594727],[113.54488596647639,36.998017238616306],[113.54512396241793,36.99766891326953],[113.54505277714442,36.997534487358784],[113.54488140614968,36.9973856218779],[113.54468691550649,36.997256320083046],[113.54476561234185,36.99712115775093],[113.544853643566,36.99690952406081],[113.54490286597948,36.99660338474803],[113.5450345136211,36.996412362287245],[113.54491486715725,36.99625037351098],[113.54476503115386,36.99603430916202],[113.54468709584296,36.99583577024509],[113.54443620609527,36.995440729446074],[113.54409530132268,36.995242268528834],[113.54406833908348,36.99478998745362],[113.54429243067841,36.99455954625674],[113.54440737549186,36.99426391458425],[113.5444597068054,36.99392205266699],[113.54445256091671,36.9937076934268],[113.54439018670492,36.993554366707855],[113.54246999204948,36.993276272649105],[113.54179184527074,36.993185139423574],[113.54149099652938,36.99314470831224],[113.54087148590345,36.99310077587314],[113.5395539199302,36.99317691807629],[113.53804315547089,36.993495267000604],[113.53700556527735,36.99374627431359],[113.53669594659145,36.993915453420705],[113.53637890686082,36.993928741893384],[113.53572077121632,36.994154531011525],[113.535470635894,36.9941384267379],[113.53527194025393,36.99379230234724],[113.53504438545473,36.99338244112088],[113.53494178084341,36.99297706030635],[113.53489969798879,36.99260908975238],[113.53437745455476,36.99191474023704],[113.53367784117903,36.99160553119834],[113.53293198869801,36.991335442198526],[113.53222985785989,36.990950007723896],[113.53140517370498,36.990452776615506],[113.5307036960633,36.989878369607325],[113.52873859966786,36.98970944862379],[113.52766771231467,36.989890439779856],[113.52244495841062,36.99077299075327],[113.51704190456671,36.99181730862237],[113.51406501987523,36.99345353176443],[113.5107737462097,36.9936662450326],[113.50816927163105,36.99307779773948],[113.50664786815608,36.99289544015856],[113.50466938859356,36.997799543623564],[113.50201782740871,37.001216217060424],[113.49491131042255,37.004726617895344],[113.48637387728276,37.00812359504294],[113.48380628126122,37.008677922068735],[113.47973638405449,37.00690394869483],[113.47502908690447,37.00471410439337],[113.47346812550917,37.00331656349581],[113.47569648281079,37.000552886218344],[113.478707904253,36.9972007703802],[113.48111871127728,36.994576192903885],[113.48356422888749,36.99302341716482],[113.48411804039341,36.99086667224188],[113.48331940133302,36.988237706903725],[113.48199799828964,36.98597719631463],[113.48219088426183,36.98368499853859],[113.48184703045291,36.98133252372342],[113.48042977233182,36.97885948092071],[113.48033230707742,36.97585830093575],[113.47984150537015,36.971721256902875],[113.48081505238939,36.968769191580385],[113.48118374132751,36.96640180955195],[113.48065033204612,36.96369575968993],[113.47989388809997,36.962352969538756],[113.4796276895443,36.95964132816475],[113.48152631371487,36.9577425026308],[113.4829138246093,36.95656939662542],[113.48431290527913,36.95575355847722],[113.48500430398062,36.955095534893914],[113.48533489717853,36.954302053579156],[113.48412168946194,36.95261132522642],[113.48342416451291,36.95033775096734],[113.48323301265664,36.94719551180121],[113.48178162009461,36.94365059680657],[113.48047965039072,36.94196168060375],[113.48085290395385,36.93973720816288],[113.48137867465383,36.93672298490314],[113.4821644925139,36.93348880410258],[113.48265682612075,36.9321914079594],[113.48287747603574,36.93075668096322],[113.48283805356607,36.92954191046921],[113.48281950373746,36.928970253114464],[113.48058968626096,36.9288738585415],[113.47835755732844,36.928705963759434],[113.47662709682604,36.927526482059776],[113.47324610192474,36.92487975024106],[113.47122341783844,36.92291970888569],[113.46951394989249,36.9223832347238],[113.46728663113088,36.922358039235355],[113.46567541028018,36.92210549020858],[113.46405039461085,36.92142416971641],[113.46286810155354,36.92066213698503],[113.4628060186274,36.91873276278193],[113.46256365193415,36.91673562078614],[113.46267727053697,36.91473109496127],[113.46208816018992,36.9130271668685],[113.45933175829504,36.91315580072918],[113.45629690793477,36.912932600701176],[113.45457630410588,36.912038603465994],[113.45124021785281,36.910748906113625],[113.44767839995215,36.91075088094338],[113.44568184798602,36.90957641459295],[113.44350738380639,36.90840557582037],[113.4401695281991,36.90425533730872],[113.4363757913148,36.89975681809425],[113.43524477287659,36.89872170407452],[113.43477479568418,36.89857317131517],[113.43358827239717,36.89774155900058],[113.43207059298628,36.89550827312715],[113.43120682700253,36.89400644212124],[113.43003425652603,36.89212359494267],[113.42970880581458,36.89167014608172],[113.42754641389327,36.890856285868296],[113.42535669145103,36.89095630577227],[113.4240621046193,36.89123859450555],[113.42352035158852,36.890998185768105],[113.42257689009861,36.890388174640755],[113.42252004486832,36.88992612826555],[113.420977315131,36.88863065581595],[113.41857075817452,36.88853667573616],[113.41666418683893,36.88735986910532],[113.41427343162454,36.88776602947416],[113.41105596217051,36.8901911266472],[113.40979113090921,36.892433517376666],[113.40646863783725,36.89436007560077],[113.40304130882484,36.89578811379641],[113.40104866178402,36.89754459185461],[113.39872238832415,36.90002284794842],[113.39437880572348,36.906331634460706],[113.38987861059289,36.91049820544327],[113.38752930817184,36.91226164075792],[113.38485730357648,36.91510412137935],[113.383651390284,36.91641546807839],[113.38289933779897,36.9180037227982],[113.38419877434117,36.91969380732288],[113.3889362156855,36.92310242480511],[113.3946885280937,36.92477421104266],[113.40125337790785,36.92678681489012],[113.4047584547572,36.92778846912581],[113.40837737191794,36.92957428163016],[113.41095304881735,36.93216774616525],[113.41217108879786,36.93407368150146],[113.41315594816604,36.93705694140779],[113.41584815821214,36.94050599899443],[113.41913217157709,36.94294184130702],[113.42462855404573,36.944903376430986],[113.43114317974829,36.94805940450233],[113.43548048538123,36.94997265477855],[113.43838657468417,36.951700637115806],[113.43909646978267,36.95440328003885],[113.43897995253052,36.95633633684082],[113.4395049871468,36.95882825532824],[113.4399410140329,36.96132199924528],[113.44564934239013,36.964279248849685],[113.44944444566815,36.96591711327975],[113.45283343549032,36.96877884473152],[113.45378136829271,36.970546888119934],[113.45260109111743,36.97264495344027],[113.45080419058222,36.97497026161982],[113.44377972615345,36.9782613930113],[113.43590267581962,36.98278522203711],[113.43568332197245,36.98429134674882],[113.43756519050947,36.987398951633104],[113.44159203559275,36.99067691463734],[113.44555074685249,36.994599689270984],[113.4465696322332,36.99579427455796],[113.4468781296351,36.99707501036968],[113.44620893485775,36.998447415981616],[113.44349059115059,36.99986204335095],[113.43927581557787,37.00187943480766],[113.43357121820705,37.00471381419605],[113.4303678826345,37.00771121893993],[113.4266201126599,37.013222376501616],[113.42431182577504,37.016344320332465],[113.41978676886704,37.019868996412555],[113.41647050022546,37.0221532854102],[113.40796119895778,37.02661669887223],[113.40391997621826,37.028557832525344],[113.39915649707775,37.030227420770515],[113.3965986585889,37.03113720863612],[113.39315166780273,37.032136393963654],[113.39273067496204,37.032931453791896],[113.39289384021944,37.03528785621742],[113.39596790601325,37.03944463196372],[113.40187697744841,37.04297188349977],[113.4063996943794,37.04495385039011],[113.41284545422367,37.04568093087707],[113.42107201529645,37.04629980570178],[113.42664470898215,37.04761599680025],[113.43237061872448,37.0509309238945],[113.43522116625671,37.0535896057463],[113.4360467206533,37.05565090387377],[113.4364723923053,37.05724387079004],[113.43681227228424,37.058705278739296],[113.43675285489505,37.06242476032132],[113.4354199117603,37.065383854846765],[113.43001911390635,37.0694989630689],[113.4303938718641,37.07285201521851],[113.4318180586999,37.08111737844805],[113.43275098370327,37.08517401088829],[113.4351409193863,37.090130267013144],[113.4408980026366,37.09430212116412],[113.45086121677308,37.1043216392816],[113.45273860156033,37.10767160115032],[113.45247457045308,37.10882162826666],[113.4524120946452,37.109858750460276],[113.45147616428393,37.1123174028719],[113.45082543083677,37.11331533408804],[113.44892379258111,37.11623141234114],[113.44877498942336,37.116369912597385],[113.44719436466524,37.117841052344154],[113.44511885508736,37.120506288022135],[113.44555558194996,37.121382468171376],[113.44550299200397,37.121598065932616],[113.44482189014204,37.12218747691095],[113.44558685066677,37.123380073675655],[113.44648584888651,37.12462254861152],[113.4472690743213,37.12570497911097],[113.4458740331932,37.12966569919159],[113.4442358803634,37.13118539339623],[113.44240536296972,37.13288344280428],[113.44175111051416,37.1347560383826],[113.4416907314543,37.13598625744845],[113.44118125329707,37.13680713728488],[113.4412339777338,37.13752109271835],[113.44128332154558,37.138037289225956],[113.44132724024789,37.138477327138276],[113.44140851200491,37.13869016425401],[113.44209318394613,37.138687970240376],[113.44320695580129,37.138605418513954],[113.44401500844315,37.13849907682934],[113.44750284697722,37.138641581072044],[113.44790593917753,37.14006333389798],[113.44700242224164,37.142513138911134],[113.44588809389006,37.143966233167774],[113.44897828882335,37.14561848338068],[113.45311619554215,37.146816913864285],[113.45415172943767,37.14815705997611],[113.45604017376735,37.14854694278132],[113.45815246570997,37.14757357787206],[113.45779869489101,37.15044107202121],[113.4589509375048,37.15291979059338],[113.46245799255227,37.15363347396108],[113.46555462432931,37.152711012267574],[113.46655415749167,37.155979370053394],[113.46973920320026,37.15777209280675],[113.4715689378252,37.15909249264747],[113.47370226723807,37.15876194263677],[113.47605143723445,37.15957089675141],[113.47854886489067,37.15944715691744],[113.47926308136809,37.159432208572845],[113.48135383974834,37.16053247960597],[113.4847055801164,37.16739802987658],[113.485978713407,37.170803466297976],[113.4866880884217,37.17336268744252],[113.48622964058355,37.1757319170467],[113.48911759046418,37.17660079022037],[113.48927960901482,37.17881398009111],[113.49131227793255,37.18084482144569],[113.49942946140048,37.1831048646944],[113.50471723723263,37.18356515472883],[113.5067008174386,37.1840952022463],[113.5080569274753,37.18456700574388],[113.50758492247941,37.18650757610849],[113.50807874510866,37.18792717138184],[113.50964430876711,37.189324052585036],[113.5118209016564,37.19027893525171],[113.51329963994631,37.19174911008424],[113.51316366753045,37.1930390423955],[113.51330037933182,37.19446619194723],[113.51502821100614,37.19535903485865],[113.52123384659039,37.196514093355674],[113.5240455382028,37.19774122771689],[113.52597840914576,37.19941606007699],[113.52644477106148,37.19993439690629],[113.5275564588941,37.20116993792324],[113.52874627552026,37.20200255758871],[113.52980497010516,37.203329194706356],[113.52996839949272,37.20332569865597],[113.53017661564047,37.203321244295296],[113.5302972872554,37.20331866431348],[113.53062617614951,37.203311632635625],[113.53111371493297,37.20317823009437],[113.53160125417583,37.20304482645735],[113.53190645327442,37.20293376028037],[113.53221259035308,37.20288783716991],[113.53229847891787,37.20287494976693],[113.53251872668487,37.20284190337895],[113.53269050360848,37.20281612987519],[113.5327133183308,37.202817917242335],[113.53282046861543,37.20278489544014],[113.53327604821276,37.20295507511092],[113.53373162548793,37.20312525934431],[113.53418719469379,37.203295444660135],[113.53464276702361,37.203465629017195],[113.53479488130188,37.20354133736007],[113.53511933911031,37.20370282192154],[113.5352334232992,37.2037596045585],[113.53559591329095,37.203940021812194],[113.5356719656071,37.203977872778665],[113.53607248570736,37.20417721435877],[113.53611051038587,37.204196139271836],[113.53615911955768,37.204220333275224],[113.53654905322452,37.20441440683495],[113.53705326167194,37.204543551640626],[113.53755746503549,37.20467269617594],[113.53806166885154,37.204801837619826],[113.53857535001774,37.204840791597896],[113.53908903082049,37.20487975415187],[113.53960271119963,37.20491872348141],[113.53990013392949,37.20492453789705],[113.54008881174305,37.204961381126616],[113.54022876867842,37.20498871288835],[113.5407171622761,37.20494624433542],[113.54120555840443,37.20490376831313],[113.54151662503247,37.20464122156623],[113.54163655947069,37.20434280057677],[113.54175649637071,37.204044378514794],[113.54182300939755,37.203643157017424],[113.54188951846523,37.20324193555692],[113.54191079400788,37.20300864070572],[113.5419320694007,37.20277534404698],[113.54200948501521,37.20237988951672],[113.5420869067207,37.20198443569737],[113.54215508250887,37.20166781576998],[113.54222324989439,37.20135119507831],[113.54238960601185,37.20098623974832],[113.5424050719789,37.20095231186083],[113.54255596849163,37.20062128405486],[113.54258689903591,37.200553429166376],[113.54272232495539,37.20025632826376],[113.54279663606542,37.200174108702754],[113.54279707211195,37.20017378045004],[113.54279750812826,37.20017345129715],[113.54313593289261,37.199918349944326],[113.5431361492869,37.19991818765398],[113.54347523103874,37.19966259741737],[113.54385261085278,37.1993646045884],[113.54422997835967,37.19906660094494],[113.5446073417689,37.19876859621964],[113.54492327021848,37.19850190795027],[113.5452392044459,37.19823522234106],[113.54555514204944,37.19796853493951],[113.54589503877753,37.197671343507615],[113.54623493169304,37.197374150309734],[113.54657481833372,37.197076949093166],[113.54691091035033,37.19691995329518],[113.54695618644637,37.1968988038271],[113.54724700102723,37.196762959291426],[113.54733755849463,37.196720661773895],[113.54758309735803,37.19660597413788],[113.5477189357249,37.196542526509944],[113.54805858996748,37.196610192314864],[113.54821920073091,37.19664218873459],[113.54839824248285,37.196677856269645],[113.54849707183755,37.19676064924561],[113.5485284566777,37.196750455692815],[113.54869321583833,37.196920988794666],[113.5487252213334,37.19695411531796],[113.54892198584436,37.19715777189367],[113.54910676634287,37.19750027762785],[113.54911619393036,37.19751775304452],[113.54929154992419,37.19784278926982],[113.54931040053847,37.197877732960194],[113.54947633211765,37.19818530781667],[113.5495721791995,37.19845136271531],[113.54963068757043,37.19861376730109],[113.54967860863904,37.19874679023288],[113.5497850356255,37.19904221858317],[113.54989218037778,37.199255798168956],[113.54999932457828,37.19946937585205],[113.55018584224626,37.19966525161059],[113.55037235973622,37.19986112615719],[113.5505719787679,37.2000325683198],[113.55077159527019,37.20020400837966],[113.5509051255061,37.20040399633862],[113.55103865409777,37.200603980562235],[113.55129100977797,37.20081118401044],[113.55154337152429,37.201018392166],[113.55177850703791,37.20120810890879],[113.55201364257488,37.20139782425874],[113.55234659054395,37.201739593076915],[113.5526795269256,37.20208136114303],[113.552689803869,37.20209636142092],[113.5528894594311,37.20238777560941],[113.55289459966345,37.20239527660123],[113.55309940259848,37.20269418673064],[113.55340853917455,37.20296740983319],[113.55371767032764,37.20324063850393],[113.55402679897855,37.203513859167735],[113.55434774034518,37.20373900377148],[113.55466868254449,37.20396414924988],[113.55498962588007,37.204189304604384],[113.55508700895516,37.20427624772896],[113.55540153946119,37.20456780738644],[113.55546444379308,37.20462611816867],[113.55571606909163,37.204859367977015],[113.55584187770356,37.20497598915214],[113.55603060225684,37.20515092670303],[113.5562193230048,37.20532585861175],[113.55634513898724,37.20544248446463],[113.55659676856486,37.205675730391086],[113.55665967593711,37.20573404223483],[113.55697420976081,37.206025600986685],[113.55729939290387,37.206321122963196],[113.55730185136444,37.206323357005765],[113.55762457501244,37.206616637709104],[113.55762949547008,37.206621109306674],[113.55794976563676,37.206912161232616],[113.5579522276337,37.206914398787674],[113.55827495677772,37.20720769010325],[113.55849172365174,37.207371945546356],[113.5586631539787,37.207501845418925],[113.5587084914642,37.207536200552845],[113.55905134527742,37.20779600222931],[113.55907401881403,37.20781318322017],[113.55943954548661,37.20809016561905],[113.55979819299489,37.208370694332835],[113.56018779896637,37.208675449767306],[113.56049187789229,37.208862799607104],[113.56059866322995,37.208901686413135],[113.56080183149906,37.20897567166545],[113.5608679594859,37.208999752885916],[113.56111178717875,37.20908854465094],[113.56113725412987,37.20909781786652],[113.56148536648627,37.20909028404174],[113.56183347667549,37.20908275554497],[113.56198297853395,37.20899236342068],[113.5622941857697,37.20868151456311],[113.56260539500815,37.20837066577108],[113.5629387488425,37.2080376858686],[113.56327210397157,37.2077046960214],[113.56352059893132,37.20749029827276],[113.56380980559635,37.207184531407435],[113.56382299771461,37.207170584068635],[113.56410294952056,37.20685714480175],[113.56438289344896,37.20654370596684],[113.5646628350658,37.20623026564172],[113.56494277446258,37.2059168265269],[113.56532042799186,37.20562875115198],[113.56569808180282,37.20534066829305],[113.56607573522741,37.205052591476694],[113.56655767493307,37.20489220828505],[113.567039614782,37.20473182405465],[113.56744176191351,37.20469620952701],[113.56748815255035,37.2046921010359],[113.56784390849549,37.20466059094606],[113.56793668971844,37.20465237543403],[113.56799618024482,37.20465372522009],[113.56841525394196,37.204663247123165],[113.56849532209176,37.20464162375428],[113.56858495421042,37.20455506181498],[113.56870896908768,37.20443529322823],[113.56876135829343,37.20432169445605],[113.56871240368237,37.20409222157313],[113.56853014470931,37.20373640237782],[113.56836004218354,37.20338032092258],[113.56828186716885,37.2030465549511],[113.56820368839547,37.20271278808251],[113.56813001871693,37.202602512414195],[113.5680141422463,37.20229566941702],[113.56787389569246,37.20192233670297],[113.56773364383832,37.20154900299557],[113.56759338555868,37.20117566831922],[113.5674847920415,37.20079526900813],[113.5673762098499,37.200414869314564],[113.5672676266362,37.200034470407104],[113.56707067977418,37.19961308741135],[113.56687373184758,37.199191704051266],[113.56660649937413,37.19880840329875],[113.56644088654838,37.19842157303158],[113.56642737665847,37.198390016065076],[113.56634456261361,37.19819660278234],[113.56624823813027,37.19797163154964],[113.56618874310564,37.19779552342081],[113.56610240675232,37.19753996663116],[113.56607266238231,37.19745191245617],[113.56595658827143,37.19710829669727],[113.56580909659006,37.196811608229794],[113.56573534997253,37.196663260779616],[113.56566159937084,37.19651491966778],[113.56551409548865,37.1962182310356],[113.56538319241622,37.19591544253092],[113.56536491294865,37.1956735808553],[113.56534663352127,37.19543171556295],[113.56544364331769,37.19503881977673],[113.56554063990669,37.19464592599393],[113.56567406171645,37.1944290686087],[113.5656899940597,37.19440317373824],[113.56580748500967,37.19421221014574],[113.56583934950977,37.19416042037226],[113.5661797958605,37.19397655913667],[113.56652024265502,37.19379269332935],[113.56689558841056,37.19370891442658],[113.56727093549073,37.19362513341448],[113.5676462829838,37.193541356618425],[113.56783545691493,37.19352527219586],[113.56804432965471,37.19350751167834],[113.56833793975741,37.19348254921521],[113.56844237604429,37.193473669913175],[113.56884042315566,37.19343982769794],[113.56922854021629,37.193423004189874],[113.56926164211875,37.19342156881652],[113.56961665712112,37.19340618211565],[113.56968286085151,37.19340331024349],[113.57000477450688,37.19338934704849],[113.57045603407826,37.19331398456539],[113.57090729548489,37.193238637448225],[113.57135856045808,37.19316329034563],[113.57180982221627,37.19308794250407],[113.5722610841044,37.19301259295013],[113.57266577558774,37.19286512257312],[113.57307046558293,37.192717655368945],[113.57336972735519,37.192559662590526],[113.57341866027276,37.19253382863583],[113.57366898779235,37.19240166729835],[113.57376684873738,37.192350001034704],[113.57407301347757,37.19205783449574],[113.57437918037579,37.19176566714313],[113.57453611492687,37.19145604543951],[113.5746930504464,37.19114642171251],[113.57469472139123,37.19111868378122],[113.57471455685544,37.190789385170916],[113.5747236400141,37.1906385989519],[113.5747343899814,37.190460086596254],[113.57475421955228,37.19013078538127],[113.57469515727817,37.18980035230489],[113.57466562566552,37.18963513170369],[113.57463609441666,37.18946991738708],[113.5745770298121,37.1891394797522],[113.57462376857401,37.18893187604851],[113.57468094254786,37.18867791600144],[113.57493672391286,37.188461842329765],[113.57519250604182,37.188245767204265],[113.57554519749836,37.18806585970641],[113.5758978884288,37.18788595299164],[113.57630122037862,37.187824100222166],[113.57633415173153,37.18781904988158],[113.57670455016022,37.18776223712531],[113.57677041155443,37.18775213443886],[113.57710787923516,37.18770037357821],[113.57720667398183,37.18768522004319],[113.57759911294063,37.18761926800415],[113.57799155232864,37.187553316464594],[113.57797854205793,37.18753384236106],[113.57846788516972,37.187406493660575],[113.57886422687648,37.18724658938892],[113.57926056532786,37.18708667217197],[113.57965690663919,37.18692675628948],[113.58005324555286,37.18676685266564],[113.58010700183411,37.18673272799462],[113.5803822659376,37.18655798594524],[113.58041810326404,37.18653523607423],[113.58071128904923,37.18634912007441],[113.5807292064902,37.18633774511825],[113.58104031148196,37.18614025422656],[113.58124108559076,37.18586694729638],[113.58134147214687,37.18573029462005],[113.58144185594695,37.185593637417846],[113.58164262255053,37.18532032459097],[113.58175827309361,37.18501525202945],[113.58187393389898,37.184710175530256],[113.58185496211331,37.18437138722858],[113.58184863733909,37.18425845330438],[113.58183598374492,37.18403259634675],[113.5818233301128,37.18380673487649],[113.58181700232227,37.183693807311876],[113.58179802106712,37.18335501554962],[113.58213406503513,37.18293457730256],[113.58249547916552,37.182703090028305],[113.58285688996928,37.182471602650644],[113.58313702216911,37.182292170352795],[113.58351154603162,37.18210669726542],[113.58388607129979,37.18192122028308],[113.58426059606111,37.1817357493564],[113.58463512137932,37.18155028266055],[113.58498177150312,37.18129633067173],[113.5853284271373,37.18104237667394],[113.58559415616685,37.180564756876855],[113.58571216792262,37.18027496798147],[113.58592201988036,37.18000576552748],[113.5861318682237,37.17973656549663],[113.58635459244518,37.17946708476946],[113.5865773152986,37.17919760907319],[113.58681307855261,37.17898019119253],[113.58699466285199,37.178736623412306],[113.58717624482753,37.178493053613195],[113.58744900593231,37.178176144703514],[113.58749692118579,37.17812047284201],[113.58772176367192,37.17785923526132],[113.5877376270264,37.17784080402024],[113.5879945202962,37.177542325237496],[113.58828330869939,37.17723345788721],[113.58857209709241,37.17692459165845],[113.58886088316403,37.176615724800136],[113.58897593497556,37.176492673515014],[113.58914966050304,37.17630686736134],[113.58951671196814,37.17598368987014],[113.5898837614722,37.17566051221944],[113.59014686343379,37.175369020306164],[113.59040996458951,37.175077529647865],[113.59067307591137,37.17478603189724],[113.59099462077721,37.1745142600134],[113.59131616446754,37.17424248730799],[113.59156888989394,37.174111176277435],[113.5918216143951,37.1739798638378],[113.59187339137605,37.17395296213173],[113.5920400939875,37.17396410266655],[113.59219869333955,37.17397470240951],[113.59244181578553,37.173990949832344],[113.59259664618139,37.17391192489424],[113.59284075754056,37.17367967182673],[113.59305165631179,37.173397721201326],[113.59326255796084,37.17311576744896],[113.59350795702267,37.172921296137886],[113.59375335470126,37.172726820759756],[113.59425018002086,37.1725142374059],[113.59453600277166,37.172428548697724],[113.59468805909603,37.17238296208981],[113.5951259365711,37.17225168520884],[113.59526748106695,37.17212572603665],[113.59533835416728,37.172062655899836],[113.59544567085413,37.1719671561164],[113.59563487788812,37.17177500566936],[113.5956767919454,37.17173244094099],[113.59595373137807,37.17143930903708],[113.59615242825399,37.17095651414599],[113.59631053450491,37.17068511519945],[113.59646682905935,37.170416823012815],[113.59646864063957,37.17041371154849],[113.59666799085181,37.16995003008237],[113.5969688266082,37.169656371909184],[113.59734134748643,37.169361141639875],[113.5977138620868,37.16906591036974],[113.59783605909853,37.169007045688645],[113.59798440722778,37.168935583232624],[113.59825495253955,37.16880525548538],[113.59835034204275,37.16876630431571],[113.59847773322869,37.16871428463143],[113.59875021323172,37.16860301758043],[113.59877500256273,37.168590362264034],[113.59893169676074,37.16851036413024],[113.59921680367422,37.168364807239364],[113.59936539822259,37.16822270741368],[113.59942565197878,37.168165086361256],[113.59960244176348,37.167808229048774],[113.59977923124715,37.16745137599253],[113.5997700500417,37.16718365852418],[113.59976454389994,37.16702308851508],[113.5998918030966,37.16694293363178],[113.60017780109942,37.166766659147385],[113.60028022714627,37.16670352841896],[113.60035842069064,37.166655320054126],[113.60064924264087,37.16637027541484],[113.60094006354991,37.16608523010764],[113.60100820684818,37.165767082752055],[113.60107642103463,37.16544894910963],[113.60097963551918,37.165087996656574],[113.60088285777182,37.16472704392109],[113.6007918973808,37.16438777359584],[113.60078608332442,37.164366091902146],[113.60059355829029,37.16398191001856],[113.60040102518293,37.16359772794693],[113.60020849415558,37.16321354636509],[113.60006788529427,37.16280500444269],[113.59996045202746,37.16249284705234],[113.5999272791948,37.16239646224517],[113.59978668260513,37.161987919624465],[113.59964608315371,37.161579376852124],[113.59948258747016,37.16111856275958],[113.59931909170955,37.160657749282365],[113.5991555958102,37.16019693462021],[113.59905883432472,37.15983598045403],[113.59896207720166,37.159475025179546],[113.59886531659929,37.15911406986963],[113.59883800556469,37.15862493723783],[113.59881070160256,37.15813579810099],[113.59878340458945,37.15764664885857],[113.59883191262416,37.15721495517509],[113.59888041469088,37.156783263388256],[113.59899159699594,37.156333312303346],[113.59909758346063,37.15590439814906],[113.59910278260237,37.155883360134986],[113.59921395354768,37.15543340817813],[113.5993906806572,37.15504956697395],[113.59956742069741,37.1546657252312],[113.59974416129789,37.154281883221344],[113.59994283385966,37.15392289107508],[113.60014150574668,37.15356389862317],[113.60034018242747,37.15320490124153],[113.60054810176953,37.15280769379711],[113.60075601697218,37.15241049149714],[113.60077809206417,37.152131367660814],[113.60070356573375,37.15180370007658],[113.60042393909657,37.15149319918931],[113.60014431594097,37.15118269841454],[113.59984080346085,37.15094449124979],[113.59953728401275,37.15070628702308],[113.59923376312672,37.15046808291059],[113.5988913319343,37.15017161813318],[113.59854891267153,37.14987515925295],[113.59834287053943,37.14959332562306],[113.59823905786986,37.14945132523916],[113.59792919972324,37.149027485901705],[113.59761934656524,37.14860365456995],[113.59734992886307,37.14812826885752],[113.59708051589627,37.147652885044025],[113.59689058016532,37.14718842340139],[113.59670063904093,37.14672396150476],[113.59665300846599,37.14625638133368],[113.59660537755563,37.14578880201254],[113.59673381627731,37.14538069228482],[113.59686225370906,37.144972581545254],[113.59708144191718,37.14463868024524],[113.59709282591773,37.14462133781853],[113.59732339606155,37.144270093705735],[113.59742669093069,37.14411274561271],[113.59755397660155,37.14391885163606],[113.59785573200563,37.14349005151745],[113.59815748753219,37.14306125245872],[113.59845924271914,37.142632440957854],[113.59878235555323,37.14221160341214],[113.59910546750804,37.14179077584724],[113.59921365407591,37.141649872161274],[113.59942857946163,37.14136995103746],[113.59975630402222,37.14108412095038],[113.60008402387489,37.14079829008768],[113.60041173908135,37.14051246024962],[113.60082346578896,37.14021633900405],[113.60123520057137,37.139920217989825],[113.60164694005545,37.13962409728097],[113.60210468383056,37.13937767105184],[113.60211295329952,37.13937321956951],[113.60257896455687,37.139122341007685],[113.60300512086768,37.13889291989485],[113.60304497726221,37.13887146332173],[113.60351098910517,37.13862058476076],[113.60398912302257,37.138415873629874],[113.60441603608842,37.13823309270915],[113.60446725324566,37.13821116338569],[113.60494538536523,37.1380064530045],[113.60535234274164,37.137879294634956],[113.60575930211769,37.13775213664243],[113.60616626012042,37.13762497910115],[113.60660685751544,37.13755618188117],[113.6070474529853,37.1374873857765],[113.60748804984108,37.137418588912645],[113.60781567193327,37.13728472432525],[113.60814329401536,37.13715086064838],[113.60840377118227,37.136904484781454],[113.60866424885805,37.136658106547536],[113.60882639863026,37.136312569702206],[113.60898854816209,37.13596703354889],[113.60900277780236,37.13546010124774],[113.60899062722609,37.13542528334939],[113.6088975033103,37.13515844719509],[113.60879222744212,37.13485679215223],[113.6085591919379,37.134519952574095],[113.60832615634705,37.13418311339006],[113.60806150999211,37.13384697055142],[113.60779686481851,37.13351082433822],[113.60752744521072,37.133035463767214],[113.607466125567,37.132631516997165],[113.60740480667225,37.13222756924537],[113.6074111141754,37.131796804978826],[113.60741742506453,37.13136603881208],[113.60742077217462,37.13113747719554],[113.6074237338112,37.13093527356925],[113.6074491481207,37.130779990639304],[113.60748475743745,37.130562409575916],[113.60751925262625,37.1303516397039],[113.60754578063398,37.13018954735337],[113.60760680437049,37.129816682376244],[113.60779819168344,37.12956210271727],[113.60784884828789,37.12949471970842],[113.60809089020412,37.129172756609094],[113.6085568208621,37.1289218590729],[113.6090227506278,37.12867095976259],[113.60942791310364,37.12849316627754],[113.6095974254475,37.12841878117158],[113.60978530436104,37.12833633526117],[113.60983307590237,37.12831537232486],[113.61023823905495,37.128137578804676],[113.61039246080695,37.1279883643449],[113.61055972912072,37.12782652564532],[113.61063141942047,37.12775716373089],[113.61073655216448,37.127655444664605],[113.61088121888596,37.127515473450565],[113.6110284058275,37.12719559320072],[113.61117559275358,37.12687571367555],[113.61120798621897,37.12659140762297],[113.61123088437057,37.126390445426836],[113.61123635660798,37.12634241358649],[113.61129711852212,37.1258091080801],[113.6113373029881,37.125422901188074],[113.61137748713158,37.125036693375456],[113.61142053109509,37.124623141551346],[113.61146357350718,37.124209587028176],[113.61154579466651,37.123840477649225],[113.6116280128207,37.123471366472664],[113.61183971416472,37.123188059997545],[113.61214562641496,37.123150570052786],[113.61234373247405,37.12312629141695],[113.61256422249626,37.12314718436222],[113.61277747364475,37.1231673915819],[113.61305163449846,37.1231933704754],[113.61321121525278,37.12320849193976],[113.61364495842217,37.1232495924657],[113.61416386529552,37.12331414022767],[113.61468277185553,37.12337868750576],[113.6147696365285,37.12338949247017],[113.61520167925724,37.12344323517528],[113.61531958833234,37.123448000050296],[113.6155981356684,37.12349115544507],[113.6157687455819,37.12351758728696],[113.61587668328315,37.123534310172026],[113.61632199532401,37.12357446887372],[113.6167673066433,37.12361462680703],[113.61721261839608,37.123654784847226],[113.617495167155,37.12368025910446],[113.61792156438102,37.1236169964384],[113.61834796005517,37.12355374308982],[113.61877435611554,37.123490490007896],[113.6192355236701,37.12333898490276],[113.61969669063527,37.12318748434503],[113.61998907242642,37.12318102146229],[113.62028145296915,37.123174556984196],[113.62070432756255,37.12316520972982],[113.6211309725481,37.12329203788898],[113.62155762115837,37.12341886530347],[113.62198426667997,37.12354569302265],[113.62241091132996,37.12367252009664],[113.62283738995139,37.12369606927545],[113.6231939229994,37.123715750023244],[113.62358617691703,37.12363677339922],[113.62397843003825,37.12355779820664],[113.62409522993875,37.12353428190174],[113.62434145923939,37.123528830487096],[113.62476267997728,37.12366247204781],[113.62515292441545,37.12397046639708],[113.62554317648322,37.12427845832322],[113.6260260313334,37.12450029449494],[113.62612177775786,37.12454428250915],[113.62630833324357,37.12452139586873],[113.62662578855642,37.12448245236813],[113.62687079507347,37.12424904361444],[113.62711579341433,37.124015636353725],[113.62742313205584,37.12375550463156],[113.62773047309305,37.12349537208332],[113.62807146216632,37.12329359861226],[113.62841245427006,37.123091834924885],[113.62875344903061,37.12289007021984],[113.62917123192668,37.12271361649164],[113.62936343967682,37.122632436570434],[113.62958901290972,37.12253716406025],[113.62969620846904,37.12249188574328],[113.63000679588394,37.122360695723714],[113.63042457700733,37.12218423048425],[113.63084235206426,37.122007776542695],[113.63121404675212,37.121779990767635],[113.63158575266891,37.12155220360487],[113.63195746285189,37.121324408903355],[113.63232186786927,37.12123043750201],[113.63268627207957,37.121136469513345],[113.63270993232167,37.121130366867895],[113.63300170964072,37.121134498653596],[113.63340619763494,37.12114022853265],[113.6338157904002,37.12109313123895],[113.63422538447789,37.12104602259652],[113.63460000610144,37.12090258368331],[113.63497462219487,37.12075915633826],[113.63534923806638,37.12061573143526],[113.63571755353392,37.12029090491193],[113.63608587032961,37.11996607634941],[113.63643947309173,37.1197548113395],[113.63650423660873,37.1197161156319],[113.63692260127986,37.1194661553091],[113.63711555980007,37.119417325672245],[113.63729849227718,37.11937103216818],[113.63736159620376,37.11935506326505],[113.63780058978524,37.119243970541575],[113.63823773358604,37.11923423156787],[113.63867487814439,37.119224486458954],[113.63911202171244,37.119214749666604],[113.63950739822931,37.11920594899591],[113.64002409853742,37.11928309693447],[113.64054079754649,37.119360243526444],[113.64105748588891,37.119437378171085],[113.6415741833611,37.11951452024479],[113.64191398975682,37.119734920925026],[113.642165889358,37.119898304684696],[113.64225379357757,37.11995531974586],[113.64251589924407,37.120215455415185],[113.64277800091762,37.1204755851487],[113.64291631505634,37.120814465590875],[113.64305463753809,37.1211533537564],[113.64323641481396,37.1213772812136],[113.64341818856393,37.12160120484219],[113.6437178324196,37.12179209501102],[113.64401746677532,37.12198299180881],[113.64403283654237,37.121992784605844],[113.64453856210578,37.12198149688618],[113.6448331097756,37.12181027142855],[113.64512766071722,37.12163904878562],[113.64562524129201,37.12139363010121],[113.64608597826296,37.121166371786686],[113.64612282044264,37.12114819859077],[113.64624723053677,37.12108683442124],[113.64662040091865,37.12090276860575],[113.64711797407286,37.120657350248145],[113.647439074622,37.12062672115627],[113.64781158169177,37.12059118776865],[113.64795497174946,37.12065345498851],[113.64811671242886,37.12072369020412],[113.64842184179223,37.12085618735866],[113.64887516484767,37.12115635311898],[113.6493284882077,37.12145652066553],[113.64978181280804,37.12175668457261],[113.65023514467711,37.12205685641571],[113.65062986257679,37.12226333682102],[113.65102457820701,37.12246981952087],[113.65141929044373,37.12267630454048],[113.65181399909847,37.122882786479245],[113.65215935261432,37.12298945721329],[113.65225370012408,37.12301859828692],[113.65269340157685,37.12315441022253],[113.65270381491386,37.12315762621552],[113.65313310336249,37.12329021958579],[113.6531370187637,37.123291429051385],[113.65357280566961,37.12342603177726],[113.65406539787938,37.12349098784025],[113.65441996004326,37.12353773791181],[113.65455798952897,37.12355593734474],[113.65497215265077,37.12363953691426],[113.65512923974,37.123671243937764],[113.6551540578391,37.12367625375008],[113.65508162762696,37.12344794186019],[113.65626446171309,37.12367590612609],[113.6562551146729,37.122870182969386],[113.6560917100571,37.122282771344636],[113.6560512645431,37.1218070042609],[113.65610447787982,37.121229068529466],[113.65640957410186,37.11979693996279],[113.65669868438115,37.1185320384138],[113.65673992887857,37.11828472879505],[113.65705296801944,37.116407660619004],[113.65711015423068,37.115319561127855],[113.65667222959777,37.11368962292284],[113.6564745869966,37.11290873008392],[113.65669036943582,37.11161805784941],[113.65533910510605,37.108716799684395],[113.65352507086548,37.1078994243775],[113.6497784849207,37.107983268524144],[113.64393072613551,37.109257921036104],[113.64053342539208,37.109119175247464],[113.63624158166215,37.10635468160007],[113.63375881376308,37.104264845687716],[113.63200724355305,37.100085167634894],[113.6301224393287,37.09204732122291],[113.6268651533237,37.08818696618481],[113.62375652434304,37.086039269718434],[113.62128955376419,37.08437781157513],[113.62060983815115,37.082241825013526],[113.62060795866682,37.07959629188462],[113.61893889498741,37.07777413026417],[113.61509714949962,37.07764444859899],[113.6106287568074,37.077456943069734],[113.60782280505802,37.07630317493399],[113.60632021671479,37.074119653771255],[113.60664614647757,37.07060887227192],[113.60539652479294,37.067990758074004],[113.60151990211843,37.0642147675258],[113.59744342538352,37.05979949817885],[113.58979835879859,37.052744981401375],[113.58495730753951,37.04941849556605],[113.5835281117542,37.04673253615104],[113.58337113172067,37.04473387469959],[113.58344889503347,37.04456811805291],[113.58305594921215,37.044296437973344],[113.5825021683892,37.04374839400853],[113.58242353576789,37.043650797278886],[113.58157101750218,37.04341195124137],[113.58136478474603,37.04329250344629],[113.580455108332,37.043121629305986],[113.57993186822833,37.04312348228523],[113.57916525051294,37.04322596414682],[113.57868924810857,37.043393623803034],[113.57817317260586,37.04290432562386],[113.57776011464878,37.04235339051872],[113.57637963256617,37.04109633892402],[113.57338052671909,37.04209100784431],[113.56827585338117,37.04148665523586],[113.56612473818821,37.03853009168562],[113.56419309238778,37.03413867329618],[113.56082346797501,37.032066388515716],[113.5582924669288,37.02840283855807],[113.55737099675413,37.02220190585275],[113.55653114326903,37.018430322900926],[113.5572468454683,37.01584076247787],[113.5577023907732,37.01347131952557],[113.5554317849023,37.01223319662408],[113.55502991267083,37.01088328375048],[113.55505917747098,37.0090950609603],[113.55438500128957,37.00794820001094],[113.5533574023796,37.006200052389154]],[[113.48153246541503,37.11337931587273],[113.51063998219152,37.116655938879376],[113.52540107125091,37.11805832069026],[113.53832835504811,37.1191081261843],[113.53835654558,37.12042673361655],[113.54350111511955,37.1204689440746],[113.54350868910866,37.119272651621],[113.54515540373559,37.119237289327096],[113.5511244507126,37.118308084878144],[113.5552800559514,37.116559673105364],[113.56201845675119,37.11515571382538],[113.5728981900333,37.1137187208544],[113.58103472861376,37.113541759603386],[113.58815835686741,37.11298595585424],[113.5921122841975,37.11164108438839],[113.59800489512058,37.109723283882815],[113.60156514973366,37.10940682879519],[113.60405831498002,37.11268882237697],[113.60850517421704,37.11652361076337],[113.60762368465515,37.12119063506467],[113.60366807736507,37.12735528968898],[113.60011318967574,37.13220015551041],[113.59693076480352,37.13489169783397],[113.59188767844263,37.13976894126831],[113.59034901239856,37.14266267521561],[113.5921723088009,37.148104596456164],[113.59274469808099,37.15178632801078],[113.59116687172032,37.15789850703631],[113.58369799498185,37.16592687773309],[113.57936370450108,37.169834790733624],[113.57712447785639,37.17405448158963],[113.57400825921074,37.178769877430206],[113.56474120057288,37.18218854604968],[113.55778635750423,37.18353068394073],[113.54807940633748,37.187195906368025],[113.54069718197107,37.1891420982711],[113.53677000811953,37.191967222337446],[113.53432863155994,37.19023194800674],[113.53206570708153,37.184917687655506],[113.52755083447543,37.17905560955701],[113.52741983419803,37.1751257666738],[113.5262828733706,37.17228992527435],[113.52051707156359,37.16907599280354],[113.51308729167575,37.16506289220413],[113.50765166440691,37.162794678806044],[113.50059531185065,37.16103712594999],[113.49440461570417,37.158426715131334],[113.49177738891986,37.155502714502504],[113.49107669181365,37.152299805240474],[113.49011008052824,37.14552731214178],[113.48783611212863,37.1397356440763],[113.48609841897833,37.13667363898539],[113.48161256858724,37.13605265744137],[113.47769457608436,37.13458541979974],[113.47363186316615,37.1332402444331],[113.472063014241,37.13077035865971],[113.46964058099363,37.129509976695736],[113.46582548501296,37.126610111230406],[113.46486739851794,37.12460410292393],[113.46060101608352,37.116946509725864],[113.45884570559036,37.113288567063606],[113.45849435835125,37.11162742636718],[113.46251320743075,37.11166315148054],[113.467859831011,37.11202664715779],[113.4745094505117,37.1127063826762],[113.47458456089188,37.11278097699806],[113.48153246541503,37.11337931587273]],[[113.56432196268982,37.04286159811849],[113.56874173719426,37.04696078125945],[113.57166171681745,37.04889957008206],[113.57576685719535,37.047189721881615],[113.5784589794015,37.04941930109285],[113.58037735059196,37.0533817292248],[113.58317577008303,37.05522753154869],[113.58594844338131,37.05631112985961],[113.59052038984123,37.05783204414315],[113.59285995411918,37.06016432002061],[113.59701851217406,37.06350541546703],[113.59600061132669,37.06505309872694],[113.59659635221003,37.068567509187666],[113.59668410170269,37.07113967709074],[113.59935317114056,37.07613401445576],[113.6039689512788,37.07889279223524],[113.61146814101453,37.08244591253896],[113.61543451422638,37.08359782098071],[113.6182007348359,37.084500931844225],[113.61821339379972,37.08461820348568],[113.61822142681552,37.084947157929335],[113.61819083210153,37.08534563900096],[113.61802271625307,37.08564727789667],[113.61765996487145,37.08587648639225],[113.61702409444574,37.08754980894535],[113.61673763937058,37.08859055741603],[113.61620944584732,37.09002038179704],[113.6156728466081,37.09076150633573],[113.61541661041947,37.09106724221467],[113.61500123762882,37.0915628497135],[113.61424811596521,37.09257366946227],[113.60483881187068,37.100169412507476],[113.59878212946234,37.10578422517302],[113.59631970922199,37.10774492903002],[113.59281637041258,37.109728364445644],[113.58301527935197,37.11029993887239],[113.56861266863697,37.111208885052264],[113.55931330807499,37.113436019187404],[113.548120177594,37.116894884844115],[113.53727269167895,37.11736601593094],[113.52114514215575,37.11568435402321],[113.52154383704864,37.11424580559226],[113.5188316788788,37.113230942388846],[113.50705680806881,37.112646455610545],[113.49988783335512,37.11184453841902],[113.49861609674025,37.11389729674059],[113.47640523053835,37.11120377293409],[113.47250213393698,37.110712785916824],[113.47250223967941,37.11071289000902],[113.46935610829931,37.110316615962354],[113.46770982532759,37.107740178163],[113.46598723173997,37.1023417230973],[113.46069054642214,37.09682682034402],[113.45792914404203,37.09240318324147],[113.45108546590242,37.0905427892238],[113.44757515599758,37.08870854335365],[113.44980030363433,37.08389560142679],[113.45410508032327,37.080851029490496],[113.45651206593344,37.074318092213375],[113.4529769995252,37.068003546993275],[113.44856805449899,37.064090427317794],[113.45068046402365,37.06318872080367],[113.45582029077632,37.063940417358104],[113.4588990831218,37.0634952415596],[113.46166965563,37.06427167918596],[113.46607200369037,37.06055576149283],[113.47298552990543,37.05875055875417],[113.4814493565106,37.058271674309],[113.48336682434415,37.05928864537916],[113.4848031463044,37.062882959877854],[113.49047154702033,37.069106721400026],[113.49274629949005,37.06951195906179],[113.4956457514481,37.065977571952786],[113.49858951148511,37.06380133213392],[113.5010474949703,37.064051534214705],[113.50398139057508,37.067311960762346],[113.50442257685852,37.0692658524688],[113.50336210472618,37.07140248044684],[113.50356300196968,37.072395062291406],[113.50371812015726,37.07284424629846],[113.5027735907335,37.07306678660646],[113.50192719090671,37.07144225513409],[113.50057064159427,37.07176105957982],[113.50030838353788,37.07181982192197],[113.50112231415669,37.07350682881588],[113.49957388127089,37.07390892731635],[113.49968902087444,37.07423804980446],[113.50029927900736,37.07569557915145],[113.50496312254384,37.07423796655403],[113.51138742661938,37.08044469921967],[113.516839651317,37.08002702049409],[113.51927821414274,37.07967318457127],[113.52222677321254,37.077647276270014],[113.52198341449309,37.075991282805326],[113.51756671655161,37.07351790500137],[113.51659931226175,37.07275972437855],[113.51519968405947,37.07541123372315],[113.51498507981313,37.07791841562885],[113.51321330139339,37.078313514270086],[113.51027928265766,37.075038845556584],[113.50720474716415,37.072005416906066],[113.50681337251348,37.06915354005109],[113.50670748985964,37.06593810327573],[113.501357476243,37.061522522749215],[113.4984088977363,37.06229973913746],[113.49623865725438,37.059604464639605],[113.4892506393781,37.05963222260446],[113.48738576213597,37.05716871420477],[113.4893220479904,37.05271864379831],[113.49432362828813,37.04653566359518],[113.49630608830647,37.04351459711332],[113.49894903371948,37.04250553649714],[113.50867623858565,37.04444525991865],[113.5114171746794,37.04641318468237],[113.5166722022768,37.047970186105815],[113.52018393009877,37.05075574981101],[113.52467820789506,37.056261262566494],[113.52732277144308,37.05978010091891],[113.52934152925096,37.06235884695129],[113.53166951718416,37.065288469652714],[113.53294948884901,37.06800209479768],[113.53521433289997,37.0690262318853],[113.53517070479859,37.067716268015936],[113.53416012043779,37.064162700923355],[113.53258298320658,37.061455434954894],[113.5305403993947,37.058162217516895],[113.52669127197557,37.05419243790196],[113.52240076360209,37.0503510886058],[113.51990928475907,37.046948046556565],[113.51733636230732,37.04557262186405],[113.51559987528381,37.042510969699784],[113.51238189428209,37.03959986100091],[113.50924650548201,37.03918955754609],[113.50158017443998,37.03661054224612],[113.50118145287183,37.03352043301731],[113.49841392560853,37.030718598426354],[113.4962602479022,37.02849964566225],[113.49325444391981,37.027490310675105],[113.49406808216419,37.032472814974156],[113.49477130496412,37.03692704837037],[113.49179049026408,37.03669178714511],[113.48963468978647,37.03632045435961],[113.48888343923217,37.03707412281103],[113.4885551412272,37.036580481085515],[113.48821269748888,37.036075494493275],[113.4873873475147,37.03496037959895],[113.48562378858622,37.03562946803817],[113.48514721639032,37.03578725237603],[113.48740407742123,37.039572068143336],[113.48541262152732,37.040549828671374],[113.48380923390866,37.0426689734681],[113.4789047086832,37.042896254357316],[113.47887744649026,37.04530463036856],[113.48445373169604,37.04533688803225],[113.4873415079077,37.04840466203812],[113.48762931831293,37.05152693991679],[113.48563430403952,37.055215243145476],[113.48039149303149,37.05494368749675],[113.47533260802919,37.05667018346],[113.47291487496284,37.0554812256424],[113.46952004479193,37.05717275616472],[113.46888241808286,37.05585128323678],[113.46367040162339,37.056531739958906],[113.45978132225356,37.057661226564626],[113.4580647427574,37.05607605489159],[113.45473006197433,37.05595446533591],[113.45211784716629,37.05610386018527],[113.45078873914616,37.05546396340551],[113.44798109352533,37.05323380943597],[113.44769129826582,37.051619014132996],[113.45128735270372,37.0487798672363],[113.45385942291247,37.04739190709502],[113.45655640293265,37.04619198393775],[113.45687304370857,37.04494600553589],[113.45839976258692,37.04434232337238],[113.46328832606919,37.0447175662362],[113.46828343616387,37.04470903046435],[113.469410252168,37.04277877759028],[113.47038109733346,37.03970768769524],[113.4675611719145,37.03709689052022],[113.46263614630246,37.035578495763104],[113.46041698773641,37.03314572259758],[113.46219225010934,37.029199940917664],[113.46552750107527,37.02569841211415],[113.46750132630763,37.02422726366323],[113.46929454532396,37.02085304502887],[113.470849982961,37.01748375494767],[113.4750221882587,37.01415520871071],[113.47994711767163,37.012050201833475],[113.48480882583958,37.01166243345684],[113.48870139386977,37.010722766550835],[113.49170001592161,37.00789496346008],[113.49743066190857,37.00500959798036],[113.50146961893213,37.00492449107597],[113.50650257372688,37.002530102688546],[113.50936888947184,36.999323303184376],[113.5137387512481,36.998468067806805],[113.52362276428404,36.99902091984935],[113.53602344004695,37.000186538827975],[113.5441927031049,37.00277642592615],[113.5461759257722,37.00521267483564],[113.5483289885258,37.00917065371967],[113.55105219217623,37.019503991530385],[113.55123388236477,37.024934362030066],[113.55356728279874,37.03069976495352],[113.55660449089348,37.03616392601673],[113.56074735341815,37.03912534143102],[113.56432196268982,37.04286159811849]]]]},"properties":{"code":"SXPR-P15","name_short":"孟信垴","merged":true,"area_km2":350.091}}]}