{"type":"FeatureCollection","features":[{"type":"Feature","geometry":{"type":"MultiPolygon","coordinates":[[[[112.63629351116214,37.20314708808311],[112.6379731111983,37.20226570931401],[112.64092248221431,37.20222488241912],[112.64467311522694,37.20202983077127],[112.64798773663105,37.20234132164301],[112.65023144088521,37.2027391593411],[112.65222574707585,37.20399859386279],[112.6534832554097,37.20426709686641],[112.65518297134321,37.20431486743894],[112.65714456502066,37.20407289637273],[112.65936018341353,37.2031837150124],[112.66146129530625,37.201151887687416],[112.66339140027735,37.199479991379214],[112.66471311394997,37.198603262544424],[112.66442459585029,37.19767764541542],[112.66465815799052,37.19610107233884],[112.66542318741928,37.19430248622314],[112.66681685971501,37.192638076582206],[112.66837975347522,37.19054218732931],[112.66991995626931,37.1887726989941],[112.67052930759102,37.18721941931507],[112.67076357634642,37.18487047944459],[112.67071947228659,37.18286872800406],[112.67033183685744,37.18150113901293],[112.67022508937045,37.17990074485505],[112.66961927366889,37.17836459573489],[112.66863849419275,37.17603277485849],[112.6685217304669,37.17397483221219],[112.66841126431379,37.17220285414072],[112.66858668099377,37.17042684918735],[112.66967731858175,37.16800862933689],[112.67035924811572,37.16651153573782],[112.67218961167832,37.16522707800163],[112.6741779789667,37.16462688911093],[112.67531255110227,37.16421037483514],[112.67599938939902,37.16294202371345],[112.67624607438484,37.16116499877195],[112.67613419518192,37.15933583467651],[112.67545067146771,37.15751475577115],[112.67450281203153,37.156669992027275],[112.67342341138772,37.15634197693051],[112.67268491067271,37.155265397815796],[112.67165810021169,37.15407845956269],[112.67134584414195,37.15288143475543],[112.67131940261282,37.151680378558424],[112.67072765547196,37.15077334839384],[112.66821684059957,37.15035103668268],[112.66692446247502,37.15008316882766],[112.66619615758202,37.14946409129292],[112.66504042813413,37.148908227561975],[112.66345477178436,37.14830117607298],[112.66301105063887,37.14762087216497],[112.66204342384073,37.145860905713626],[112.66101315496955,37.144502285642226],[112.6602812020586,37.14371158802763],[112.65948156981646,37.14309346580426],[112.65696856829193,37.142556519829526],[112.65502340241542,37.14183995748153],[112.65326520788611,37.13986210823312],[112.65267003712533,37.138783397153794],[112.64956210840761,37.1371675733065],[112.64717736013588,37.13594209602313],[112.64436159400842,37.134608128113136],[112.64327397018424,37.133879466818925],[112.64303987250557,37.13296733114217],[112.64272321762537,37.13154143729954],[112.64277239155378,37.13051095180783],[112.64203458445604,37.12943416041583],[112.64093717677005,37.128247920416506],[112.63885089670687,37.12759025021481],[112.63687917430921,37.12670805180564],[112.63620879288224,37.12604608342806],[112.63570586537381,37.12522413167889],[112.63538774652127,37.12446043998865],[112.63338848960142,37.12498720675594],[112.62906669334332,37.12474871076392],[112.62524790458649,37.12366882513842],[112.62360213895136,37.123274213977716],[112.62181521350577,37.1232390826552],[112.62062223553546,37.1231362093573],[112.61897142658975,37.122503220547486],[112.61619575974396,37.12146838249401],[112.6149132251649,37.1206515271851],[112.6134945661901,37.120432465580585],[112.61306713289763,37.121332215644486],[112.61380758267264,37.1246594826747],[112.61446483467734,37.12757070763979],[112.61527475957281,37.13065863290098],[112.61582857094288,37.13220056286721],[112.6172019075391,37.13461570433086],[112.61818053954983,37.13694801756038],[112.6186481755613,37.138772398970644],[112.61854307490083,37.14054738965257],[112.6164326636129,37.14212090397505],[112.61524000969803,37.14316697224791],[112.61348547528307,37.14467837229431],[112.61230366909659,37.146239166563355],[112.61090746741816,37.14780286397043],[112.60930776489538,37.149884212785345],[112.60785451745733,37.15213518631777],[112.60604511551992,37.15444818210599],[112.60465830889268,37.15646937079389],[112.60324847704464,37.157403838758384],[112.60197670058645,37.15810757744154],[112.60064067734298,37.15915543899349],[112.59959769612213,37.160542598139585],[112.5982760515472,37.16227677598322],[112.59724622763129,37.16429306354081],[112.59665005353625,37.16591532475317],[112.59657007831517,37.16613294146731],[112.59658812992505,37.16699086869521],[112.59666363836153,37.16775171229312],[112.59667885334768,37.16790502837339],[112.59670268560556,37.167925143690155],[112.59747946292929,37.168580771906285],[112.59753724381054,37.168611645349046],[112.59841941282203,37.16908299683048],[112.60081171241134,37.170652613012074],[112.60125381976565,37.171275962779355],[112.60200114889157,37.17281056474708],[112.60209091451442,37.17377978933871],[112.60215814583367,37.174505675481825],[112.60218637390533,37.17481045512634],[112.60235859307119,37.175905666867514],[112.60239354424046,37.17612792845101],[112.60245241775918,37.176502322295235],[112.60247472830717,37.17664420002523],[112.60259933498193,37.17743658672737],[112.60363267387775,37.17896730639358],[112.60372108397236,37.179767066596945],[112.60418625683353,37.1814771045059],[112.60477384191923,37.182212891588264],[112.60539291992028,37.184435738852024],[112.60542440358655,37.185922801909264],[112.60553343180767,37.18769486940866],[112.60528502114737,37.189471781032985],[112.60467430385944,37.19102475578582],[112.60399086081253,37.1925215013656],[112.60336315918796,37.19327374471609],[112.60259971312169,37.19437108708651],[112.60017228691108,37.19795099446191],[112.59865122113469,37.20043161122178],[112.59748998088502,37.2030217778764],[112.59708869214656,37.20434304399713],[112.59697943661233,37.20594642641272],[112.59628005131773,37.206699598141384],[112.59529703578065,37.207571009108165],[112.59438430102452,37.2083842551396],[112.5935394453984,37.20902494783768],[112.5933489791209,37.21017173100837],[112.59280095696339,37.211323323384434],[112.59219583246302,37.21316221277047],[112.5920113469176,37.214594968105544],[112.59105821743522,37.21689621722535],[112.58960200727441,37.219089790627685],[112.58791796339241,37.220657080967854],[112.5850108162824,37.22189746015701],[112.58267335434445,37.22301573338744],[112.58042525096069,37.224990932826],[112.57974462046221,37.22665913449089],[112.57976013425207,37.22740266958682],[112.57952056702588,37.22963709319842],[112.57942762830392,37.232041192535696],[112.57991613703834,37.234878057684696],[112.5802187144949,37.23651883258086],[112.58087151797777,37.237797362519906],[112.5813634301932,37.2399362008315],[112.58211318194276,37.24157099522263],[112.58266223437177,37.243527212610246],[112.58269308788967,37.24363713618746],[112.58309424607886,37.24460619033504],[112.58363523139789,37.24591296925654],[112.58500661743703,37.247324885348476],[112.58565210967845,37.248245916017474],[112.58631260795408,37.24988187542113],[112.58767661612211,37.250936290688315],[112.58970651566415,37.25167914700889],[112.58975013803824,37.251695110754184],[112.59015457280928,37.251711214163166],[112.59039425513338,37.25172075717318],[112.59119871354397,37.25175278144073],[112.59243620842858,37.25180203468346],[112.59449924998246,37.25206031781248],[112.59680461374265,37.25255339839815],[112.59701552100749,37.25259850538973],[112.59707196479816,37.25260203511962],[112.59889670289903,37.25271613814757],[112.60021707251393,37.251697111561015],[112.60120292782702,37.25036657317962],[112.60160867624793,37.24981894797316],[112.60256063315387,37.248304286681645],[112.60458115066051,37.24656059968944],[112.60707604197688,37.24609767854869],[112.60876757415019,37.24571713775385],[112.61036813922566,37.24526629754182],[112.6145650971972,37.24492308056745],[112.61793730631716,37.24366131819092],[112.6199649932437,37.242274839633716],[112.62218523992841,37.241529306862255],[112.62340187338776,37.239867828659996],[112.62379004092354,37.2393214463572],[112.62418113547517,37.23877093503398],[112.62427971984712,37.238632164514165],[112.6245305702875,37.23827905658461],[112.62498384070706,37.236834677586955],[112.62504445787106,37.23664151382456],[112.62507156807162,37.236555123664125],[112.62508841107858,37.236501451819976],[112.625116584244,37.23641167210517],[112.62516933453303,37.23617175522344],[112.62519512189473,37.236054471647584],[112.62560547960511,37.234188051266656],[112.62596931790608,37.233334225428564],[112.62637179693795,37.232389697098924],[112.62688828895983,37.23145292923244],[112.62713346936451,37.23037686227907],[112.6270179408131,37.22916272443093],[112.62751596197563,37.227368048705706],[112.6279939780108,37.22464397282878],[112.62848426390238,37.22249183233739],[112.62916715846974,37.220980659413044],[112.6297698615988,37.21989966554698],[112.63045578698345,37.21853147012295],[112.63177051847968,37.21729763417055],[112.63254885926798,37.21607117903813],[112.6336816506209,37.21469680351494],[112.63390047359947,37.21240535738876],[112.63430576616928,37.21046890367672],[112.63445060317164,37.20889360997414],[112.63476031601195,37.206672420092815],[112.63542597982558,37.20437480001735],[112.63629351116214,37.20314708808311]]]]},"properties":{"code":"SXPR-P21","name_short":"四县垴","name_full":"山西四县垴省级自然保护区","zone":"core","area_km2":63.054,"feature_count":1}},{"type":"Feature","geometry":{"type":"MultiPolygon","coordinates":[[[[112.61108517571677,37.253266401901186],[112.61128947352832,37.25253737084556],[112.61136079389428,37.252282862509254],[112.61162621000514,37.251882442166234],[112.61208695777462,37.25118732267394],[112.61312911702105,37.25022682514368],[112.61330490162604,37.250064809586455],[112.61381764023473,37.24981216918045],[112.61432189577503,37.24956370463264],[112.61495974138663,37.249249407736556],[112.61552945997396,37.24906401501919],[112.61705482907911,37.24856762062812],[112.61833799003628,37.248053824232436],[112.61916888863398,37.24772110980026],[112.62061388243566,37.24684768391183],[112.62140451597273,37.24632708820537],[112.62167935202424,37.24614611720736],[112.62288556666601,37.24569641308113],[112.62296509825214,37.24566676094711],[112.62355822916524,37.24551158711101],[112.62424617584284,37.24533160646284],[112.62479921327176,37.2451391673774],[112.6258499755122,37.24477352590608],[112.62650799712469,37.24443447824173],[112.62674572826042,37.244311984946734],[112.627668875286,37.24383631849909],[112.62882321601562,37.242752812567026],[112.629161388861,37.24226762659607],[112.62961575902155,37.24161571196473],[112.63032333425231,37.24100889618615],[112.63075818528492,37.240635961228826],[112.63198189312973,37.2401934004985],[112.63428727884772,37.24039810352736],[112.63491714121385,37.23998397738639],[112.63492005352737,37.239973358251675],[112.63508884327261,37.23935769507646],[112.63501988179183,37.23896898436411],[112.63471225622907,37.23855203517717],[112.6339398654907,37.237778864582104],[112.63339635097859,37.23732850120363],[112.63278748812598,37.236823979582475],[112.63230399726818,37.2365259073162],[112.6317189921358,37.236165244137254],[112.63084958415531,37.235789810231644],[112.63032044501674,37.23515741752789],[112.63048378355533,37.23453694761063],[112.63063227322263,37.23397286957286],[112.63148313484173,37.23265278659458],[112.63151308777023,37.23260631467629],[112.6315829174283,37.23249797200051],[112.63206126179108,37.23185912983382],[112.6324707460761,37.23131224088474],[112.63304616603955,37.23059705593986],[112.63330910738497,37.230205038315354],[112.63332521745717,37.23018101933233],[112.63333128088681,37.230168247632854],[112.63353403609696,37.22974117408262],[112.6335670524704,37.22966065669075],[112.63373215682442,37.22925800981591],[112.63374209638701,37.22923376869422],[112.63399560108793,37.228743754757765],[112.634342561323,37.228277225507235],[112.63484776489182,37.227671115781256],[112.63521772244698,37.22719030986288],[112.6354888921234,37.22683788759554],[112.6359335209539,37.22584069283182],[112.63578482123182,37.224759345595935],[112.63528817040432,37.223901285796764],[112.63485644918482,37.22350700974463],[112.63479253709208,37.22344864033917],[112.63405759686951,37.22329435808347],[112.63332147051413,37.22318288358255],[112.632949523699,37.22288168720868],[112.63289510496847,37.22231708649546],[112.63307625862964,37.221215418980115],[112.63318336889316,37.22083716818674],[112.63326193558947,37.22055971012053],[112.63349501196984,37.21973657767078],[112.63387207769435,37.219078260782744],[112.6342258180931,37.21846064788092],[112.635056420401,37.217699136676025],[112.63579772280286,37.217400593740294],[112.63655746592352,37.21759731730007],[112.63731445437712,37.2179922856287],[112.63801204167866,37.21814706584454],[112.63870790643583,37.21789643313675],[112.63902559201023,37.21774997465584],[112.63951380017642,37.21752489543165],[112.64043929333047,37.21731161761624],[112.6413863026293,37.21708451923124],[112.64279525587064,37.21653567164738],[112.64394072464529,37.215995038828915],[112.64458988742568,37.21568864060205],[112.64589986362765,37.21486408649895],[112.64670404719705,37.2143844093419],[112.64762882279024,37.21417333723999],[112.64878389483845,37.213965810605266],[112.64980097872187,37.2138195272406],[112.6510726627657,37.21363661093061],[112.6525288159159,37.21343634486936],[112.65413456458269,37.21321548488536],[112.65545745249878,37.212863193074824],[112.65618759916732,37.21266874343522],[112.65704597066262,37.2122242785947],[112.65777168709721,37.212056455617],[112.65845529880178,37.21205589503534],[112.65902327216263,37.21207947429886],[112.65939614466039,37.21197064093917],[112.65955322764003,37.2117433153743],[112.65965546037536,37.211595362416894],[112.66007775096578,37.21075380621298],[112.66077184191917,37.20968995811097],[112.66156452732893,37.20891753162129],[112.66172764474341,37.208808599476185],[112.66205452083804,37.208590301174105],[112.66225698889137,37.20845508495734],[112.66271642322708,37.2078968011216],[112.66279202353807,37.20752409505854],[112.66287210256091,37.20713105471765],[112.66286880137412,37.20630672555873],[112.6629620393797,37.20567925202331],[112.6632446030384,37.20527435841365],[112.66359502046221,37.20488202611969],[112.66374902151908,37.204264959294406],[112.66367416843813,37.20388497910392],[112.66358265212078,37.20342039690538],[112.66327020637928,37.20259139907375],[112.66332808065988,37.202149116075496],[112.66414400465028,37.202279557808694],[112.6643179339104,37.20233058139365],[112.66469116690051,37.20244007243466],[112.66536761204212,37.20263850923764],[112.66645502860584,37.20278989298609],[112.6675086706661,37.202781821281356],[112.66852498527129,37.20270894737722],[112.66939978493004,37.20250742041508],[112.66990995485234,37.20212704371925],[112.67008335453424,37.20199775508706],[112.67087240145673,37.20068474438036],[112.67141365959846,37.199708296160196],[112.6718878985257,37.19885273566072],[112.67281431526256,37.197483717722264],[112.67349439540912,37.19678713107223],[112.67395106049476,37.196046398652236],[112.67413631530314,37.194841002700755],[112.67417206480408,37.19392157515998],[112.67421263395475,37.192878090827435],[112.67434352688895,37.19174012998348],[112.67446123400714,37.190716784750485],[112.67497201563495,37.1893271062734],[112.67500965148072,37.1892247028558],[112.67568473861522,37.18843357468834],[112.67619339133103,37.18772363294502],[112.67647845416332,37.18699207416066],[112.67667011171599,37.18636545052204],[112.67675373191582,37.18617415666076],[112.67688113528894,37.18588270244787],[112.67702794652236,37.18532878899617],[112.67716242394717,37.184744664559084],[112.67725268790846,37.184352570883014],[112.67736385327959,37.18310992725635],[112.67678197604569,37.18212936254597],[112.67592604993888,37.18154909383853],[112.67545396754642,37.18094987687178],[112.67514367718066,37.18002852821087],[112.67492274416601,37.178882928984216],[112.67464498716782,37.17793634422379],[112.67433754765356,37.17767444566121],[112.67397655354763,37.17736692393063],[112.67314743681217,37.176977708922195],[112.67255248417351,37.17642075668701],[112.67210638397685,37.17565673214308],[112.67164290774225,37.17471050738177],[112.67136509164142,37.173822476405],[112.67174104477306,37.17328785899745],[112.67244813479198,37.17305939696486],[112.67294072148114,37.17280467919777],[112.67413525319515,37.17154673463118],[112.67526574463882,37.17044960269449],[112.67607701395517,37.16952365469331],[112.67664456731943,37.16887369211139],[112.67714349966805,37.168528012662804],[112.67741451899093,37.1683402364399],[112.67828672746109,37.16794497745656],[112.6791939980925,37.167544710398026],[112.67961618692954,37.1673043673967],[112.67997711672794,37.167098896214995],[112.68003645406058,37.16705433249914],[112.68034393540431,37.1668234076761],[112.6804143683713,37.16628633627837],[112.68077652837417,37.165609984598994],[112.6813328546101,37.16499619631751],[112.681766217938,37.16448550985581],[112.68195148272373,37.16398735108883],[112.68192905539202,37.16375826828912],[112.68190237419046,37.16348576323595],[112.68168400122904,37.163029373240434],[112.6812438144984,37.16262793448081],[112.68077750765823,37.162222359808],[112.68065098430633,37.16175114946526],[112.68106740344786,37.1612384525304],[112.68172093707376,37.16075842768806],[112.68203499510624,37.160326013607566],[112.6818044240032,37.15985853389522],[112.68121755579777,37.159186635911034],[112.6808681631785,37.158245584168554],[112.68104941149836,37.15752667976067],[112.68115596351669,37.157104037461366],[112.6818133290754,37.15600454566122],[112.68193516592015,37.15567758578012],[112.68219050104823,37.15499236763932],[112.68211889599625,37.153855920418245],[112.68184427680534,37.15254216140937],[112.68144439418104,37.151194139999525],[112.68050101822895,37.14988986521693],[112.67912698374553,37.14889575784031],[112.67794176022413,37.14839058686753],[112.67776138594749,37.148313705624595],[112.67647903619425,37.14796470956771],[112.6754273285856,37.147707040605695],[112.6749597627559,37.147526922510174],[112.67464336755106,37.147405037361786],[112.67403828551588,37.14688877384292],[112.6731775886992,37.1460405082227],[112.67251297341701,37.14552750074976],[112.67250820478371,37.14552382008234],[112.67193390153193,37.14508051356261],[112.67068223542665,37.144363880409365],[112.6697463373929,37.143899557104035],[112.66918775949397,37.143288012194304],[112.66898659129419,37.14226374488362],[112.66895582241233,37.14131140795426],[112.66883169939427,37.14091222682238],[112.66848347939073,37.140781984940794],[112.66805273628934,37.140801560586446],[112.66773042434897,37.14098629108507],[112.66746232090043,37.1412693613678],[112.66709204820128,37.141704781354484],[112.66655181247694,37.14212006581374],[112.66591730089189,37.142117723928116],[112.66515235793729,37.14184466940332],[112.66435734135207,37.141675644101404],[112.66409214954835,37.14161805923263],[112.66381173210893,37.1415571693044],[112.66313314063945,37.14127613194958],[112.66204826314721,37.14068545105391],[112.66100395031545,37.13982615384717],[112.66027545116705,37.1389016082059],[112.65979870230316,37.1380703876738],[112.65950610273849,37.13729739927747],[112.65926339786658,37.13676247885981],[112.6591181760158,37.13644240689938],[112.65849278413434,37.13553442484421],[112.65777260499505,37.134794445231755],[112.65730483655192,37.13427858480464],[112.65718166645713,37.13414275062881],[112.65689676488509,37.133430463763716],[112.65699415642875,37.13280067689204],[112.6571963197362,37.13213789221507],[112.65711390762712,37.13179468178421],[112.65702382307957,37.13141953052419],[112.65624653976458,37.13089656925592],[112.65512265128426,37.130572151898576],[112.65419583023389,37.13025398380223],[112.65366108145102,37.12991907634598],[112.65328681325694,37.12962247371526],[112.65318246738512,37.12959549499716],[112.65317251269019,37.12959292016445],[112.65273303427084,37.129479285028154],[112.65203229100285,37.12956338243517],[112.65113899642489,37.12975151919015],[112.65082614277105,37.12977974565347],[112.6501647546804,37.129839414721076],[112.64938373394779,37.12978947018719],[112.64907467495456,37.12974320186965],[112.6487367254376,37.129692607318106],[112.64807060076599,37.12965457006426],[112.6475233717814,37.12965091473353],[112.64723698976528,37.12962264018688],[112.64704341327764,37.129603527282754],[112.64645248271343,37.12930315455426],[112.64575242720072,37.12857327176661],[112.64570202471843,37.128520722157226],[112.64502288323835,37.12752331570329],[112.64497036088702,37.127450335255574],[112.64452694475787,37.12683419749906],[112.64430724961865,37.12674293757104],[112.64398124122324,37.12660751464633],[112.64290232468436,37.12669905534672],[112.64139137671725,37.12681233624459],[112.64057794051305,37.12685188367953],[112.64009593720203,37.12687531624145],[112.63899558086973,37.126951351285726],[112.63782882014759,37.12698099328196],[112.63687917430921,37.12670805180564],[112.63885089670687,37.12759025021481],[112.64093717677005,37.128247920416506],[112.64203458445604,37.12943416041583],[112.64277239155378,37.13051095180783],[112.64272321762537,37.13154143729954],[112.64303987250557,37.13296733114217],[112.64327397018424,37.133879466818925],[112.64436159400842,37.134608128113136],[112.64717736013588,37.13594209602313],[112.64956210840761,37.1371675733065],[112.65267003712533,37.138783397153794],[112.65326520788611,37.13986210823312],[112.65502340241542,37.14183995748153],[112.65696856829193,37.142556519829526],[112.65948156981646,37.14309346580426],[112.6602812020586,37.14371158802763],[112.66101315496955,37.144502285642226],[112.66204342384073,37.145860905713626],[112.66301105063887,37.14762087216497],[112.66345477178436,37.14830117607298],[112.66504042813413,37.148908227561975],[112.66619615758202,37.14946409129292],[112.66692446247502,37.15008316882766],[112.66821684059957,37.15035103668268],[112.67072765547196,37.15077334839384],[112.67131940261282,37.151680378558424],[112.67134584414195,37.15288143475543],[112.67165810021169,37.15407845956269],[112.67268491067271,37.155265397815796],[112.67342341138772,37.15634197693051],[112.67450281203153,37.156669992027275],[112.67545067146771,37.15751475577115],[112.67613419518192,37.15933583467651],[112.67624607438484,37.16116499877195],[112.67599938939902,37.16294202371345],[112.67531255110227,37.16421037483514],[112.6741779789667,37.16462688911093],[112.67218961167832,37.16522707800163],[112.67035924811572,37.16651153573782],[112.66967731858175,37.16800862933689],[112.66858668099377,37.17042684918735],[112.66841126431379,37.17220285414072],[112.6685217304669,37.17397483221219],[112.66863849419275,37.17603277485849],[112.66961927366889,37.17836459573489],[112.67022508937045,37.17990074485505],[112.67033183685744,37.18150113901293],[112.67071947228659,37.18286872800406],[112.67076357634642,37.18487047944459],[112.67052930759102,37.18721941931507],[112.66991995626931,37.1887726989941],[112.66837975347522,37.19054218732931],[112.66681685971501,37.192638076582206],[112.66542318741928,37.19430248622314],[112.66465815799052,37.19610107233884],[112.66442459585029,37.19767764541542],[112.66471311394997,37.198603262544424],[112.66339140027735,37.199479991379214],[112.66146129530625,37.201151887687416],[112.65936018341353,37.2031837150124],[112.65714456502066,37.20407289637273],[112.65518297134321,37.20431486743894],[112.6534832554097,37.20426709686641],[112.65222574707585,37.20399859386279],[112.65023144088521,37.2027391593411],[112.64798773663105,37.20234132164301],[112.64467311522694,37.20202983077127],[112.64092248221431,37.20222488241912],[112.6379731111983,37.20226570931401],[112.63629351116214,37.20314708808311],[112.63542597982558,37.20437480001735],[112.63476031601195,37.206672420092815],[112.63445060317164,37.20889360997414],[112.63430576616928,37.21046890367672],[112.63390047359947,37.21240535738876],[112.6336816506209,37.21469680351494],[112.63254885926798,37.21607117903813],[112.63177051847968,37.21729763417055],[112.63045578698345,37.21853147012295],[112.6297698615988,37.21989966554698],[112.62916715846974,37.220980659413044],[112.62848426390238,37.22249183233739],[112.6279939780108,37.22464397282878],[112.62751596197563,37.227368048705706],[112.6270179408131,37.22916272443093],[112.62713346936451,37.23037686227907],[112.62688828895983,37.23145292923244],[112.62637179693795,37.232389697098924],[112.62596931790608,37.233334225428564],[112.62560547960511,37.234188051266656],[112.62519512189473,37.236054471647584],[112.62516933453303,37.23617175522344],[112.625116584244,37.23641167210517],[112.62508841107858,37.236501451819976],[112.62507156807162,37.236555123664125],[112.62504445787106,37.23664151382456],[112.62498384070706,37.236834677586955],[112.6245305702875,37.23827905658461],[112.62427971984712,37.238632164514165],[112.62418113547517,37.23877093503398],[112.62379004092354,37.2393214463572],[112.62340187338776,37.239867828659996],[112.62218523992841,37.241529306862255],[112.6199649932437,37.242274839633716],[112.61793730631716,37.24366131819092],[112.6145650971972,37.24492308056745],[112.61036813922566,37.24526629754182],[112.60876757415019,37.24571713775385],[112.60707604197688,37.24609767854869],[112.60458115066051,37.24656059968944],[112.60256063315387,37.248304286681645],[112.60160867624793,37.24981894797316],[112.60120292782702,37.25036657317962],[112.60021707251393,37.251697111561015],[112.59889670289903,37.25271613814757],[112.59707196479816,37.25260203511962],[112.59701552100749,37.25259850538973],[112.59680461374265,37.25255339839815],[112.59449924998246,37.25206031781248],[112.59243620842858,37.25180203468346],[112.59119871354397,37.25175278144073],[112.59039425513338,37.25172075717318],[112.59015457280928,37.251711214163166],[112.58975013803824,37.251695110754184],[112.58970651566415,37.25167914700889],[112.5897060999841,37.251678995825685],[112.58946429015597,37.25159050536357],[112.58767661612211,37.250936290688315],[112.58631260795408,37.24988187542113],[112.58565210967845,37.248245916017474],[112.58500661743703,37.247324885348476],[112.58363523139789,37.24591296925654],[112.58309424607886,37.24460619033504],[112.58269308788967,37.24363713618746],[112.58266223437177,37.243527212610246],[112.58211318194276,37.24157099522263],[112.5813634301932,37.2399362008315],[112.58087151797777,37.237797362519906],[112.5802187144949,37.23651883258086],[112.57991613703834,37.234878057684696],[112.57942762830392,37.232041192535696],[112.57952056702588,37.22963709319842],[112.57976013425207,37.22740266958682],[112.57974462046221,37.22665913449089],[112.58042525096069,37.224990932826],[112.58267335434445,37.22301573338744],[112.5850108162824,37.22189746015701],[112.58791796339241,37.220657080967854],[112.58960200727441,37.219089790627685],[112.59105821743522,37.21689621722535],[112.5920113469176,37.214594968105544],[112.59219583246302,37.21316221277047],[112.59280095696339,37.211323323384434],[112.5933489791209,37.21017173100837],[112.5935394453984,37.20902494783768],[112.59438430102452,37.2083842551396],[112.59529703578065,37.207571009108165],[112.59628005131773,37.206699598141384],[112.59697943661233,37.20594642641272],[112.59708869214656,37.20434304399713],[112.59748998088502,37.2030217778764],[112.59865122113469,37.20043161122178],[112.60017228691108,37.19795099446191],[112.60259971312169,37.19437108708651],[112.60336315918796,37.19327374471609],[112.60399086081253,37.1925215013656],[112.60467430385944,37.19102475578582],[112.60528502114737,37.189471781032985],[112.60553343180767,37.18769486940866],[112.60542440358655,37.185922801909264],[112.60539291992028,37.184435738852024],[112.60477384191923,37.182212891588264],[112.60418625683353,37.1814771045059],[112.60372108397236,37.179767066596945],[112.60363267387775,37.17896730639358],[112.60259933498193,37.17743658672737],[112.60247472830717,37.17664420002523],[112.60245241775918,37.176502322295235],[112.60239354424046,37.17612792845101],[112.60235859307119,37.175905666867514],[112.60218637390533,37.17481045512634],[112.60215814583367,37.174505675481825],[112.60209091451442,37.17377978933871],[112.60200114889157,37.17281056474708],[112.60125381976565,37.171275962779355],[112.60081171241134,37.170652613012074],[112.59841941282203,37.16908299683048],[112.59753724381054,37.168611645349046],[112.59747946292929,37.168580771906285],[112.59670268560556,37.167925143690155],[112.59667885334768,37.16790502837339],[112.59666363836153,37.16775171229312],[112.59658812992505,37.16699086869521],[112.59657007831517,37.16613294146731],[112.59665005353625,37.16591532475317],[112.59724622763129,37.16429306354081],[112.5982760515472,37.16227677598322],[112.59959769612213,37.160542598139585],[112.60064067734298,37.15915543899349],[112.60197670058645,37.15810757744154],[112.60324847704464,37.157403838758384],[112.60465830889268,37.15646937079389],[112.60604511551992,37.15444818210599],[112.60785451745733,37.15213518631777],[112.60930776489538,37.149884212785345],[112.61090746741816,37.14780286397043],[112.61230366909659,37.146239166563355],[112.61348547528307,37.14467837229431],[112.61524000969803,37.14316697224791],[112.6164326636129,37.14212090397505],[112.61854307490083,37.14054738965257],[112.6186481755613,37.138772398970644],[112.61818053954983,37.13694801756038],[112.6172019075391,37.13461570433086],[112.61582857094288,37.13220056286721],[112.61527475957281,37.13065863290098],[112.61446483467734,37.12757070763979],[112.61380758267264,37.1246594826747],[112.61306713289763,37.121332215644486],[112.6134945661901,37.120432465580585],[112.6149132251649,37.1206515271851],[112.61619575974396,37.12146838249401],[112.61897142658975,37.122503220547486],[112.62062223553546,37.1231362093573],[112.62181521350577,37.1232390826552],[112.62360213895136,37.123274213977716],[112.62524790458649,37.12366882513842],[112.62906669334332,37.12474871076392],[112.63338848960142,37.12498720675594],[112.63538774652127,37.12446043998865],[112.63522958558283,37.1236134574293],[112.63522536374678,37.1225999223003],[112.63542006331038,37.12174581763378],[112.63573962348342,37.120975581900524],[112.6360072782091,37.12024435448023],[112.63610455913918,37.119961457021944],[112.63574659942317,37.11989431874722],[112.63489354426517,37.11989031968763],[112.63418835894016,37.11989553787322],[112.6336718921897,37.11974949096963],[112.63350667225812,37.11961618205441],[112.6332711618451,37.119426159091695],[112.63290003472818,37.119073134852485],[112.6324531965256,37.118894588636714],[112.63182738258872,37.118927981722834],[112.63124385663411,37.11906440130566],[112.63084102517551,37.11910147832794],[112.63039472265989,37.118947694345934],[112.62975885878643,37.11857802870041],[112.62896030006819,37.11799886712649],[112.62802921396509,37.11717375142735],[112.62788431606333,37.116882489184476],[112.62753617833492,37.116182692827145],[112.62764158490444,37.115669205421675],[112.62705827890049,37.115590557094066],[112.62671134489126,37.11554377732508],[112.6250632005593,37.11503002545463],[112.62167606697732,37.11322895246191],[112.61867626673465,37.11213763871863],[112.61773021120015,37.11208378223016],[112.61614315353557,37.111993416420894],[112.61412699476189,37.11166331274758],[112.61049444207039,37.11230867654582],[112.60879729357842,37.112987273947574],[112.60791466088874,37.11347601505608],[112.60635617992939,37.11367593248877],[112.60590817556371,37.11371195283386],[112.60542050959441,37.11375115931189],[112.60457325102145,37.11381927164417],[112.6037061740716,37.113934167555584],[112.60258946213811,37.114082132878494],[112.60256964417648,37.11408475864871],[112.60223705689015,37.114113512360696],[112.60093548436713,37.11422603178588],[112.59922692351303,37.114368286248606],[112.59913347614058,37.114377581805265],[112.59856094725103,37.11443453323576],[112.59714763635401,37.114575107389385],[112.59596607469614,37.115008192230086],[112.59582618605008,37.11510478639277],[112.5958065021439,37.115118378528756],[112.59543793372879,37.115372875911866],[112.59523125315691,37.11565225328313],[112.59474323373095,37.11631191627307],[112.59469895134906,37.11845795662181],[112.59471995068405,37.11945888083892],[112.59458938757942,37.12174910965567],[112.59479645591482,37.123105103397805],[112.59483846415296,37.125106950900715],[112.59486397184631,37.12632235714933],[112.59434774798392,37.12725899377967],[112.59312918392776,37.128777188072355],[112.59272911960944,37.12936681089231],[112.59218842644613,37.130163677373204],[112.59200285964654,37.13043716042529],[112.59087948345926,37.132240112000495],[112.5885907101567,37.13384413550378],[112.58674385122224,37.13522765656238],[112.58507254241405,37.13646577098407],[112.58376434844651,37.13798506887064],[112.58381503371133,37.1404158888977],[112.58425172069262,37.14122621687771],[112.5844655206103,37.141622942572894],[112.58555957971616,37.14268102969525],[112.58679040157783,37.14367537321946],[112.58764951151308,37.14436939822316],[112.58918871048789,37.14534996979269],[112.59010426669795,37.14641040598652],[112.59074592053227,37.147188453732284],[112.5909574995034,37.14875893230127],[112.5909026392402,37.1504045016074],[112.59066764403447,37.151980974755915],[112.58958285780656,37.15564276814539],[112.58832829440644,37.159735913251566],[112.58803979937123,37.16302944100461],[112.58847880033031,37.164443408903814],[112.58861469791196,37.1648811071199],[112.58891113774924,37.166235904418464],[112.58917780220253,37.166582650884166],[112.58980661255605,37.167400283629824],[112.59038095174591,37.168147068888075],[112.59092514204676,37.16864458142415],[112.59115913934554,37.16885850500907],[112.59138315061841,37.16906329675659],[112.59145748289397,37.1691774375923],[112.5916818258937,37.16952192563248],[112.59190778331438,37.169868888080565],[112.59199699263341,37.17000587073871],[112.59212185712275,37.17019760041119],[112.59216958263893,37.17028509379653],[112.59228607750549,37.170498663351054],[112.59237366214934,37.170659228580476],[112.59237469256442,37.1706611184624],[112.59245156026248,37.170802036251075],[112.59258656067465,37.17104952389095],[112.5928695914586,37.171760861423635],[112.59281777663446,37.173549413894044],[112.59258877245047,37.17541186091947],[112.59216755594582,37.17663326407912],[112.59140393494542,37.17857440616082],[112.59072062908714,37.1800853804332],[112.58853327734802,37.182331670578],[112.58731674354573,37.18399280406384],[112.58585152284657,37.186586937618806],[112.58436827632376,37.188323123393396],[112.58388587778681,37.19090408228087],[112.58408551990071,37.19190260931495],[112.58455774828481,37.19311203222156],[112.58458763760156,37.19454191328438],[112.5847917845657,37.195754920761594],[112.58626807896985,37.19795209222866],[112.58755522898137,37.19965118074047],[112.5883970549559,37.201427742846505],[112.58853588623774,37.203785840032474],[112.5880430621792,37.205866352034825],[112.58699893537522,37.207239111460694],[112.58489680356487,37.20861410594786],[112.58334999977399,37.20946912435541],[112.58142698529753,37.21015036393464],[112.579439381721,37.21130919272265],[112.57863861168138,37.21221379181073],[112.57791728089902,37.21335570957353],[112.57712143340784,37.214498614479915],[112.57632928197084,37.21582024809889],[112.57567494138664,37.216603690429395],[112.57508764957917,37.21702866823303],[112.57442461652111,37.217395054590526],[112.57316931638809,37.21794809113952],[112.57229885246485,37.219091954334296],[112.57150286164793,37.22023482375756],[112.57152635201086,37.22136681583154],[112.57131892135095,37.222144301388575],[112.57096989830005,37.223281234125935],[112.56995280638436,37.2245462164481],[112.5699005375251,37.2256196162751],[112.56962104394306,37.22651724426138],[112.56861006047238,37.22808010735597],[112.56818646434539,37.22921801940441],[112.56814033901902,37.23058931246529],[112.56816008534751,37.23154256774078],[112.56833872985197,37.232970476020164],[112.56851244378674,37.234160071471194],[112.56846756028328,37.235590940804244],[112.5685556547981,37.2362453159521],[112.56879401917688,37.2369572944817],[112.56888952981332,37.23796914010803],[112.56942844320405,37.23879632399363],[112.56959106984816,37.23944971079677],[112.56959848381591,37.23980717974631],[112.57035355930243,37.24027392491001],[112.57073728242538,37.24080518708408],[112.57133591282391,37.240916432373666],[112.57193825650313,37.24120641063834],[112.5722204904977,37.242233651571574],[112.57242311069605,37.24337517819864],[112.5720861990384,37.24438084271458],[112.57103978715674,37.245681977382446],[112.57053882890851,37.2474049496618],[112.57093515011762,37.24925904412781],[112.57290862905204,37.249518894673535],[112.57435444410623,37.25021481120247],[112.5768735070664,37.25089641752077],[112.5779616401117,37.25159705318141],[112.57881806575867,37.25188306534429],[112.57881821443421,37.251883114715646],[112.57925298468069,37.25202830766707],[112.57962651070342,37.252153045687],[112.58084449982482,37.25255977889425],[112.58125794732258,37.252879414738956],[112.58133780190057,37.25294114974421],[112.58148877398864,37.25305786475741],[112.58175381856675,37.25326276670526],[112.5820520269347,37.253885680581504],[112.58220468948821,37.254204568880866],[112.58225873629688,37.25431746181013],[112.5824603800149,37.25473865389626],[112.58250222544115,37.25482605973492],[112.58276955429706,37.25503271801321],[112.58377533428727,37.255810220130364],[112.58405634697175,37.25591787065373],[112.58430076555571,37.25601150227101],[112.58485760881874,37.256224814421316],[112.5863951779206,37.256537978198395],[112.58664736193403,37.25658933907444],[112.5868343098073,37.25662741370985],[112.58826837289732,37.25675120754904],[112.58899501654061,37.25697230143259],[112.59060670353979,37.257462664422086],[112.5906717456215,37.257482452786206],[112.59096966276985,37.2575730919655],[112.5919188443601,37.258193475587944],[112.59218071929979,37.25836463400665],[112.59221953044806,37.25838999983528],[112.59239646617768,37.25850564136321],[112.59332829889523,37.259114659636595],[112.59622370327494,37.26064894080311],[112.5985825409314,37.26219039733278],[112.6019815407149,37.26214444452682],[112.60519556682229,37.26181485106551],[112.60839435652021,37.26077024550766],[112.61124441959635,37.26015938018779],[112.61319999681213,37.25956064059053],[112.61545885452871,37.25897495453352],[112.61503577218875,37.25838620225656],[112.6149925694993,37.25832608232218],[112.61470246033458,37.257922365356144],[112.61438619182846,37.25768289652016],[112.61423163794736,37.25756587299879],[112.61423159212508,37.25756583848676],[112.61358329674816,37.257074959274625],[112.61291204754852,37.25660710112855],[112.61276237440576,37.25650277644017],[112.61241943554322,37.25611954912672],[112.61234088864855,37.25603177482771],[112.61234034949558,37.256031174933035],[112.61191805390202,37.255559261088166],[112.61163519384804,37.25504542725581],[112.61124241058124,37.254331896526914],[112.61109894841552,37.25335973643434],[112.61108517571677,37.253266401901186]]]]},"properties":{"code":"SXPR-P21","name_short":"四县垴","name_full":"山西四县垴省级自然保护区","zone":"buffer","area_km2":37.668,"feature_count":1}},{"type":"Feature","geometry":{"type":"MultiPolygon","coordinates":[[[[112.60014674525578,37.28347269019084],[112.60058967283615,37.28341600330871],[112.6018584628819,37.28345843075708],[112.60324278568227,37.28349662166176],[112.6036183240834,37.28350697742699],[112.60436196758553,37.28285028501411],[112.60495753269986,37.28232434395847],[112.60528638399671,37.28207384295184],[112.60598843373936,37.281539049237935],[112.606255024648,37.281335966583704],[112.60719176317718,37.2807488931618],[112.60782948103449,37.28044967542347],[112.60829510155808,37.28001089175022],[112.60836914977482,37.279185513215374],[112.60828406236988,37.2778690246571],[112.60833343726043,37.2775744520132],[112.60839716254482,37.27719425223195],[112.6085197932871,37.27646258698993],[112.60903146474922,37.27574160134766],[112.60922512866938,37.27546870820764],[112.61005647162872,37.27496638472678],[112.61061198602748,37.27454889359209],[112.6109577929054,37.27397883792667],[112.61126946063754,37.27332816369184],[112.61173294150531,37.27274004972409],[112.61173598203574,37.2727361910146],[112.6124392848113,37.2720801798014],[112.61260971482731,37.271877338959214],[112.61271573902967,37.27175114946864],[112.61317248173302,37.271207526613345],[112.61343823689096,37.27062999042461],[112.61364182075445,37.27018755740284],[112.61379649901787,37.26921467108269],[112.61384053392436,37.26888081463414],[112.61394143929772,37.26811578309423],[112.61444511584564,37.26689037538726],[112.61484289141508,37.266494763972354],[112.61508821044936,37.266250781410484],[112.61535440522319,37.26598602594318],[112.61640207137953,37.26539286299247],[112.61710023623384,37.26463328223665],[112.61714176184331,37.263903540075084],[112.61716783419297,37.26344535215356],[112.61698103791188,37.26274382501477],[112.61668141611162,37.26161855514293],[112.61648812650238,37.26112350793998],[112.61621420652583,37.26042194640723],[112.61587576326552,37.25955510523328],[112.61545885452871,37.25897495453352],[112.61319999681213,37.25956064059053],[112.61124441959635,37.26015938018779],[112.60839435652021,37.26077024550766],[112.60519556682229,37.26181485106551],[112.6019815407149,37.26214444452682],[112.5985825409314,37.26219039733278],[112.59622370327494,37.26064894080311],[112.59332829889523,37.259114659636595],[112.59239646617768,37.25850564136321],[112.59221953044806,37.25838999983528],[112.59218071929979,37.25836463400665],[112.5919188443601,37.258193475587944],[112.59096966276985,37.2575730919655],[112.5906717456215,37.257482452786206],[112.59060670353979,37.257462664422086],[112.58899501654061,37.25697230143259],[112.58826837289732,37.25675120754904],[112.5868343098073,37.25662741370985],[112.58664736193403,37.25658933907444],[112.5863951779206,37.256537978198395],[112.58485760881874,37.256224814421316],[112.58430076555571,37.25601150227101],[112.58405634697175,37.25591787065373],[112.58377533428727,37.255810220130364],[112.58276955429706,37.25503271801321],[112.58250222544115,37.25482605973492],[112.5824603800149,37.25473865389626],[112.58225873629688,37.25431746181013],[112.58220468948821,37.254204568880866],[112.5820520269347,37.253885680581504],[112.58175381856675,37.25326276670526],[112.58148877398864,37.25305786475741],[112.58133780190057,37.25294114974421],[112.58125794732258,37.252879414738956],[112.58084449982482,37.25255977889425],[112.57962651070342,37.252153045687],[112.57925298468069,37.25202830766707],[112.57881821443421,37.251883114715646],[112.5779616401117,37.25159705318141],[112.5768735070664,37.25089641752077],[112.57435444410623,37.25021481120247],[112.57290862905204,37.249518894673535],[112.57093515011762,37.24925904412781],[112.57053882890851,37.2474049496618],[112.57103978715674,37.245681977382446],[112.5720861990384,37.24438084271458],[112.57242311069605,37.24337517819864],[112.5722204904977,37.242233651571574],[112.57193825650313,37.24120641063834],[112.57133591282391,37.240916432373666],[112.57073728242538,37.24080518708408],[112.57035355930243,37.24027392491001],[112.56959848381591,37.23980717974631],[112.56959106984816,37.23944971079677],[112.56942844320405,37.23879632399363],[112.56888952981332,37.23796914010803],[112.56879401917688,37.2369572944817],[112.5685556547981,37.2362453159521],[112.56846756028328,37.235590940804244],[112.56851244378674,37.234160071471194],[112.56833872985197,37.232970476020164],[112.56816008534751,37.23154256774078],[112.56814033901902,37.23058931246529],[112.56818646434539,37.22921801940441],[112.56861006047238,37.22808010735597],[112.56962104394306,37.22651724426138],[112.5699005375251,37.2256196162751],[112.56995280638436,37.2245462164481],[112.57096989830005,37.223281234125935],[112.57131892135095,37.222144301388575],[112.57152635201086,37.22136681583154],[112.57150286164793,37.22023482375756],[112.57229885246485,37.219091954334296],[112.57316931638809,37.21794809113952],[112.57442461652111,37.217395054590526],[112.57484277685747,37.21716398373735],[112.57508764957917,37.21702866823303],[112.57567494138664,37.216603690429395],[112.57590863833578,37.21632388680311],[112.57632928197084,37.21582024809889],[112.57659525882106,37.21537649421872],[112.57712143340784,37.214498614479915],[112.57791728089902,37.21335570957353],[112.57792598875106,37.21334192422148],[112.57816119142342,37.212969585825626],[112.57827918397884,37.21278279723643],[112.57863861168138,37.21221379181073],[112.579439381721,37.21130919272265],[112.5801466367557,37.210896850659864],[112.58142698529753,37.21015036393464],[112.58334999977399,37.20946912435541],[112.58489680356487,37.20861410594786],[112.58597609944624,37.20790815440726],[112.58699893537522,37.207239111460694],[112.5880430621792,37.205866352034825],[112.58833294986508,37.20464256940009],[112.58853588623774,37.203785840032474],[112.5883970549559,37.201427742846505],[112.58755522898137,37.19965118074047],[112.58626807896985,37.19795209222866],[112.5847917845657,37.195754920761594],[112.58458763760156,37.19454191328438],[112.58455774828481,37.19311203222156],[112.58408551990071,37.19190260931495],[112.58388587778681,37.19090408228087],[112.58436827632376,37.188323123393396],[112.58585152284657,37.186586937618806],[112.58731674354573,37.18399280406384],[112.58853327734802,37.182331670578],[112.59072062908714,37.1800853804332],[112.59132400845336,37.17875114915735],[112.59140393494542,37.17857440616082],[112.59216755594582,37.17663326407912],[112.59258877245047,37.17541186091947],[112.59281777663446,37.173549413894044],[112.5928695914586,37.171760861423635],[112.59258656067465,37.17104952389095],[112.59237469256442,37.1706611184624],[112.59237366214934,37.170659228580476],[112.59228607750549,37.170498663351054],[112.59216958263893,37.17028509379653],[112.59212185712275,37.17019760041119],[112.59199699263341,37.17000587073871],[112.59190778331438,37.169868888080565],[112.5916818258937,37.16952192563248],[112.59145748289397,37.1691774375923],[112.59138315061841,37.16906329675659],[112.59115913934554,37.16885850500907],[112.59092514204676,37.16864458142415],[112.59038095174591,37.168147068888075],[112.58980661255605,37.167400283629824],[112.58917780220253,37.166582650884166],[112.58891113774924,37.166235904418464],[112.58861469791196,37.1648811071199],[112.58847880033031,37.164443408903814],[112.58803979937123,37.16302944100461],[112.58832829440644,37.159735913251566],[112.58958285780656,37.15564276814539],[112.59066764403447,37.151980974755915],[112.5909026392402,37.1504045016074],[112.5909574995034,37.14875893230127],[112.59074592053227,37.147188453732284],[112.59010426669795,37.14641040598652],[112.58918871048789,37.14534996979269],[112.58764951151308,37.14436939822316],[112.58679040157783,37.14367537321946],[112.58555957971616,37.14268102969525],[112.5844655206103,37.141622942572894],[112.58425172069262,37.14122621687771],[112.58381503371133,37.1404158888977],[112.58376434844651,37.13798506887064],[112.58507254241405,37.13646577098407],[112.58674385122224,37.13522765656238],[112.5885907101567,37.13384413550378],[112.59087948345926,37.132240112000495],[112.59200285964654,37.13043716042529],[112.59218842644613,37.130163677373204],[112.59272911960944,37.12936681089231],[112.59312918392776,37.128777188072355],[112.59434774798392,37.12725899377967],[112.59486397184631,37.12632235714933],[112.59483846415296,37.125106950900715],[112.59479645591482,37.123105103397805],[112.59458938757942,37.12174910965567],[112.59471995068405,37.11945888083892],[112.59469895134906,37.11845795662181],[112.59474323373095,37.11631191627307],[112.59523125315691,37.11565225328313],[112.59543793372879,37.115372875911866],[112.5958065021439,37.115118378528756],[112.59582618605008,37.11510478639277],[112.59596607469614,37.115008192230086],[112.59714763635401,37.114575107389385],[112.59856094725103,37.11443453323576],[112.59913347614058,37.114377581805265],[112.59922692351303,37.114368286248606],[112.60093548436713,37.11422603178588],[112.60223705689015,37.114113512360696],[112.60256964417648,37.11408475864871],[112.60258946213811,37.114082132878494],[112.6037061740716,37.113934167555584],[112.60457325102145,37.11381927164417],[112.60542050959441,37.11375115931189],[112.60590817556371,37.11371195283386],[112.60635617992939,37.11367593248877],[112.60791466088874,37.11347601505608],[112.60879729357842,37.112987273947574],[112.61049444207039,37.11230867654582],[112.61412699476189,37.11166331274758],[112.61614315353557,37.111993416420894],[112.61773021120015,37.11208378223016],[112.61867626673465,37.11213763871863],[112.62167606697732,37.11322895246191],[112.6250632005593,37.11503002545463],[112.62671134489126,37.11554377732508],[112.62705827890049,37.115590557094066],[112.62764158490444,37.115669205421675],[112.62770198036466,37.11537498581471],[112.62772211099752,37.11527691412155],[112.62775024942992,37.11523437606223],[112.62779878022266,37.11516100712648],[112.62786103298,37.1150668933027],[112.62792875720976,37.11496450912293],[112.62800888462712,37.114843372146716],[112.62812055408223,37.11467454715397],[112.62848132797927,37.114250638799994],[112.62876100132681,37.11378279551794],[112.62880998779386,37.113345150665786],[112.62883204150997,37.112930398193846],[112.62905918970759,37.11240696650096],[112.62938454496046,37.11164342233188],[112.62951735477056,37.11066539430392],[112.62958495077515,37.11016757715036],[112.62956223568199,37.109247891768575],[112.62956191320755,37.10923483940644],[112.62953723304085,37.10823564182663],[112.62947901780494,37.10790972481422],[112.62928478595676,37.10682232841679],[112.62912360007901,37.10644363052893],[112.62897311306989,37.106090063773614],[112.6285283719305,37.105512793281505],[112.62767173274888,37.10503802935568],[112.62692479793154,37.10456400596481],[112.62662209442261,37.10405235012449],[112.62620819970932,37.10353546243853],[112.62571314589209,37.1032616075858],[112.6255287699712,37.103159612924976],[112.62469415988815,37.10295707004322],[112.6235419895647,37.102797161846674],[112.62311535269458,37.10269545821899],[112.62255907697008,37.10256284758223],[112.62205956232836,37.102216050886305],[112.62198263346704,37.10213601456721],[112.62162175380207,37.10176253974547],[112.62118422485463,37.101387861368075],[112.6206801904992,37.10125735366189],[112.61967852294929,37.10132960338164],[112.61838716776552,37.10113550654169],[112.61722268747339,37.100493682756344],[112.61606490480496,37.09980220087752],[112.61479354150578,37.09948841355196],[112.61346662155303,37.09953801043783],[112.61274099685659,37.09962182818076],[112.6122288537552,37.099680983662886],[112.6112812595755,37.09961728149329],[112.61057466920815,37.09924847127775],[112.60987881790811,37.09862273098889],[112.60919644574295,37.098201776799286],[112.60861147390929,37.098297559191465],[112.6080182724557,37.09873582247694],[112.60729238633141,37.09905144164721],[112.60725898106095,37.099065964085],[112.60643749716388,37.099047815076545],[112.60583447230414,37.09882172987671],[112.60552310308913,37.09855790394564],[112.60525948678132,37.098324966338936],[112.60475962629718,37.09809103938424],[112.60444626244931,37.09799810565271],[112.60416652663999,37.09790053195626],[112.6038047070344,37.097644141289635],[112.60315276728319,37.09733085657054],[112.60224153945573,37.09715622100834],[112.60121283243248,37.097077765271045],[112.60035582767367,37.09694067493688],[112.59983687334594,37.096632333795085],[112.59976534042933,37.09648467307006],[112.5996178840725,37.09618029378352],[112.59963517372798,37.095531354904416],[112.59973718252361,37.09473261076785],[112.59974488703202,37.09433702000246],[112.59975205873971,37.0939688304404],[112.59968151865164,37.09338864929342],[112.59950321176537,37.092965341396905],[112.59900770219551,37.092600369087656],[112.59853997885563,37.09224548569061],[112.59802765605703,37.09185675646598],[112.59769128085797,37.09154767947477],[112.59734353563059,37.09122815112949],[112.59684143399112,37.090766782140655],[112.59590761126077,37.08994594609127],[112.5958198744074,37.08990324516263],[112.59556122201403,37.08977736460354],[112.59501139252728,37.089509766841466],[112.59390034679694,37.08911926327078],[112.59298105850011,37.08872166987283],[112.5928943444419,37.088667457481506],[112.59246612249478,37.08839972658956],[112.59208195627048,37.08821342714501],[112.59201180047697,37.08819755520423],[112.5916155786482,37.08810790402621],[112.59149930872795,37.08808159586027],[112.5910041197015,37.08789678216688],[112.59090519705683,37.08760303623948],[112.5909080168123,37.087199810071304],[112.59094107017343,37.086494348453485],[112.59104052195643,37.08550193213276],[112.59106867448232,37.084528493654204],[112.59103241973223,37.084157389681494],[112.59102332876172,37.08406432753903],[112.59093813421839,37.08319228542091],[112.59087207608918,37.0827992388357],[112.59076428729749,37.08215789846554],[112.59062992349604,37.08135841320523],[112.59046130562173,37.0808266206585],[112.59035223704564,37.08048263643471],[112.59011077177729,37.07972108069339],[112.58953302467035,37.07909046199404],[112.58922399374444,37.07875314823855],[112.58813327437318,37.07835105342372],[112.58728864018357,37.07832406956377],[112.58638087006123,37.078505149571306],[112.58502318780086,37.07888369658864],[112.5835508261097,37.07949351118084],[112.58211840084664,37.079760399578866],[112.58078375321199,37.0793885206086],[112.57974034008518,37.07882579341024],[112.57892883367535,37.07853251707079],[112.57818850578002,37.07858742058709],[112.5775564995602,37.07888414382115],[112.57676435480934,37.07949158034574],[112.57617702956232,37.079972536543565],[112.57578574580042,37.08029294993533],[112.57501746291732,37.080900057825254],[112.57431609840275,37.08117516084059],[112.57326364708797,37.08143239323771],[112.57185031205766,37.08194667611014],[112.57095550391274,37.08247945043342],[112.57051930909329,37.08273915724605],[112.56963511881557,37.08355724559896],[112.56906736699183,37.0842810427302],[112.5686131681132,37.0847172722439],[112.5681678805536,37.084835784351455],[112.567750882259,37.08475795654489],[112.56721236666343,37.08468398502486],[112.56570783945693,37.08469935314693],[112.5650113465438,37.08461976501816],[112.56484197818054,37.08460041117417],[112.5647047450176,37.08592741960025],[112.56379778964768,37.08696920674194],[112.56389269198266,37.08811220081561],[112.56371259064046,37.089773735242275],[112.56338145919337,37.0910367713023],[112.56279056885874,37.09356190306231],[112.56218789591553,37.095515063343875],[112.56171860945992,37.09700876587945],[112.56118846248415,37.09901817709635],[112.55978967350318,37.10046689549352],[112.55904053946782,37.10225032922094],[112.55828199850268,37.10357618278862],[112.55756606128695,37.10470726567536],[112.55696736282904,37.105653097527494],[112.5569474741433,37.108170694829866],[112.55752587695186,37.10841042231606],[112.5583586728655,37.108755579409724],[112.55882065933498,37.10894704838006],[112.56046320335035,37.10892543868426],[112.56231528575036,37.10867219566607],[112.56381263591949,37.108538028498025],[112.56537904352209,37.108288506917425],[112.56571798615437,37.108295828001445],[112.56625000778249,37.10830731848309],[112.56702274345058,37.10832400207022],[112.56773345126565,37.10892257463372],[112.56807545553765,37.109210612405136],[112.5681392178573,37.10926431295145],[112.5686947653326,37.10973219069121],[112.56910844665734,37.110079425773215],[112.56956709707266,37.110464400329874],[112.57063951727685,37.11050740849358],[112.57206783584341,37.1104884758418],[112.57343065561696,37.11075645588715],[112.57408323143902,37.11170528590844],[112.57409353014901,37.11172026025455],[112.57407342778085,37.111763781061136],[112.5736149177814,37.112756430387236],[112.57320653120766,37.11373445572667],[112.57378777456482,37.114636561196605],[112.57373549884527,37.11642512970464],[112.5744137439404,37.11899066336482],[112.57426776100061,37.12056593178167],[112.57411585014981,37.121855217546425],[112.57467673118313,37.12306352162024],[112.5752272561678,37.123771356001015],[112.57480305121575,37.124849716982844],[112.57510647545182,37.12656204366027],[112.5746718847405,37.12713993605694],[112.57416132689755,37.12836247064593],[112.5739275166496,37.13001041931739],[112.57396009882746,37.13158331162074],[112.57390634884199,37.13330038160387],[112.57321714676823,37.13452528382777],[112.57255966088086,37.13548299510889],[112.57217664106959,37.13604090237778],[112.57215673359897,37.13641847059525],[112.57215510234285,37.136449379248056],[112.57214959608466,37.13655383583571],[112.57214703366205,37.13660244646172],[112.57211249331652,37.13725750530699],[112.57109767107019,37.1377151580087],[112.5699884700196,37.13821535557275],[112.5696842845697,37.13862463536438],[112.56869088442956,37.139543642143465],[112.56781358364586,37.140318075989235],[112.56695789919233,37.142141101917815],[112.56638709538511,37.14334056204949],[112.56604853267454,37.144250889372174],[112.56559284850944,37.1452581170894],[112.56502101663692,37.14640990664186],[112.56408995019004,37.147471083413976],[112.56362538825928,37.14804933280147],[112.56352691198455,37.14905183841841],[112.56276363545585,37.14958634809372],[112.56265533884108,37.15011221717527],[112.56224931463821,37.15064201178466],[112.56232651296405,37.15149917039443],[112.56180825187936,37.152364178850135],[112.56122847069673,37.153134644415466],[112.5603421227902,37.15348005416973],[112.5598110946627,37.15372542744175],[112.55964909681592,37.15453806146622],[112.55889161104554,37.15535852756284],[112.55842402709149,37.155793767835625],[112.55753568135793,37.15604383102586],[112.55682499746109,37.156243876008794],[112.55606355583575,37.156873671988095],[112.55530307710522,37.157551127907716],[112.5544888893545,37.15851534092705],[112.55396268700257,37.158999007553824],[112.55344525332735,37.159911647286044],[112.55262907053822,37.16078052258773],[112.55098300760405,37.16185096203611],[112.5509621565061,37.16188873145785],[112.55068280637838,37.162394732342214],[112.55063834405635,37.16247526792702],[112.55172591898625,37.16322385221742],[112.5517715137516,37.16332288493622],[112.55216230149622,37.164171665897804],[112.5521602687487,37.16418401325509],[112.55208976403934,37.164612049408866],[112.55215924823499,37.16496048284132],[112.55221138027568,37.16522189749626],[112.5522307465138,37.1653190121854],[112.552103076191,37.16612868822013],[112.5520398144658,37.166529875135126],[112.55199492854996,37.16681453438969],[112.55196941710737,37.166976321840245],[112.55203001207059,37.16709734599148],[112.55289285324251,37.16882062565734],[112.55303021131853,37.1701963496019],[112.55366079825284,37.17130826280021],[112.55485365836172,37.173502834605145],[112.55508483841065,37.17493487606382],[112.55509244769668,37.17530605588956],[112.5550215640194,37.1759352708849],[112.555476234288,37.1771879564141],[112.55556296202732,37.17793056958993],[112.55642180284333,37.179795296455104],[112.55661063260406,37.18020527147256],[112.55679536837133,37.182236747303506],[112.55705493827568,37.184433085181205],[112.55705471286323,37.18443806596918],[112.5570395159521,37.184774208991435],[112.55700576509392,37.185520752384605],[112.55725311570524,37.1871194212139],[112.55756013022504,37.18809909779445],[112.55762492675262,37.1883058574017],[112.55766038723118,37.18860164400178],[112.55776624873785,37.189484652519425],[112.55785104716108,37.19019194553244],[112.55799608872138,37.191401685056306],[112.55819809300905,37.19301915405545],[112.55822098084442,37.19413268931947],[112.55822226740081,37.19462453652502],[112.55822314698221,37.1949606541314],[112.55822639713915,37.19620324352029],[112.55905286367057,37.19813755495565],[112.55892868848349,37.19905457181028],[112.55938122148754,37.20019284186146],[112.55983847760082,37.201559893558205],[112.56001209536282,37.2030451005563],[112.56003917622134,37.20436060511168],[112.56028313307051,37.2057876734107],[112.56087403040142,37.20669526818046],[112.56205587177293,37.20851044745095],[112.56250143760838,37.209305527347894],[112.56337134938347,37.209866159661495],[112.56367061587531,37.210493571234956],[112.56385822064235,37.21088687911337],[112.56437549519221,37.21197130419464],[112.56484164200853,37.21289482883912],[112.56501376664308,37.21401293975707],[112.56488545839179,37.21501583105622],[112.564697057497,37.215995678560915],[112.5645369755501,37.216903636148245],[112.56401979372166,37.217840150672615],[112.56353387630912,37.218847762779504],[112.56328732651866,37.219899888134044],[112.56349761407498,37.22142274351379],[112.56354660234041,37.22235177697385],[112.5642512157052,37.2232721528828],[112.5654421346444,37.22548526276655],[112.56545790154344,37.22624786846342],[112.56541504845507,37.22705892590309],[112.56404708744004,37.22722003019526],[112.5630210108856,37.226613792849626],[112.56188065584698,37.22624743274819],[112.56043738038622,37.225646674062546],[112.55947684566064,37.22532559568833],[112.55791832202137,37.22491702849104],[112.55666077124287,37.22464751048454],[112.55521756588813,37.224046686359415],[112.5537851400201,37.223970141017695],[112.55288816669078,37.22383887956448],[112.5523918005647,37.22289186726338],[112.55137563815994,37.22276215668764],[112.55042200617424,37.22277464680042],[112.54894073055931,37.22322311520994],[112.54799293779104,37.22352156491764],[112.54800852791628,37.22428417899826],[112.5482107255413,37.225425759842246],[112.54841000679602,37.2264243500943],[112.54766339621042,37.22781671440372],[112.54678780657159,37.22873400043792],[112.54621020899245,37.23012057163675],[112.54649670134924,37.231010754788294],[112.54759377094713,37.232176401095785],[112.54855236264312,37.233129306415165],[112.5494611490523,37.233832555830475],[112.55050627418773,37.23464128427022],[112.55199777891362,37.23540839734],[112.55243828488692,37.23726198217359],[112.55246468101866,37.23854888436598],[112.55262154853085,37.23965529313441],[112.55290815584776,37.24054545684564],[112.55412932397066,37.24120881515621],[112.55463364469276,37.24181005986711],[112.55465494260216,37.242846729986454],[112.55326667480544,37.244938851570545],[112.55162983316507,37.24727259267513],[112.55098400997586,37.248496788692506],[112.55060207427672,37.24950298407854],[112.55008743926915,37.25058243004024],[112.54988875064763,37.251800765140814],[112.54999283796668,37.25251453990557],[112.55147736451931,37.25292417448553],[112.55251691086733,37.253446899131944],[112.55350588117544,37.253684223373],[112.55422874030273,37.25403230199563],[112.55446776645897,37.25478005745163],[112.55434682976558,37.25542526729396],[112.55391724814137,37.25628907136585],[112.55424572081895,37.25703565274819],[112.55545688218889,37.25719852835424],[112.55693269803632,37.25717912654812],[112.55840703929451,37.257088211674464],[112.56014601798097,37.256815009316426],[112.56148322992881,37.256582836260186],[112.56273542546307,37.256566311777206],[112.56408001537187,37.2566915804252],[112.56537841015758,37.25674593242666],[112.56613719234485,37.256664381803404],[112.56676032633223,37.25651310870258],[112.56822945002433,37.25617184441565],[112.56925357797691,37.25594373208823],[112.57064288594081,37.256068333328656],[112.57234227281486,37.25604577286311],[112.57377854121285,37.256276985245755],[112.57708747522497,37.25610953619469],[112.5783620166335,37.256450116390745],[112.57926233781558,37.25679505698898],[112.57933905346968,37.25682444867344],[112.57934303095051,37.25683426372179],[112.57948883236945,37.2571940726652],[112.57956537313032,37.257382960967],[112.57977139815598,37.25789138044793],[112.5797886982837,37.25821786404194],[112.57983293271418,37.25905265046772],[112.57967253657961,37.25993637663809],[112.57963234327119,37.260157825185594],[112.5798711652771,37.26048104681074],[112.57993535569372,37.26056792459218],[112.5799943343208,37.26064774448528],[112.57999845924896,37.260653326671815],[112.58036701617128,37.26115212606367],[112.5804447601207,37.261257342523244],[112.5804784039937,37.2613028751033],[112.58061605971213,37.26148917162632],[112.58089685326557,37.26186918323826],[112.58122117436517,37.2631163346858],[112.5811257745927,37.263283602781904],[112.58101928214576,37.263470319115456],[112.58056602783583,37.26426501257024],[112.58050191399009,37.26437742249251],[112.57940120024222,37.26522643696593],[112.57912542507938,37.26630281701046],[112.57869930701219,37.26732160386234],[112.57813403744368,37.26881900270453],[112.57680796417726,37.27005805486206],[112.57671744474241,37.27014263191698],[112.57645176031907,37.27039087423368],[112.57467997045092,37.2712487817656],[112.57458116305813,37.27126839459392],[112.57411596772221,37.271360730388736],[112.57274912515607,37.27163202029418],[112.57252933143452,37.27189204837751],[112.57247716152442,37.271953767342964],[112.57173020238437,37.27283744449435],[112.57085044712466,37.27356425749234],[112.57041551394377,37.27416597145974],[112.56885733456271,37.27454420266317],[112.56745194933104,37.27509917355723],[112.56678961372911,37.275525104113576],[112.56530840632031,37.27602145928456],[112.56420365604649,37.276691603869395],[112.56363802991862,37.27818893761704],[112.56351523183648,37.27936652550875],[112.56351356836603,37.27938247086923],[112.56350913354112,37.2794532368873],[112.56345750010226,37.28027712746044],[112.56422035195487,37.28110136769733],[112.5649135961098,37.28216490173197],[112.56596855252779,37.28268729629995],[112.56759406080207,37.281950644197416],[112.5689983335095,37.28133609157906],[112.57048333033961,37.281018422889694],[112.57189995328545,37.28099961632542],[112.57271390372566,37.280690830870284],[112.57486865433293,37.2803046127507],[112.57665308076828,37.28004247612887],[112.57926260533056,37.28000768333922],[112.58059966238757,37.27975145727625],[112.58103329602919,37.27909012743375],[112.581844692446,37.278662125565226],[112.58272938525755,37.278173543007725],[112.58495981361538,37.27784572224692],[112.58793577055516,37.27750785980529],[112.58935607569659,37.277667577511856],[112.59100506715849,37.27806258097564],[112.5915445195122,37.27888964649258],[112.59231644430395,37.28013074233263],[112.59293676509083,37.28125468180791],[112.59414729878876,37.282072700687806],[112.59542864452887,37.28271096947388],[112.59715611258751,37.28328361011994],[112.59902768742178,37.2836159016386],[112.60014674525578,37.28347269019084]]]]},"properties":{"code":"SXPR-P21","name_short":"四县垴","name_full":"山西四县垴省级自然保护区","zone":"experimental","area_km2":56.769,"feature_count":1}}]}