{"type":"FeatureCollection","features":[{"type":"Feature","geometry":{"type":"MultiPolygon","coordinates":[[[[113.32220130760952,37.4905617560667],[113.32591246341472,37.488701130779084],[113.3291661794182,37.48656340729756],[113.33001851767297,37.485116544295686],[113.32967183914825,37.482620787996005],[113.32921996989586,37.479626602014825],[113.32917782719991,37.47826888982388],[113.33054365082185,37.476025359421854],[113.3336826106648,37.47310328774835],[113.33407090837375,37.47116501462234],[113.33373601843039,37.46616652754237],[113.33397239388242,37.46222920513611],[113.33657348698166,37.45645745192326],[113.33742981425667,37.45515347510325],[113.3396640676462,37.45489472930045],[113.3415602760881,37.45242609387321],[113.34364901866095,37.450382603453974],[113.34629997406793,37.44911445977299],[113.34934083811613,37.44597942367312],[113.35150302908862,37.44629391999309],[113.3558050397068,37.44620823234291],[113.35902254993465,37.44585802654306],[113.36099652464421,37.44589008523856],[113.36314749774377,37.44584709685498],[113.36601995961928,37.44593260519235],[113.36868160587322,37.44502124373391],[113.37095989836395,37.44333099317707],[113.37259494808625,37.44115309376429],[113.37398817874463,37.439838066336684],[113.37577145034892,37.439516200837694],[113.37769408683903,37.44076457655257],[113.38088277130451,37.44234490478572],[113.3843892274593,37.44263170080289],[113.38563707862141,37.442392004709234],[113.38926595092812,37.44088861880063],[113.39356979597434,37.44087299340159],[113.3983953601176,37.44034611011502],[113.40292227293644,37.43889556311848],[113.4052499197887,37.43877669478055],[113.4082303138773,37.436642423726745],[113.411302437756,37.434577689423],[113.41441113714465,37.433656182352635],[113.41735433831515,37.433166982203296],[113.41971844735203,37.43140254056636],[113.4267089593715,37.42575351676364],[113.42975702923546,37.42297379144731],[113.43024838144953,37.42153366137408],[113.43082699113432,37.42002022185713],[113.43295862181364,37.41940434166716],[113.4351751561369,37.41864366009321],[113.43748820401119,37.41809544030971],[113.43853309560274,37.417144355573114],[113.4387670928344,37.41606700766986],[113.43790291062398,37.41429729856652],[113.43528420215134,37.41370779033164],[113.43298685249529,37.4119675752499],[113.43010184415996,37.41145493991274],[113.42853976889933,37.41027152634243],[113.42698004393874,37.40915955702054],[113.42576714632128,37.407682913765186],[113.42426945276524,37.4057115981885],[113.42278335317576,37.40409753501436],[113.42021787581322,37.4023625610113],[113.41974705513685,37.40165717977209],[113.41921876361941,37.399165439246225],[113.41771453492791,37.39697966161052],[113.41603126085204,37.39479753510378],[113.41398756145404,37.39255123432349],[113.41243759347122,37.39172486521532],[113.41088766645882,37.390898462605826],[113.40958123394921,37.3892805704893],[113.4095446325259,37.38813728267659],[113.40917074731195,37.38485580259598],[113.40839032650815,37.38286965235721],[113.40689360414828,37.380898076598434],[113.40572725259338,37.380850326580855],[113.39466375591464,37.38515062481563],[113.38162739459602,37.39227823153785],[113.37569912129679,37.39468560336545],[113.37485088211918,37.396204216070146],[113.37383924679582,37.39822660721318],[113.37224057436778,37.39868770642748],[113.36455573572756,37.39941373897692],[113.36089686675633,37.39991589438689],[113.35805978242524,37.400902068828934],[113.35634450217415,37.40050724973636],[113.3524683795506,37.39979792786164],[113.35050008120356,37.39990860230968],[113.34768513093391,37.401609119388326],[113.34520786403387,37.405519460907456],[113.3428315835134,37.40692515246496],[113.34045296954395,37.40825933975121],[113.33835192567277,37.40987400208506],[113.3380424806197,37.411453184951256],[113.33883697288275,37.41394007047547],[113.33915465071756,37.41550684776797],[113.33780345117248,37.418179183866194],[113.33352783344411,37.42484224935641],[113.32993742009742,37.43049032270303],[113.32027339632398,37.43983283846636],[113.31465734480281,37.44673577181949],[113.31047443605132,37.45361041107189],[113.30866017716075,37.455862479211355],[113.30689374793441,37.45675501489687],[113.30556888838065,37.45742441250137],[113.30317267492326,37.45825769389692],[113.30157443315115,37.458789377832794],[113.3006453078899,37.46066654344778],[113.29522267551805,37.47106848813656],[113.29183933680105,37.477783992653706],[113.29108889890554,37.48258925912639],[113.29018346193294,37.48638583325817],[113.29264816832531,37.486634669079336],[113.29506289545449,37.48637323855375],[113.29569501683454,37.486503949752766],[113.29988150881961,37.488424549712875],[113.30548332841465,37.489673863424045],[113.30879927817696,37.489537552389095],[113.31113974774522,37.48977777445099],[113.31700425039315,37.49080686390467],[113.32220130760952,37.4905617560667]]],[[[113.29151516171333,37.470360276318175],[113.29376768001615,37.46578802882657],[113.29658114207669,37.46001310327511],[113.2973864516274,37.457018134512126],[113.29928490804984,37.45555114113476],[113.3066816780275,37.45302349783651],[113.30910415153967,37.449162693201934],[113.3126773879126,37.443849259546866],[113.3162244162342,37.43770203301029],[113.32149103029138,37.4340235185476],[113.32510694011035,37.43013893825926],[113.32888287603996,37.42660861117076],[113.33056043020889,37.42288120973616],[113.33079260354397,37.42073154705596],[113.33383971372297,37.41781128094422],[113.3341915671729,37.414705749502716],[113.33379674999355,37.41161522226174],[113.33374869309782,37.410066940785185],[113.33445462650505,37.408741883892624],[113.33835988674613,37.4046127711557],[113.34233518789735,37.402746471559034],[113.34414602989243,37.398539554974825],[113.34588911904143,37.396955728592644],[113.34900535563938,37.39629797930803],[113.35514804019749,37.39689076523679],[113.35752154000916,37.396366770021324],[113.36063389155012,37.39558962883868],[113.36266387767509,37.39364232426706],[113.36517524105815,37.39275789292611],[113.37180590978986,37.38988409403284],[113.37671648092902,37.389308787605806],[113.38117542153729,37.388623202594204],[113.3875179227629,37.38611184728365],[113.39072581352521,37.38366359610699],[113.39408651128932,37.381331337337635],[113.40191272912608,37.378550814986184],[113.40501626228485,37.37753434222787],[113.40582792502755,37.37489608253996],[113.40678877612142,37.372254782240695],[113.40762319166775,37.370331054046716],[113.40830073253791,37.36817218225261],[113.40838140005505,37.366025480226604],[113.40922332232977,37.364339930811575],[113.4117026504231,37.36250181667336],[113.41539836361527,37.361353813647746],[113.41782774691609,37.35796737809166],[113.42251385548506,37.355130508988985],[113.42674267629795,37.353494555019424],[113.42806823602302,37.35238050232275],[113.42995001755313,37.35074017767135],[113.432485364281,37.3493723995792],[113.43339221790976,37.34861010879594],[113.43313681175228,37.34735692411526],[113.43204063758554,37.346693048342516],[113.42848980516915,37.345450406837905],[113.42603146192754,37.344757258615374],[113.42405046615238,37.343310640818586],[113.42251200079066,37.34225533486854],[113.42166749850034,37.340499377692474],[113.42079365111954,37.340059646559105],[113.41826031453265,37.33925347476499],[113.41639332738654,37.339120025756415],[113.41485486386277,37.3402955078483],[113.41024099468548,37.34387900601011],[113.40677274439925,37.34520810258329],[113.40428857407986,37.345945084301],[113.40217877717045,37.34718921748929],[113.40032981944258,37.34762719053886],[113.39751838564023,37.34934310874371],[113.39409765548946,37.34992724769499],[113.38556635612902,37.35204458791788],[113.38033587053374,37.35432369543628],[113.37624909888994,37.356522374675386],[113.3729178375223,37.35996418537169],[113.37019130013633,37.36213534125802],[113.36822369335398,37.36337599698194],[113.36721047447116,37.365341159136214],[113.36603418267057,37.36668034884197],[113.36553839664923,37.369149966462544],[113.36530396881604,37.37081352231322],[113.36462719656284,37.372085506338586],[113.35630200129576,37.376313056796675],[113.35373036189688,37.37659307719612],[113.35145416162183,37.37715320246049],[113.34995698475534,37.37741177123526],[113.34580217647947,37.377494281095885],[113.3410885016847,37.37804535767622],[113.34019454854705,37.379264303314336],[113.3387902413116,37.380207351444795],[113.33759548054493,37.38097460674701],[113.33489804076929,37.381828758283554],[113.33177062041234,37.382691587290914],[113.3299309593349,37.38347150973208],[113.32912964175942,37.38537498937223],[113.32792140865448,37.38803012821991],[113.32668302792874,37.38971340027875],[113.32568879352652,37.39001899194654],[113.32439030715827,37.38975851563966],[113.32214100653663,37.38888749134495],[113.3206134974253,37.38817385938537],[113.3175203850632,37.38783413522236],[113.31437849414468,37.38823891688289],[113.31204402368837,37.38925705225408],[113.30610264935757,37.39189007064034],[113.30552259641425,37.394017904822164],[113.30498279573581,37.397460593568475],[113.30435364956926,37.39798769987263],[113.30207813871098,37.398604085401196],[113.30124796849508,37.39959269168831],[113.29986548069174,37.4012784894678],[113.2991680978521,37.40192128943826],[113.29760378038492,37.40235211500952],[113.29468135493421,37.40292371784541],[113.29376369379501,37.403399171740325],[113.29251733971348,37.404853414535154],[113.29110669627873,37.4056243928394],[113.28997572636229,37.40616114427255],[113.28776105399338,37.406432837433684],[113.28489789041883,37.40660263328079],[113.28181626405062,37.406662143950406],[113.27975527348254,37.407273955697946],[113.27798784164838,37.408108860290994],[113.27555460396772,37.408270120447135],[113.27319474934895,37.40848712183403],[113.2711405361729,37.40932746310272],[113.27036507208634,37.412145282529295],[113.2678563335281,37.41694130151783],[113.2662232727094,37.41748744203925],[113.26267040479009,37.41858515913008],[113.26042827656602,37.42034415224054],[113.25839765352747,37.42198465815762],[113.25770487486581,37.42279874575884],[113.2569661557935,37.42447173902918],[113.25608403434126,37.426147464233836],[113.25469150977277,37.42754693216936],[113.24986299406635,37.42918343322505],[113.24858627206466,37.42966535304661],[113.2473215135416,37.43054747317069],[113.24287329237058,37.430517571595686],[113.2407891493555,37.4303854851408],[113.23880736703646,37.431281108624646],[113.23760393082097,37.43181872340834],[113.2369842441456,37.43268852470479],[113.23622965164438,37.4338468646228],[113.23517636645838,37.434610431636905],[113.23339929662653,37.435158870935055],[113.22400992236636,37.43785291346675],[113.22317999521039,37.4388981879226],[113.22072560054617,37.44323459589676],[113.22004744314724,37.44456302405877],[113.21970099970639,37.44983224107508],[113.2190261555111,37.45127501695947],[113.2144770132933,37.4575955248713],[113.21296832178697,37.45996913516823],[113.21333941596562,37.4676846408386],[113.21412838514446,37.47253214227334],[113.21860623399967,37.47347779794756],[113.22309490863263,37.47236375990232],[113.23028711115988,37.47045492137394],[113.23342277336434,37.46970926689428],[113.23759326004942,37.469973563968985],[113.24463117214621,37.4701260791859],[113.24659178563287,37.470889660990316],[113.25283045625514,37.47071363822681],[113.25583615088769,37.47042746946312],[113.25784453193499,37.470389101231],[113.25967141936081,37.47028265032098],[113.25980469461442,37.47053751338999],[113.26050791722481,37.47117588946797],[113.26245866277024,37.47366148149686],[113.26462629593595,37.47612256526912],[113.26702819488547,37.47643399872557],[113.27099303696956,37.47897962145071],[113.27342031343981,37.48012464076545],[113.27531125385643,37.48330586399474],[113.27750851601373,37.48671949230624],[113.27948775408314,37.487873023097684],[113.28217813046084,37.487821031965254],[113.28641818530333,37.48464054280203],[113.28792417216908,37.48008282974488],[113.28996594617468,37.473488796575836],[113.29151516171333,37.470360276318175]]]]},"properties":{"code":"SXPR-P24","name_short":"铁桥山","name_full":"山西铁桥山省级自然保护区","zone":"core","area_km2":140.866,"feature_count":2}},{"type":"Feature","geometry":{"type":"MultiPolygon","coordinates":[[[[113.27957325634132,37.487871373425094],[113.27948775408314,37.487873023097684],[113.27750851601373,37.48671949230624],[113.27531125385643,37.48330586399474],[113.27342031343981,37.48012464076545],[113.27099303696956,37.47897962145071],[113.26702819488547,37.47643399872557],[113.26462629593595,37.47612256526912],[113.26245866277024,37.47366148149686],[113.26050791722481,37.47117588946797],[113.25980469461442,37.47053751338999],[113.25967141936081,37.47028265032098],[113.25784453193499,37.470389101231],[113.25583615088769,37.47042746946312],[113.25283045625514,37.47071363822681],[113.24659178563287,37.470889660990316],[113.24463117214621,37.4701260791859],[113.23759326004942,37.469973563968985],[113.23342277336434,37.46970926689428],[113.23028711115988,37.47045492137394],[113.22309490863263,37.47236375990232],[113.21860623399967,37.47347779794756],[113.21412838514446,37.47253214227334],[113.21333941596562,37.4676846408386],[113.21296832178697,37.45996913516823],[113.2144770132933,37.4575955248713],[113.2190261555111,37.45127501695947],[113.21970099970639,37.44983224107508],[113.22004744314724,37.44456302405877],[113.22072560054617,37.44323459589676],[113.22317999521039,37.4388981879226],[113.22400992236636,37.43785291346675],[113.23339929662653,37.435158870935055],[113.23517636645838,37.434610431636905],[113.23622965164438,37.4338468646228],[113.2369842441456,37.43268852470479],[113.23760393082097,37.43181872340834],[113.23880736703646,37.431281108624646],[113.2407891493555,37.4303854851408],[113.24287329237058,37.430517571595686],[113.2473215135416,37.43054747317069],[113.24858627206466,37.42966535304661],[113.24986299406635,37.42918343322505],[113.25469150977277,37.42754693216936],[113.25608403434126,37.426147464233836],[113.2569661557935,37.42447173902918],[113.25770487486581,37.42279874575884],[113.25839765352747,37.42198465815762],[113.26042827656602,37.42034415224054],[113.26267040479009,37.41858515913008],[113.2662232727094,37.41748744203925],[113.2678563335281,37.41694130151783],[113.27036507208634,37.412145282529295],[113.2711405361729,37.40932746310272],[113.27319474934895,37.40848712183403],[113.27555460396772,37.408270120447135],[113.27798784164838,37.408108860290994],[113.27975527348254,37.407273955697946],[113.28181626405062,37.406662143950406],[113.28489789041883,37.40660263328079],[113.28776105399338,37.406432837433684],[113.28997572636229,37.40616114427255],[113.29110669627873,37.4056243928394],[113.29251733971348,37.404853414535154],[113.29376369379501,37.403399171740325],[113.29468135493421,37.40292371784541],[113.29760378038492,37.40235211500952],[113.2991680978521,37.40192128943826],[113.29986548069174,37.4012784894678],[113.30124796849508,37.39959269168831],[113.30207813871098,37.398604085401196],[113.30435364956926,37.39798769987263],[113.30498279573581,37.397460593568475],[113.30552259641425,37.394017904822164],[113.30610264935757,37.39189007064034],[113.31204402368837,37.38925705225408],[113.31437849414468,37.38823891688289],[113.3175203850632,37.38783413522236],[113.3206134974253,37.38817385938537],[113.32214100653663,37.38888749134495],[113.32439030715827,37.38975851563966],[113.32568879352652,37.39001899194654],[113.32668302792874,37.38971340027875],[113.32792140865448,37.38803012821991],[113.32912964175942,37.38537498937223],[113.3299309593349,37.38347150973208],[113.33177062041234,37.382691587290914],[113.33489804076929,37.381828758283554],[113.33759548054493,37.38097460674701],[113.3387902413116,37.380207351444795],[113.34019454854705,37.379264303314336],[113.3410885016847,37.37804535767622],[113.34580217647947,37.377494281095885],[113.34995698475534,37.37741177123526],[113.35145416162183,37.37715320246049],[113.35373036189688,37.37659307719612],[113.35630200129576,37.376313056796675],[113.36462719656284,37.372085506338586],[113.36530396881604,37.37081352231322],[113.36553839664923,37.369149966462544],[113.36603418267057,37.36668034884197],[113.36721047447116,37.365341159136214],[113.36822369335398,37.36337599698194],[113.37019130013633,37.36213534125802],[113.3729178375223,37.35996418537169],[113.37624909888994,37.356522374675386],[113.38033587053374,37.35432369543628],[113.38556635612902,37.35204458791788],[113.39409765548946,37.34992724769499],[113.39751838564023,37.34934310874371],[113.40032981944258,37.34762719053886],[113.40217877717045,37.34718921748929],[113.40428857407986,37.345945084301],[113.40677274439925,37.34520810258329],[113.41024099468548,37.34387900601011],[113.41485486386277,37.3402955078483],[113.41639332738654,37.339120025756415],[113.41826031453265,37.33925347476499],[113.42079365111954,37.340059646559105],[113.42166749850034,37.340499377692474],[113.42251200079066,37.34225533486854],[113.42405046615238,37.343310640818586],[113.42603146192754,37.344757258615374],[113.42848980516915,37.345450406837905],[113.43204063758554,37.346693048342516],[113.43313681175228,37.34735692411526],[113.43339221790976,37.34861010879594],[113.43367807874884,37.348046504528355],[113.43380439883921,37.34770546160424],[113.4339723317686,37.34735879117122],[113.43409831019586,37.34682231188024],[113.43410359104921,37.346431324169195],[113.43408592467307,37.34606941058358],[113.43424431194829,37.34542739299969],[113.4344483091042,37.34490360645033],[113.43456032973309,37.344305445244395],[113.43471290055658,37.34366831656291],[113.4351553324749,37.34276304893805],[113.43630028230648,37.3419815241565],[113.43679999269564,37.34155651896369],[113.4373053911717,37.34130776376495],[113.43760031493443,37.34119681031485],[113.43792095331818,37.34114252755925],[113.4382567663359,37.34118803835706],[113.43870336582147,37.341336132229394],[113.43924773059648,37.34155371400699],[113.43986580570328,37.34165059737557],[113.44031054488728,37.34167303218337],[113.44090202766435,37.34012394387811],[113.44050704383245,37.3389880587709],[113.4401367395887,37.3386143639306],[113.43786653303899,37.33856585102768],[113.43655706505547,37.338688188219116],[113.4338919809461,37.337503702408995],[113.43090896612799,37.33756507592833],[113.42708146867619,37.33735769539949],[113.4244502731562,37.33722100512984],[113.421730362739,37.33803944127263],[113.41994968988007,37.33836191943017],[113.41909913998329,37.33790264151301],[113.42121023869264,37.336715388331015],[113.41985489612742,37.33540840483329],[113.41874434547331,37.33428710262681],[113.41634274734926,37.333859519815995],[113.41142629131087,37.333197162687874],[113.41031848961336,37.33588922547934],[113.4088738542346,37.33925546340131],[113.3980382701253,37.343956592997195],[113.3876212838372,37.34683686693222],[113.380729668312,37.34792920133606],[113.37872190035915,37.34863697912116],[113.37043722102638,37.35480958378356],[113.36886208850099,37.3578919316592],[113.36702117590765,37.36012154157484],[113.36169478044192,37.36547156356576],[113.35867168416257,37.3681059966026],[113.35478591692488,37.36989949594056],[113.35169994124665,37.37053292004613],[113.34672755198706,37.371966450673895],[113.34181127286662,37.37521007696783],[113.33829177959332,37.377281842485615],[113.33668240534847,37.379315758691085],[113.3311267985403,37.381237118923565],[113.329105860582,37.38156298601707],[113.32622555949123,37.38114302779381],[113.32323470455326,37.38101117116697],[113.32084966031628,37.38115336516234],[113.31895981101404,37.381857829219506],[113.3160392812642,37.38401254848754],[113.31499982022177,37.38517697193954],[113.31274573187336,37.38569779971033],[113.3077569241669,37.386653359011255],[113.30401747024135,37.38939579355719],[113.29817769712511,37.393799723951126],[113.29313545927333,37.39694848449154],[113.29025418262194,37.40043652422946],[113.2879205655359,37.40229312694482],[113.28400520965796,37.403226889812366],[113.2805588438653,37.403865466413],[113.27756421978992,37.403637171198824],[113.27343279683865,37.40533745554084],[113.26459797271768,37.40960654523302],[113.26082426868977,37.411299532044396],[113.25597817766902,37.41310820114887],[113.25136220748188,37.41462629338282],[113.24761928449499,37.417367014534065],[113.24474083281319,37.421044597698106],[113.24192757730269,37.42290944141047],[113.23921094003992,37.424009679214876],[113.23553842284527,37.42512793502257],[113.22905198410365,37.42811063174229],[113.22504320560958,37.429997614501],[113.22313144780645,37.4300336092289],[113.21999544036487,37.43314341315904],[113.21566422134013,37.43627556681484],[113.21455354365925,37.43915655336417],[113.21216752814566,37.44339616963793],[113.21117052575292,37.44608434067406],[113.21003430220988,37.448107716820296],[113.20749742390795,37.4513013317702],[113.20656178271562,37.45608576457767],[113.20739384545816,37.45997911749367],[113.20787579332227,37.46416504705495],[113.20664211154707,37.4669529099845],[113.20599487530728,37.469348472517424],[113.20577817923885,37.471784543370084],[113.21272472426577,37.47522896954993],[113.22377492914606,37.47673760240249],[113.23243425929245,37.478290413770985],[113.23815044144263,37.47741957538871],[113.2423975768902,37.47543225761048],[113.24571089317499,37.47422524185521],[113.25193334928883,37.47429747087439],[113.25511046432244,37.47652498782353],[113.25873729646621,37.47779041604567],[113.2612954007645,37.47931455843459],[113.26316641699299,37.48185284420436],[113.26863753830501,37.48475100384002],[113.27246456110093,37.486679488655795],[113.27499721520273,37.48734575176586],[113.27599075637714,37.48871728702648],[113.27630852525725,37.48866265517967],[113.27700409145636,37.48866710420565],[113.27779048246941,37.48846126776341],[113.27876008392546,37.48813269937813],[113.27936909577947,37.487995820119814],[113.27957325634132,37.487871373425094]]],[[[113.43712845000312,37.35279172246582],[113.43309885077302,37.353304473841646],[113.43168229711712,37.353262128561354],[113.43074087335958,37.35351030401621],[113.42962602138063,37.35449134616687],[113.4282247642223,37.356035985929964],[113.42593008947263,37.35709843761755],[113.42353801512951,37.35791972442954],[113.42143453627344,37.358768722244314],[113.41996615697548,37.359904702784846],[113.41915298501002,37.36061729249054],[113.41847811860231,37.36191814430959],[113.41827611988668,37.36269450570691],[113.41752840178637,37.363215083852346],[113.41534643174172,37.36445139418076],[113.41331494974985,37.36591340146027],[113.41204556649643,37.36693082173902],[113.41166306180523,37.36759390011411],[113.41152219481559,37.36841666545536],[113.41098823806256,37.36964785718166],[113.41085040258872,37.37056589568008],[113.41044322141668,37.371279685759646],[113.41009291910062,37.372278325036774],[113.40945794609836,37.37333996539096],[113.40877031577577,37.37425015600238],[113.40806366782932,37.3753132461016],[113.40747760640281,37.37641201201541],[113.40724541746725,37.37737010217403],[113.40736153815119,37.378759648540544],[113.40760375659205,37.38035636774787],[113.40800397995214,37.38134371961384],[113.40811929622461,37.38251265521566],[113.40839032650815,37.38286965235721],[113.40917074731195,37.38485580259598],[113.4095446325259,37.38813728267659],[113.40958123394921,37.3892805704893],[113.41088766645882,37.390898462605826],[113.41243759347122,37.39172486521532],[113.41398756145404,37.39255123432349],[113.41603126085204,37.39479753510378],[113.41771453492791,37.39697966161052],[113.41921876361941,37.399165439246225],[113.41974705513685,37.40165717977209],[113.42021787581322,37.4023625610113],[113.42278335317576,37.40409753501436],[113.42426945276524,37.4057115981885],[113.42576714632128,37.407682913765186],[113.42698004393874,37.40915955702054],[113.42853976889933,37.41027152634243],[113.43010184415996,37.41145493991274],[113.43298685249529,37.4119675752499],[113.43528420215134,37.41370779033164],[113.43790291062398,37.41429729856652],[113.4387670928344,37.41606700766986],[113.43853309560274,37.417144355573114],[113.43748820401119,37.41809544030971],[113.4351751561369,37.41864366009321],[113.43295862181364,37.41940434166716],[113.43082699113432,37.42002022185713],[113.43024838144953,37.42153366137408],[113.42975702923546,37.42297379144731],[113.4267089593715,37.42575351676364],[113.41971844735203,37.43140254056636],[113.41735433831515,37.433166982203296],[113.41441113714465,37.433656182352635],[113.411302437756,37.434577689423],[113.4082303138773,37.436642423726745],[113.4052499197887,37.43877669478055],[113.40292227293644,37.43889556311848],[113.3983953601176,37.44034611011502],[113.39356979597434,37.44087299340159],[113.38926595092812,37.44088861880063],[113.38563707862141,37.442392004709234],[113.3843892274593,37.44263170080289],[113.38088277130451,37.44234490478572],[113.37769408683903,37.44076457655257],[113.37577145034892,37.439516200837694],[113.37398817874463,37.439838066336684],[113.37259494808625,37.44115309376429],[113.37095989836395,37.44333099317707],[113.36868160587322,37.44502124373391],[113.36601995961928,37.44593260519235],[113.36314749774377,37.44584709685498],[113.36099652464421,37.44589008523856],[113.35902254993465,37.44585802654306],[113.3558050397068,37.44620823234291],[113.35150302908862,37.44629391999309],[113.34934083811613,37.44597942367312],[113.34629997406793,37.44911445977299],[113.34364901866095,37.450382603453974],[113.3415602760881,37.45242609387321],[113.3396640676462,37.45489472930045],[113.33742981425667,37.45515347510325],[113.33657348698166,37.45645745192326],[113.33397239388242,37.46222920513611],[113.33373601843039,37.46616652754237],[113.33407090837375,37.47116501462234],[113.3336826106648,37.47310328774835],[113.33054365082185,37.476025359421854],[113.32917782719991,37.47826888982388],[113.32921996989586,37.479626602014825],[113.32967183914825,37.482620787996005],[113.33001851767297,37.485116544295686],[113.3291661794182,37.48656340729756],[113.32591246341472,37.488701130779084],[113.32220130760952,37.4905617560667],[113.31700425039315,37.49080686390467],[113.31113974774522,37.48977777445099],[113.30879927817696,37.489537552389095],[113.30548332841465,37.489673863424045],[113.29988150881961,37.488424549712875],[113.29569501683454,37.486503949752766],[113.29506289545449,37.48637323855375],[113.29264816832531,37.486634669079336],[113.29018346193294,37.48638583325817],[113.28742084893189,37.48805253415398],[113.28464015504892,37.48946015902388],[113.2823214411628,37.490324921356326],[113.27974007311202,37.49176970313635],[113.28089314492708,37.49238021223782],[113.29023776569646,37.49277133437893],[113.29598194290662,37.49280276592536],[113.30080296001508,37.49199387559913],[113.30569417215219,37.49347151275766],[113.31486403960646,37.4940071023437],[113.32189040134801,37.49487015531469],[113.32705219396931,37.49348149038081],[113.33359978581953,37.49049214514124],[113.33661331116498,37.489288357219586],[113.33676595420698,37.48842731322201],[113.33723719693093,37.486272928870775],[113.3343868564068,37.48118116834199],[113.33501972128094,37.47845153641034],[113.33705592758726,37.47469313767878],[113.33806061596665,37.472385191560015],[113.33780560634268,37.46995916018443],[113.33680671521199,37.46668981235985],[113.33689700377376,37.463827934213406],[113.33807638571075,37.46137352627009],[113.34280564261088,37.457704721610206],[113.34681735930623,37.45404998252737],[113.35174735377873,37.451091863536774],[113.35854132940985,37.45038443116772],[113.36266877683323,37.45044496767639],[113.36442536289442,37.44926577741451],[113.36801046874189,37.44919397155051],[113.3707353805428,37.45028337524153],[113.3737240074778,37.44836430655539],[113.37730904487482,37.44829221561919],[113.38107329838188,37.44821639339998],[113.38418863079899,37.45029863805476],[113.3912341843013,37.45187227949011],[113.39683223702609,37.45304584530494],[113.40164939343519,37.45223296749566],[113.40682493496668,37.4514125948194],[113.4136366243213,37.451273590631814],[113.41972663015528,37.451005968621445],[113.4225762326491,37.45037555135276],[113.42322866090178,37.44836011034261],[113.42564117169124,37.44530753391881],[113.4289681229277,37.44280810915777],[113.43633823317003,37.4377942160031],[113.44589969882927,37.43402154181633],[113.46317627225459,37.424939398928515],[113.46703858725148,37.42242776816328],[113.47107983430695,37.41991227429851],[113.47359341844805,37.41456860591814],[113.47458370963,37.411973838780135],[113.47579072887741,37.4105185211396],[113.47684208546156,37.40978148886003],[113.47498475655942,37.40781837537649],[113.4747397664441,37.4058214843343],[113.47341060792368,37.40356128169921],[113.47195874143212,37.40301965196035],[113.46952597449935,37.405358555303216],[113.466683202818,37.4061329411285],[113.46434968550412,37.406038639892316],[113.46220935925801,37.4063692570279],[113.4596110444657,37.40914041684643],[113.45783824387198,37.40974932744027],[113.45482068901988,37.41067008338392],[113.45203218130743,37.41037047983261],[113.44780001721487,37.4070261586619],[113.44248644649878,37.40348954638358],[113.43625759865786,37.40211658568637],[113.43445005013076,37.40165333184903],[113.43135165690643,37.40007260334307],[113.42954648944013,37.39968070403592],[113.4254195905195,37.39955097926732],[113.41991635432264,37.39494467171721],[113.4198244169717,37.39208647634475],[113.42036016597723,37.39016879347433],[113.42087290798081,37.387536559434594],[113.4210120269287,37.38257623945625],[113.42141604487307,37.38027990318807],[113.42287918721233,37.37748516610637],[113.42693788843424,37.373683788656685],[113.42779769306591,37.370710717825055],[113.42855649282991,37.36831173718544],[113.4312983474349,37.36444190827445],[113.43283405287409,37.36021554345208],[113.43587801018465,37.35462334705369],[113.43712845000312,37.35279172246582]]]]},"properties":{"code":"SXPR-P24","name_short":"铁桥山","name_full":"山西铁桥山省级自然保护区","zone":"buffer","area_km2":49.796,"feature_count":2}},{"type":"Feature","geometry":{"type":"MultiPolygon","coordinates":[[[[113.37299048358591,37.28517620801502],[113.36808428915501,37.285425511546535],[113.36228553522912,37.287353626554356],[113.36031152946933,37.29071535762015],[113.36082617212683,37.2950845285158],[113.36339063688264,37.29850668330693],[113.3685955607838,37.301724947309616],[113.37215271318138,37.306637181524685],[113.37454342552823,37.31051560813429],[113.37520053534965,37.31337173216623],[113.37283435264999,37.31628851657796],[113.37136063793656,37.317526178603806],[113.36561638624066,37.321265584899926],[113.36515834431323,37.324748106994946],[113.36470972963963,37.32853248426675],[113.36692614097748,37.332867657980586],[113.3677912922431,37.336323741429744],[113.36625594224361,37.34164002844614],[113.3647251285519,37.34710719392775],[113.36296245920899,37.35121981008566],[113.36170531398236,37.35335911841416],[113.35911051867683,37.355072056023246],[113.35595313608681,37.35694715758608],[113.35377866241767,37.36001074035455],[113.35289928704546,37.362142441303156],[113.35102265723117,37.36263280048449],[113.34670678010157,37.36377563620777],[113.34180473467238,37.36432586340266],[113.33760744542363,37.36320079650609],[113.33477122513547,37.363256837162716],[113.3332584906459,37.363286883811995],[113.33011878598846,37.36576507469595],[113.32926669262301,37.36880219684565],[113.32573909616575,37.370985894404434],[113.32311029680525,37.37164165505251],[113.31670393690113,37.37252247216133],[113.31074512667121,37.375659453636885],[113.3068661538997,37.378755552076505],[113.2960119701717,37.38274231654935],[113.28925355819335,37.38453458138386],[113.28469585955281,37.38401869657685],[113.27946390046951,37.38623391594281],[113.27273206528726,37.38893078313831],[113.26773398745769,37.39265112330887],[113.26400062098175,37.394383837086544],[113.25274974627138,37.3979210934813],[113.2508534337482,37.39780618662999],[113.2460743805757,37.40257860458323],[113.24232650959996,37.403857896846596],[113.23536658478837,37.405348881403576],[113.23310961236736,37.4058446009923],[113.23088843411095,37.40754772015857],[113.22578269737397,37.414137731548166],[113.22184466889921,37.41541999141797],[113.2182181551101,37.41443098474378],[113.21556007650116,37.414178792580294],[113.20854984475831,37.41400798691516],[113.20436030491817,37.41318009423051],[113.20170672332655,37.41307854573318],[113.19240389274397,37.41868813187055],[113.18814802642642,37.42208941886006],[113.1860838419687,37.422731685215865],[113.18226813190337,37.42174509313536],[113.17805217105239,37.42001064703395],[113.17444339603405,37.41962404964467],[113.16952738295815,37.41986542781651],[113.16521373053715,37.42130410696256],[113.1618376022769,37.42242305291626],[113.15926611127078,37.425188424359774],[113.1572362291937,37.42703772787565],[113.15488396837291,37.43085612060951],[113.15407174248978,37.43555251706626],[113.15577229389139,37.44201529157628],[113.15571296146896,37.446546937637905],[113.15481836395989,37.44837548010807],[113.1564716271369,37.45317788187407],[113.15819456451308,37.46039529685108],[113.15944791630154,37.46444988421715],[113.16911671114816,37.47121912021624],[113.17293044368792,37.47205511941086],[113.17671361191633,37.4718344523856],[113.17996809326229,37.47298257158175],[113.18494469109729,37.4747028402176],[113.18747269240548,37.47692130076838],[113.19186830488862,37.47819897623667],[113.19512769422948,37.47949761610877],[113.19652417255836,37.48188790569136],[113.2000396091122,37.48544689202848],[113.20376698580819,37.48975688992681],[113.20523494783926,37.49456200906938],[113.20405997863756,37.499718521010564],[113.20360712478987,37.503653429272426],[113.20460766368198,37.50544695021316],[113.20689002392854,37.50570633989283],[113.212696292122,37.503332453133154],[113.22017585908398,37.499869747815154],[113.22355435395573,37.49874907926181],[113.23205208411693,37.49768277049943],[113.23509201505188,37.497927336338556],[113.2396474350049,37.49814309716128],[113.24284072419657,37.49717643045833],[113.2460474881856,37.496662438198115],[113.24888892331197,37.49660838534154],[113.25062548572768,37.49763239138357],[113.25179832587632,37.49881815914427],[113.2544867978474,37.49997500060108],[113.2580815229255,37.49975529495234],[113.26331726887454,37.49738980721189],[113.27126408661769,37.49693517040931],[113.27827743643633,37.49695103357623],[113.28304526035228,37.49791603384745],[113.28689859118866,37.499955697207085],[113.28985078139407,37.50352281308334],[113.29087642935058,37.50607015513594],[113.30159207389592,37.509335025886145],[113.30691537583463,37.50983517886246],[113.30960496481963,37.51099069757946],[113.31136595179368,37.512768401729566],[113.3133211623428,37.51469326276278],[113.31791505301985,37.5161133001225],[113.32328103553375,37.517970980503485],[113.32730215948176,37.51925089832106],[113.32941456780603,37.520115308233336],[113.33431280767599,37.51911233163403],[113.33734442470065,37.51905223920693],[113.3369678428074,37.51724752768252],[113.33601488439284,37.5163330076685],[113.33608546375035,37.51592502116152],[113.33680463585759,37.51496903342836],[113.33681979747747,37.514948877682116],[113.33732330755667,37.51439666431327],[113.33739824029726,37.5143144808459],[113.33792288617146,37.51373905784537],[113.33797200949365,37.51368518050312],[113.33822839385911,37.51342534768602],[113.3388105941583,37.51283532818895],[113.33934551241899,37.512378833740705],[113.33937834368605,37.51235901574873],[113.33981624339084,37.51209469066384],[113.34007458233894,37.5119387450627],[113.34099553180934,37.51166825636936],[113.34111492860444,37.511633146104685],[113.34132124680468,37.51157247648553],[113.34192346874477,37.51139538343924],[113.34273896656741,37.51096258740084],[113.34311986009914,37.510750830263525],[113.34352582509075,37.51052512606215],[113.3435413190924,37.51051651213711],[113.34407912158939,37.51005093045299],[113.34411107751511,37.51002326719759],[113.3441775421453,37.5097570540709],[113.34426307633272,37.50941445476147],[113.34414793586693,37.50880643821674],[113.34401653631679,37.508311345326646],[113.34401492467724,37.508279096864754],[113.34400932122264,37.50816693048799],[113.34399383281185,37.50785688615675],[113.34404007377931,37.5072794453591],[113.34414201956524,37.50692991637131],[113.34428452923444,37.506441329364065],[113.34469503769567,37.5055571285187],[113.34498818266819,37.504988301004026],[113.34512002209046,37.5047760938722],[113.34527008679962,37.504534550953196],[113.34574049630174,37.50393968174632],[113.34626181062626,37.50348117508011],[113.3463876922824,37.50336680016324],[113.34674075432837,37.50304600876957],[113.34693981080308,37.50276935743748],[113.34714844425274,37.50247939691279],[113.34738151095114,37.502102217708256],[113.34744571922454,37.50199831108177],[113.3478791792073,37.50147303144023],[113.34791616896626,37.50142820577452],[113.3482441282022,37.50097003598991],[113.3483418235791,37.50083355170891],[113.34844763200965,37.50068573144399],[113.34854948156529,37.50035040549322],[113.3485679144699,37.50030725042658],[113.3486043635851,37.500072314280594],[113.34869791515604,37.49987307534784],[113.34883278766384,37.499585805234894],[113.34943262404956,37.49917974428436],[113.35022470955545,37.49895229884899],[113.35086721687401,37.49875483636711],[113.35129213931508,37.4985369261572],[113.35147744801898,37.49829452235918],[113.35147563574814,37.4982519313084],[113.35146672146128,37.498042508793134],[113.35146178442605,37.49803444849988],[113.35128276620932,37.497742145942404],[113.35104437344968,37.49719289514559],[113.35100016738707,37.49700742965418],[113.35086699723617,37.49644874425887],[113.35085182998708,37.49635951669136],[113.35076474629898,37.49584723295822],[113.35069471979054,37.495191032316704],[113.35058699359898,37.49434641043422],[113.35052250020385,37.49412700609097],[113.35050908124892,37.494081349990566],[113.35045755564852,37.49390607209991],[113.35041455997113,37.49375980788608],[113.35004384217186,37.4932266934592],[113.34963065112557,37.49256726833604],[113.34957972830011,37.49248599905108],[113.34934447703209,37.491900643708014],[113.34935186651762,37.49184116937384],[113.34939301276123,37.491510075220006],[113.34945057260987,37.4913397209745],[113.34951328752625,37.491154113409344],[113.34962812160305,37.49087257742047],[113.34965322868554,37.490657837391154],[113.34970835423134,37.49018636201591],[113.34970840329078,37.49017173189302],[113.34971054797218,37.48953910020352],[113.34971208363258,37.4890872937968],[113.34956008955126,37.488393436610835],[113.34954802822402,37.48833837769885],[113.34909723203646,37.48754786724037],[113.34900615021193,37.48735541502515],[113.34874397852359,37.486801454156854],[113.34868360720783,37.48667389048703],[113.34868299345422,37.48667259381777],[113.34852072310134,37.486329714756195],[113.34828297958693,37.48576362115265],[113.34822259613485,37.4856198410588],[113.34814741543424,37.485440823618184],[113.34804408628291,37.484938420901386],[113.34806132626214,37.48452059926656],[113.34806538274665,37.48442228071231],[113.34808914532917,37.48435380510683],[113.34821962442962,37.483977815477395],[113.34829842985329,37.48384163119112],[113.34841869150927,37.48363380246617],[113.34854015970343,37.48331610208034],[113.34854237540671,37.48295798399259],[113.34852142882116,37.48267239140405],[113.34870875437768,37.48254030193486],[113.34883029999547,37.482520160885905],[113.34926470660493,37.48244817611396],[113.34947494721685,37.48242261792936],[113.3499291059226,37.48236740447277],[113.35039574042105,37.4822657897358],[113.35075887418392,37.48201759721662],[113.35092276696379,37.481761101340815],[113.35105183385674,37.481559109429],[113.35129374998967,37.48093723760096],[113.35155924748548,37.48021130158335],[113.35179769916614,37.47952418895008],[113.35195449910721,37.479273121592385],[113.35208965617639,37.47905670961075],[113.35231961028038,37.47900296112763],[113.35270050693293,37.478913930811345],[113.35357462445741,37.47901137834193],[113.35433373498013,37.47900075946339],[113.35435027757691,37.4789847429445],[113.3545537573881,37.47878772883082],[113.35466755270755,37.47867754908282],[113.35475882673974,37.47858917382228],[113.35477807900591,37.47844208938461],[113.35486197346643,37.47780115829849],[113.35485902795844,37.477649019741456],[113.35484601596409,37.47697723059955],[113.35477541617882,37.47630302521067],[113.35455733617582,37.4754313290377],[113.35440915382935,37.47506205137181],[113.35436318807926,37.47494750276734],[113.3540508057794,37.47416901858204],[113.35377373614294,37.473735483345635],[113.35344884818095,37.47322712411597],[113.3532492624491,37.47291483290492],[113.35257264653373,37.472205232456886],[113.35246284834099,37.472090077285515],[113.35225881942067,37.471876091827674],[113.35225616658758,37.47187309361874],[113.351642467524,37.47117940013991],[113.35149720857805,37.47101520550472],[113.35142586752701,37.47038380215993],[113.35199248047283,37.46973294731299],[113.35266645420735,37.468969600798445],[113.35306705984213,37.46851270645724],[113.35319499717232,37.46836679134114],[113.35367501524793,37.46797438447815],[113.35425392847124,37.46760477847692],[113.3542603966339,37.46759927619771],[113.35475272501367,37.46718046549243],[113.35507518331858,37.46665156595178],[113.35518921995155,37.46618207513843],[113.35522469469834,37.466036030748704],[113.35521277424665,37.465893059229856],[113.35516807677466,37.46535704247195],[113.35511042002821,37.46492411804414],[113.35507960693656,37.464692749112615],[113.35507474704742,37.46465625954838],[113.35508864713417,37.464018642639914],[113.35509074948024,37.463997984735784],[113.3551394011044,37.46351992204594],[113.35532644850323,37.463088304497276],[113.35539755546091,37.463013036958706],[113.35572976520558,37.46266138581378],[113.35615852423442,37.46238005552382],[113.35625364844378,37.46231763946742],[113.35638692999116,37.46225937688368],[113.35676645217364,37.46209347040918],[113.35723083374516,37.461991876094096],[113.3576932417407,37.462052464579045],[113.35816984162287,37.46222762316693],[113.3585506565322,37.46229884546534],[113.35855726466991,37.4622880406875],[113.3586984533232,37.46205717976048],[113.35870314234607,37.46167545097711],[113.35870520388558,37.461507547161844],[113.3587757632847,37.46089808743225],[113.35894089194838,37.460376819144365],[113.35903812464015,37.45989743697232],[113.35894316533731,37.45934756921881],[113.35881798663786,37.458993422521296],[113.35874238688098,37.458779553585245],[113.35861869018551,37.45825954923482],[113.35870081543534,37.457816508583996],[113.35877323742498,37.457721426473015],[113.35899518526098,37.45743003832003],[113.35905473815357,37.45737163200165],[113.35939599744133,37.45703693885715],[113.3598372461126,37.456649785365244],[113.36037984234248,37.45636419115213],[113.36067054544804,37.45630725488481],[113.36090487916165,37.45626135989551],[113.3610193345204,37.45626905665055],[113.36139534393214,37.4562943437937],[113.36206395947,37.456377820776474],[113.36247585516617,37.45644907765944],[113.36274283805545,37.45649526453488],[113.36276412998932,37.45649894810939],[113.36331391126473,37.45663468563463],[113.36334636599182,37.45664269754684],[113.36355542846293,37.45666554212555],[113.36362317351725,37.45667264237513],[113.36374778671363,37.45668570561303],[113.36402451301763,37.45671471247458],[113.36477040709798,37.4567178071753],[113.36512676018707,37.45672885755003],[113.36547663668932,37.4567397068584],[113.36621827290033,37.45683144180127],[113.36624449609582,37.456834686346575],[113.3667223530959,37.456937898990695],[113.3669982491004,37.456997489900544],[113.36767146572603,37.457114614990175],[113.36822199211043,37.45708431312214],[113.36837931268965,37.45707565468405],[113.36844467765138,37.457058905877346],[113.36898952493826,37.45691929467009],[113.36942864725027,37.45675735305363],[113.36958169952435,37.45669727481374],[113.36979048893318,37.456615313508884],[113.36990021921889,37.45657223757425],[113.3703642396344,37.45641654271742],[113.37075212764526,37.45633218430123],[113.3712203454513,37.45628675021352],[113.37200280712905,37.456352120892404],[113.37297493397557,37.456626246388836],[113.37300185865047,37.45663383795709],[113.3731667321944,37.45673141965342],[113.37368541452254,37.45703839898021],[113.37387775652269,37.457152233119686],[113.37440946675403,37.45777437475828],[113.37483715763015,37.45821168474688],[113.37550789997553,37.45825000090225],[113.37624400133247,37.45809513587606],[113.37641925992894,37.45805825999294],[113.3773780685223,37.45793761995705],[113.37845130767708,37.45788449857086],[113.37939093429515,37.45784980173143],[113.37980406478681,37.45782145062459],[113.38008790342025,37.45780197858514],[113.38081063280316,37.457742380976214],[113.38114884158888,37.457746474544194],[113.38164857263942,37.4577525132904],[113.38171253302154,37.45776198369216],[113.38243834303326,37.457869453541434],[113.38255621835205,37.45789885719179],[113.38306480601902,37.45802571859308],[113.38354360620086,37.45817496584904],[113.38410981098473,37.45835145466209],[113.38512695430889,37.45863199916754],[113.3856694782025,37.45878163080002],[113.386119925895,37.458847172301475],[113.38630582646688,37.45887422046766],[113.38667851481213,37.45892845112389],[113.38690621548442,37.45896158356603],[113.38782269757391,37.45890928181115],[113.38817434887962,37.45888582495945],[113.38879175617596,37.45884463868939],[113.38899711421172,37.458809735132576],[113.3891121805928,37.458790176987456],[113.38952864364133,37.45871939277086],[113.3897470339819,37.45868422245104],[113.38985688897831,37.458666530105454],[113.39026431439355,37.458600907639926],[113.39040597644426,37.45861059607178],[113.39122975535658,37.45866694282281],[113.39213789603212,37.45901789631577],[113.39313822941445,37.459668742888546],[113.3942262026382,37.4603876075269],[113.39424144417231,37.46039984948004],[113.39488798588496,37.46091918297232],[113.39507134630249,37.461110249529504],[113.39525474040674,37.46130135023126],[113.39576014269032,37.46171223568245],[113.39634365720106,37.462092256026445],[113.39655204314568,37.462186619013316],[113.39691482753695,37.46235089721156],[113.39705121070871,37.462348125651886],[113.39705850170962,37.46234797767338],[113.39716054968476,37.46234590465386],[113.39730656852674,37.46234294352967],[113.39734274643656,37.46190531697243],[113.39724100294808,37.46124078102161],[113.39733298401978,37.460648883959465],[113.39761029755812,37.46013204958995],[113.39782323058873,37.45993247186655],[113.3981383140753,37.45963713414026],[113.39891597650085,37.459152917338216],[113.39898300946723,37.459123154315236],[113.39984077788831,37.45874227251826],[113.4004217890323,37.4586231553513],[113.40093817997378,37.45851729184875],[113.40094041747959,37.45851722384405],[113.40206709985382,37.458483070226755],[113.4028783364009,37.45856341055009],[113.40320855870218,37.458567796931334],[113.40321324572166,37.45856785920289],[113.40326648502177,37.45837760697923],[113.40321529549018,37.45801381736799],[113.40327148824625,37.45758478464138],[113.4035722592928,37.45720707335981],[113.40373250866548,37.457128911132635],[113.40418419168563,37.4569086106463],[113.40507672902861,37.45679361361608],[113.40543509683874,37.456818161760395],[113.40576818546207,37.45684096630805],[113.40601455647588,37.456857832787996],[113.4067562676625,37.456950817566145],[113.40756632268736,37.45716461569363],[113.40773848656292,37.45721005402569],[113.40903701481791,37.45770829270333],[113.40986945978185,37.45820703221098],[113.41034554033462,37.45880311919264],[113.41090440273172,37.45955739872085],[113.41093018096281,37.45960070557946],[113.41112181094547,37.459922632067205],[113.41126200732624,37.46015815565181],[113.41135614505595,37.46025804962797],[113.41167220322895,37.46059342207755],[113.41238991158819,37.46099312921361],[113.41312989672402,37.46125051383362],[113.41376817542863,37.46133205405898],[113.41439800319601,37.46134845361619],[113.41472479318013,37.46137313495966],[113.41505503172016,37.46139807997493],[113.41562211790725,37.4615058424264],[113.41612247488246,37.46158117368169],[113.41680380941084,37.461573992000034],[113.41712692993681,37.46154286682688],[113.41757550455758,37.46149965494365],[113.41823972748993,37.461377959462645],[113.41849523549948,37.4612992113408],[113.41888941004126,37.46117772714362],[113.41903292070644,37.46112830647747],[113.4194873476524,37.46097181335171],[113.41999604750214,37.46082401346926],[113.4204983436438,37.46069660527939],[113.42091672479282,37.460661011411474],[113.42091937442174,37.46066212273591],[113.42093007715572,37.46066661093674],[113.42125465590533,37.460802721580784],[113.42149107703678,37.46095015579585],[113.42149145644665,37.460950392133896],[113.42172317550072,37.461094891979386],[113.42251334130668,37.461549355405204],[113.423098518825,37.461822222829014],[113.4235079242042,37.462013134468926],[113.42414159363673,37.4621669345212],[113.42444901212683,37.46224154935326],[113.4251852362335,37.46211832863837],[113.42543645844137,37.46195881305506],[113.42550758682614,37.46191364998379],[113.42574236734697,37.461764578404896],[113.42613167750358,37.46128816835363],[113.42648206864185,37.46078777745495],[113.4269269611069,37.460371013387956],[113.42733395294523,37.46020946661105],[113.42748342189032,37.460150138723264],[113.42754632949247,37.46015366681155],[113.42818885344056,37.46018968996703],[113.42896519833651,37.46041243711844],[113.42942031936096,37.460612921003516],[113.4296587673511,37.460717955747164],[113.42978109576646,37.46078907498294],[113.43023292649356,37.46105175778705],[113.43026485346152,37.461070318473496],[113.43088825459135,37.46136826913829],[113.43154368653049,37.461433596697454],[113.43185709079677,37.46137947895654],[113.43207678334032,37.46134154355037],[113.43226404218733,37.46130245697928],[113.43245982255453,37.46126159388493],[113.43289472355109,37.461169316478305],[113.43337106143767,37.461179236924366],[113.43338380108693,37.46117950140725],[113.43342114293901,37.461200711508376],[113.43378170523054,37.46140550376572],[113.43406809015542,37.461829738579326],[113.43444709237016,37.462670939331716],[113.43452989928282,37.46282504710151],[113.43503115017033,37.46375788515154],[113.4356621075347,37.4644835412366],[113.43590673710055,37.46457215537247],[113.43640326395918,37.46475201292227],[113.43711400463425,37.46482682438378],[113.43731542710165,37.4648480304935],[113.43824131411871,37.46473659582681],[113.43887200828715,37.4645614223043],[113.43923003031458,37.46445043385864],[113.43964634275105,37.46432923585025],[113.43983059404704,37.46434026296611],[113.44006600128013,37.46435435131387],[113.44014655838808,37.46454808332087],[113.44019319927935,37.464660248946096],[113.43999708340176,37.465123707534154],[113.43998073630712,37.465157030664585],[113.4396254529274,37.46588129871571],[113.43934674910643,37.46684641998906],[113.43933797762682,37.46701207398274],[113.43930866993072,37.467565610166275],[113.43969618943343,37.46805755289151],[113.44041862239996,37.46857408454341],[113.4412175780801,37.46901023258439],[113.44200034951221,37.46931834714592],[113.44282396490428,37.469470201685134],[113.44334019673637,37.46941606408172],[113.44365322098858,37.46938323898027],[113.44441367368884,37.469200841969965],[113.4450862019127,37.46915989652584],[113.44518432717317,37.46918784873422],[113.44522940290916,37.46920068948324],[113.44558471498186,37.469301903943276],[113.44572003727285,37.46934045162753],[113.44576991125241,37.469366655186],[113.44649117241876,37.46974560712977],[113.4474545427829,37.47021882817213],[113.44848070056334,37.470602926242016],[113.44937581923732,37.47073749263495],[113.44971000682757,37.4706787226714],[113.45013084384502,37.47060472678733],[113.45089264932291,37.47026914473479],[113.45151457811315,37.46991167719212],[113.45184292052546,37.469605336534855],[113.45185995339381,37.46957020592478],[113.4520116740009,37.46925727436526],[113.45196946545944,37.46893836597346],[113.45160355596664,37.46874327762713],[113.4509559186592,37.468594580253374],[113.45056339744549,37.468382437573005],[113.45056200537036,37.468381684569735],[113.45038212446242,37.46828446051497],[113.45012356193432,37.46778537459951],[113.45008306380024,37.467490806267776],[113.45005594426365,37.467293583121275],[113.4501442258295,37.4670769461651],[113.45023642508596,37.46685068934072],[113.45043925159659,37.46667744856825],[113.45075751535302,37.466405627747896],[113.45075798589656,37.46640522523646],[113.45155038515412,37.466012705730286],[113.45240235777821,37.465627937456595],[113.45317941552688,37.46517715970673],[113.45392912828058,37.464668401586984],[113.45457394075052,37.46421359678881],[113.45512473882485,37.46390714016411],[113.45575969716947,37.46373404570609],[113.45646069262386,37.46370144134008],[113.45699112968978,37.46385255728808],[113.45699148785863,37.46385321101962],[113.45701732042916,37.46390028957231],[113.45719393850393,37.464222172816605],[113.45711592689624,37.46458924453827],[113.45708192859296,37.46474921861226],[113.45688647712387,37.4653162893768],[113.45677646248048,37.46590409965394],[113.4568832276534,37.46644685987438],[113.45702553234399,37.46661627971934],[113.45714983723056,37.46676427377675],[113.45726247010134,37.46689837800143],[113.45726940595821,37.466902009812586],[113.45797393365552,37.46727091981747],[113.45839023776367,37.46740178730007],[113.45844050851075,37.467417590148486],[113.45907588610957,37.46761731270285],[113.46025558166228,37.46794405336162],[113.46101818371585,37.468173636100325],[113.46132990178519,37.46837432656119],[113.46152700047158,37.46867648804708],[113.4616695006291,37.46910140243454],[113.46181646211505,37.46964107287384],[113.46210661321591,37.47015298688301],[113.46260273721295,37.47039084831236],[113.46269113855989,37.47043323193118],[113.46271877575082,37.47044648184482],[113.46363844278913,37.47055341379661],[113.46465290012821,37.47055703012296],[113.4656410861389,37.47036298408291],[113.46568341425292,37.47034756872867],[113.46666438063086,37.469990316234245],[113.46673523127187,37.469963069159355],[113.46736239254555,37.46972187501669],[113.4676737115955,37.469602145043545],[113.4678328702771,37.46953776167333],[113.46838402935049,37.469314813254606],[113.46947730650345,37.468665894619726],[113.47011320129032,37.46825853804208],[113.47114168116953,37.46759966100904],[113.47235028462971,37.4668514796917],[113.4725661111209,37.46670328131378],[113.47276100290908,37.46656946334312],[113.47331105269747,37.466191786670166],[113.47448595121308,37.465257369403155],[113.4752299091759,37.46459995991122],[113.47590839823663,37.46401372611775],[113.4769667311275,37.463187573263276],[113.4772722970542,37.46296301591064],[113.47787834550408,37.46251761231259],[113.47802337492726,37.462430570583024],[113.47813689337349,37.462362443515524],[113.47847324998324,37.462160579219876],[113.47902409560206,37.46188103794185],[113.47907573872423,37.46185018636908],[113.4792929846183,37.461720401587606],[113.47967653627403,37.461491259883886],[113.4801810499117,37.461122504357924],[113.4802634116397,37.46106230707851],[113.48029015577674,37.46104092814694],[113.48064530808897,37.460757027112585],[113.4810026139923,37.460519822714986],[113.48131140528146,37.46035344872011],[113.48149921502487,37.46030896262452],[113.48167844755963,37.46041103670538],[113.4817182558982,37.460475003962706],[113.48184030207575,37.46067111490357],[113.48188714314253,37.46078381569327],[113.48199990273953,37.461055098879044],[113.48230732503822,37.461530563149395],[113.48267606672965,37.46182619641436],[113.48284928427432,37.461965072527526],[113.48351675649896,37.46224380387389],[113.48416694788199,37.462363001983036],[113.48420803278167,37.46235449187057],[113.48435174001676,37.46232472357015],[113.48479617199715,37.46223265860866],[113.48539825949841,37.4618799330889],[113.48543247196538,37.46184565597395],[113.48582072147066,37.46145668030486],[113.48610887069104,37.46088086552171],[113.48638483527125,37.460149896958626],[113.48643693096336,37.460008377896635],[113.4866129262497,37.45953030137455],[113.48684129498469,37.459153918106956],[113.48715142920304,37.45902314412595],[113.48724039925426,37.45898562440985],[113.48788330014624,37.45904693159493],[113.48795597754354,37.45905386170833],[113.48864308086101,37.45922180400872],[113.48898721882588,37.45926972160685],[113.48906454037419,37.4592804878044],[113.48952460315068,37.459140180948964],[113.4895938636859,37.4591174082914],[113.48992054018984,37.45900999075987],[113.49011005807662,37.458947671675226],[113.49021233548353,37.45894798424915],[113.49066947039253,37.4589493828792],[113.4911516186441,37.459198197863394],[113.49144149188034,37.459436290605225],[113.4914829279173,37.4594703256445],[113.49156328036825,37.45953632477321],[113.49192840578998,37.45966374406506],[113.49210632991286,37.45952677123428],[113.49222315435931,37.45943683314882],[113.49238642099976,37.458865883702906],[113.49232796954658,37.45825587263708],[113.49232483071626,37.458223112332334],[113.49195934046,37.45774438518876],[113.4914640277191,37.45739677058669],[113.49106043284561,37.45702469060926],[113.49094703157945,37.456904097666715],[113.49074272392502,37.45668683671305],[113.49063752200793,37.45643233035304],[113.4907087251095,37.45637188473696],[113.49084427099949,37.45625681573809],[113.49131471324347,37.45613203175955],[113.49183155599786,37.456224006602895],[113.49192568832412,37.456240757843645],[113.49248610923668,37.456614028396295],[113.49285048631455,37.45699593640846],[113.49306833821726,37.45736288541112],[113.49319908172687,37.457583105797454],[113.49344893347053,37.45783304344316],[113.49355424818474,37.45793839302521],[113.49374684586122,37.45813105691007],[113.49381199319808,37.4581962252574],[113.49393040101789,37.45817208261326],[113.4946867478204,37.458017859396584],[113.49558436154955,37.45727375135416],[113.49604166700766,37.45692444344454],[113.49633027706595,37.4567039829927],[113.49702064231738,37.45624801005299],[113.49760496571233,37.456001442549166],[113.49800304868315,37.456025242008735],[113.49813356591517,37.45603304766006],[113.49856675488462,37.45616778683919],[113.49867366850474,37.456201040351026],[113.49885216715411,37.456256559998906],[113.49969555724161,37.45640987312224],[113.5003229505982,37.456396592650925],[113.5005696992335,37.456362065119336],[113.50068285630681,37.45617044082729],[113.50083078129491,37.4559199398114],[113.50094145138789,37.45573252597523],[113.50133254426713,37.4551543875848],[113.50173766977814,37.454553540911725],[113.50206655120769,37.4538687315069],[113.5026176975425,37.453348113971195],[113.50263030974814,37.453346999987644],[113.50263747377934,37.45334636806679],[113.50355699747894,37.45326514489248],[113.50460594647701,37.45352665974967],[113.50541191253703,37.45378656930097],[113.50603268838815,37.45393554979613],[113.50649582631979,37.45416443758415],[113.50661675550931,37.45432304168473],[113.50663472056617,37.45434660331467],[113.50681856332153,37.454587719851425],[113.50704558237908,37.45499952030844],[113.50719325116663,37.45553010610629],[113.50730592034849,37.45623934087391],[113.50743658647939,37.456698919681465],[113.50745583975774,37.456766630173306],[113.50747076144013,37.456819105748174],[113.50786019285852,37.457398609002475],[113.50835248701046,37.45803447818735],[113.50840046355732,37.45809651422658],[113.50857219721354,37.4583036586109],[113.50858677173444,37.4583212377428],[113.50876086389727,37.45853123046231],[113.50880226582089,37.458581167909074],[113.50921793996298,37.4590159812778],[113.50977520938419,37.459587409459935],[113.50991680795336,37.45974483102718],[113.50998279494944,37.45981819201428],[113.51014491220418,37.459998424672435],[113.51668849813738,37.45677379805595],[113.51579984090311,37.45286649979629],[113.51549429142102,37.44939982151199],[113.51931716253597,37.444788145785964],[113.52312437169934,37.43972366183795],[113.52455219200773,37.43712603596782],[113.52581601417513,37.43528693769087],[113.52916639483614,37.433554201973514],[113.53160095416818,37.432747039592],[113.53411276889604,37.42861597131696],[113.53484000450314,37.42210699202605],[113.53713660476438,37.41722539703771],[113.5360939229066,37.414378601743806],[113.53197371700064,37.4100876740264],[113.52446932762888,37.40647297842975],[113.51775256253194,37.4037470761659],[113.51579535356994,37.401825624739566],[113.51412070184502,37.39702895746872],[113.512746300176,37.395548090894664],[113.50922099637671,37.39199875380159],[113.50671706616386,37.39069280796226],[113.50235207551175,37.390332265870924],[113.49794690964036,37.38876463399863],[113.49395029729605,37.38809397513269],[113.49113844799558,37.38890833275784],[113.48860049338221,37.39228402505261],[113.48789386469127,37.39380901672049],[113.48609224295389,37.396565092522465],[113.48196589614487,37.39770891066835],[113.4757438389889,37.398443456330966],[113.46801832173762,37.399511144486425],[113.46459374028531,37.39897856660658],[113.46171691634946,37.397830441974115],[113.4570324726781,37.39928703758295],[113.45362764811107,37.399357796027154],[113.45094502448481,37.39835638662213],[113.44708338045541,37.3960202495462],[113.44417259839435,37.39381531354212],[113.44372569784466,37.39171039199119],[113.44272119041516,37.389919019305815],[113.43868088933665,37.38788829943619],[113.4384477557389,37.386534002565845],[113.43955316538565,37.38560513227141],[113.44268500628637,37.38297323818118],[113.44395491896935,37.38128585702213],[113.44448306044244,37.38006683124217],[113.44843962251151,37.37953191091097],[113.45501900717731,37.37818733190783],[113.45739852745203,37.37572169912539],[113.4603205145352,37.37248966038946],[113.46096835509483,37.36915392675711],[113.46195976233264,37.364753942741565],[113.46295600055764,37.36050487436107],[113.4641757460243,37.357308216395374],[113.46254990098065,37.35386882280698],[113.46014837376727,37.349841507287245],[113.45887630337702,37.34563962462477],[113.45584922386914,37.33981308113579],[113.45460708150624,37.33651660472984],[113.45431982483557,37.3335023199604],[113.45517588950482,37.33076618753326],[113.45436592258149,37.329121867073205],[113.44255618126175,37.32649715404864],[113.43563120605496,37.322864664624845],[113.42848878750812,37.31833012267562],[113.42288300765264,37.31451874374525],[113.41684193075834,37.30890381035174],[113.41395479264396,37.30730161294337],[113.4112519017501,37.305544575638635],[113.40917951153968,37.305426897327465],[113.40813090064452,37.30485587411626],[113.40780124627737,37.304576572266406],[113.40715357192059,37.30414881036801],[113.40644293662129,37.30408582417195],[113.40538156533714,37.3040180273846],[113.40474053119495,37.30379867018564],[113.40426294197151,37.30355812571058],[113.40335123948942,37.30350515580746],[113.40283771127172,37.30330703304736],[113.40211034131475,37.30295236741547],[113.40134400024044,37.30254488482607],[113.40048501366668,37.30203795711031],[113.39969302678759,37.30176204674912],[113.39916120452165,37.301457023866874],[113.39858231688778,37.30131384207566],[113.39769735308126,37.30139733916885],[113.3971612206385,37.30142607546833],[113.39646674622101,37.3011660447015],[113.39582830228663,37.30079167805413],[113.39558466302425,37.30063573604477],[113.3947963159151,37.30047293617826],[113.39416658652526,37.30037246375556],[113.3936108331615,37.30025262310785],[113.39277682899275,37.30006095762744],[113.391567275664,37.29978747556044],[113.39082804114963,37.2995270440776],[113.39052235039901,37.29942991650171],[113.39012073437897,37.299348661343714],[113.38950937148938,37.29923887003057],[113.3887837457932,37.29905390478123],[113.38836679588346,37.298841851390314],[113.38761655476131,37.298585884423275],[113.387050866568,37.298504952241764],[113.38624454269826,37.29824413658829],[113.38597093044433,37.29808281184338],[113.3853510135334,37.29770204014498],[113.38478375186067,37.297335098713425],[113.38443773363004,37.29712458728607],[113.38353662341208,37.29669586357013],[113.38294339519891,37.29633241616962],[113.38262507840096,37.296171983085564],[113.38227879636689,37.29602343393629],[113.38208136867479,37.29581766630286],[113.38179782372862,37.29573916730997],[113.38153659108589,37.295544222306255],[113.38128618986555,37.29526683010187],[113.38114940197529,37.295044345826234],[113.38088441867025,37.294588479432356],[113.380363181093,37.29398443094579],[113.37980720671881,37.29338187335202],[113.37948771834364,37.29294736327886],[113.37933896992676,37.29272393088808],[113.37894983836951,37.292445751877906],[113.37877970871489,37.292174880427446],[113.3786071018533,37.29190425309324],[113.37856744227926,37.29111851085856],[113.37846458237719,37.29022082562678],[113.3783703626501,37.2895970629057],[113.37791065619216,37.288497995917346],[113.3771188106023,37.2874037707464],[113.37681428138067,37.286411697139094],[113.37658542925665,37.28603859721045],[113.3762569338224,37.285763584523245],[113.37558625081674,37.28555873690508],[113.37299048358591,37.28517620801502]],[[113.30569417215219,37.49347151275766],[113.30080296001508,37.49199387559913],[113.29598194290662,37.49280276592536],[113.29023776569646,37.49277133437893],[113.28089314492708,37.49238021223782],[113.27974007311202,37.49176970313635],[113.2823214411628,37.490324921356326],[113.28464015504892,37.48946015902388],[113.28742084893189,37.48805253415398],[113.29018346193294,37.48638583325817],[113.29108889890554,37.48258925912639],[113.29183933680105,37.477783992653706],[113.29522267551805,37.47106848813656],[113.3006453078899,37.46066654344778],[113.30157443315115,37.458789377832794],[113.30317267492326,37.45825769389692],[113.30556888838065,37.45742441250137],[113.30689374793441,37.45675501489687],[113.30866017716075,37.455862479211355],[113.31047443605132,37.45361041107189],[113.31465734480281,37.44673577181949],[113.32027339632398,37.43983283846636],[113.32993742009742,37.43049032270303],[113.33352783344411,37.42484224935641],[113.33780345117248,37.418179183866194],[113.33915465071756,37.41550684776797],[113.33883697288275,37.41394007047547],[113.3380424806197,37.411453184951256],[113.33835192567277,37.40987400208506],[113.34045296954395,37.40825933975121],[113.3428315835134,37.40692515246496],[113.34520786403387,37.405519460907456],[113.34768513093391,37.401609119388326],[113.35050008120356,37.39990860230968],[113.3524683795506,37.39979792786164],[113.35634450217415,37.40050724973636],[113.35805978242524,37.400902068828934],[113.36089686675633,37.39991589438689],[113.36455573572756,37.39941373897692],[113.37224057436778,37.39868770642748],[113.37383924679582,37.39822660721318],[113.37485088211918,37.396204216070146],[113.37569912129679,37.39468560336545],[113.38162739459602,37.39227823153785],[113.39466375591464,37.38515062481563],[113.40572725259338,37.380850326580855],[113.40689360414828,37.380898076598434],[113.40811929622461,37.38251265521566],[113.40800397995214,37.38134371961384],[113.40760375659205,37.38035636774787],[113.40736153815119,37.378759648540544],[113.40724541746725,37.37737010217403],[113.40747760640281,37.37641201201541],[113.40806366782932,37.3753132461016],[113.40877031577577,37.37425015600238],[113.40945794609836,37.37333996539096],[113.41009291910062,37.372278325036774],[113.41044322141668,37.371279685759646],[113.41085040258872,37.37056589568008],[113.41098823806256,37.36964785718166],[113.41152219481559,37.36841666545536],[113.41166306180523,37.36759390011411],[113.41204556649643,37.36693082173902],[113.41331494974985,37.36591340146027],[113.41534643174172,37.36445139418076],[113.41752840178637,37.363215083852346],[113.41827611988668,37.36269450570691],[113.41847811860231,37.36191814430959],[113.41915298501002,37.36061729249054],[113.41996615697548,37.359904702784846],[113.42143453627344,37.358768722244314],[113.42353801512951,37.35791972442954],[113.42593008947263,37.35709843761755],[113.4282247642223,37.356035985929964],[113.42962602138063,37.35449134616687],[113.43074087335958,37.35351030401621],[113.43168229711712,37.353262128561354],[113.43309885077302,37.353304473841646],[113.43712845000312,37.35279172246582],[113.43587801018465,37.35462334705369],[113.43283405287409,37.36021554345208],[113.4312983474349,37.36444190827445],[113.42855649282991,37.36831173718544],[113.42779769306591,37.370710717825055],[113.42693788843424,37.373683788656685],[113.42287918721233,37.37748516610637],[113.42141604487307,37.38027990318807],[113.4210120269287,37.38257623945625],[113.42087290798081,37.387536559434594],[113.42036016597723,37.39016879347433],[113.4198244169717,37.39208647634475],[113.41991635432264,37.39494467171721],[113.4254195905195,37.39955097926732],[113.42954648944013,37.39968070403592],[113.43135165690643,37.40007260334307],[113.43445005013076,37.40165333184903],[113.43625759865786,37.40211658568637],[113.44248644649878,37.40348954638358],[113.44780001721487,37.4070261586619],[113.45203218130743,37.41037047983261],[113.45482068901988,37.41067008338392],[113.45783824387198,37.40974932744027],[113.4596110444657,37.40914041684643],[113.46220935925801,37.4063692570279],[113.46434968550412,37.406038639892316],[113.466683202818,37.4061329411285],[113.46952597449935,37.405358555303216],[113.47195874143212,37.40301965196035],[113.47341060792368,37.40356128169921],[113.4747397664441,37.4058214843343],[113.47498475655942,37.40781837537649],[113.47684208546156,37.40978148886003],[113.47579072887741,37.4105185211396],[113.47458370963,37.411973838780135],[113.47359341844805,37.41456860591814],[113.47107983430695,37.41991227429851],[113.46703858725148,37.42242776816328],[113.46317627225459,37.424939398928515],[113.44589969882927,37.43402154181633],[113.43633823317003,37.4377942160031],[113.4289681229277,37.44280810915777],[113.42564117169124,37.44530753391881],[113.42322866090178,37.44836011034261],[113.4225762326491,37.45037555135276],[113.41972663015528,37.451005968621445],[113.4136366243213,37.451273590631814],[113.40682493496668,37.4514125948194],[113.40164939343519,37.45223296749566],[113.39683223702609,37.45304584530494],[113.3912341843013,37.45187227949011],[113.38418863079899,37.45029863805476],[113.38107329838188,37.44821639339998],[113.37730904487482,37.44829221561919],[113.3737240074778,37.44836430655539],[113.3707353805428,37.45028337524153],[113.36801046874189,37.44919397155051],[113.36442536289442,37.44926577741451],[113.36266877683323,37.45044496767639],[113.35854132940985,37.45038443116772],[113.35174735377873,37.451091863536774],[113.34681735930623,37.45404998252737],[113.34280564261088,37.457704721610206],[113.33807638571075,37.46137352627009],[113.33689700377376,37.463827934213406],[113.33680671521199,37.46668981235985],[113.33780560634268,37.46995916018443],[113.33806061596665,37.472385191560015],[113.33705592758726,37.47469313767878],[113.33501972128094,37.47845153641034],[113.3343868564068,37.48118116834199],[113.33723719693093,37.486272928870775],[113.33676595420698,37.48842731322201],[113.33661331116498,37.489288357219586],[113.33359978581953,37.49049214514124],[113.32705219396931,37.49348149038081],[113.32189040134801,37.49487015531469],[113.31486403960646,37.4940071023437],[113.30569417215219,37.49347151275766]],[[113.42806823602302,37.35238050232275],[113.42674267629795,37.353494555019424],[113.42251385548506,37.355130508988985],[113.41782774691609,37.35796737809166],[113.41539836361527,37.361353813647746],[113.4117026504231,37.36250181667336],[113.40922332232977,37.364339930811575],[113.40838140005505,37.366025480226604],[113.40830073253791,37.36817218225261],[113.40762319166775,37.370331054046716],[113.40678877612142,37.372254782240695],[113.40582792502755,37.37489608253996],[113.40501626228485,37.37753434222787],[113.40191272912608,37.378550814986184],[113.39408651128932,37.381331337337635],[113.39072581352521,37.38366359610699],[113.3875179227629,37.38611184728365],[113.38117542153729,37.388623202594204],[113.37671648092902,37.389308787605806],[113.37180590978986,37.38988409403284],[113.36517524105815,37.39275789292611],[113.36266387767509,37.39364232426706],[113.36063389155012,37.39558962883868],[113.35752154000916,37.396366770021324],[113.35514804019749,37.39689076523679],[113.34900535563938,37.39629797930803],[113.34588911904143,37.396955728592644],[113.34414602989243,37.398539554974825],[113.34233518789735,37.402746471559034],[113.33835988674613,37.4046127711557],[113.33445462650505,37.408741883892624],[113.33374869309782,37.410066940785185],[113.33379674999355,37.41161522226174],[113.3341915671729,37.414705749502716],[113.33383971372297,37.41781128094422],[113.33079260354397,37.42073154705596],[113.33056043020889,37.42288120973616],[113.32888287603996,37.42660861117076],[113.32510694011035,37.43013893825926],[113.32149103029138,37.4340235185476],[113.3162244162342,37.43770203301029],[113.3126773879126,37.443849259546866],[113.30910415153967,37.449162693201934],[113.3066816780275,37.45302349783651],[113.29928490804984,37.45555114113476],[113.2973864516274,37.457018134512126],[113.29658114207669,37.46001310327511],[113.29376768001615,37.46578802882657],[113.29151516171333,37.470360276318175],[113.28996594617468,37.473488796575836],[113.28792417216908,37.48008282974488],[113.28641818530333,37.48464054280203],[113.28217813046084,37.487821031965254],[113.27957325634132,37.487871373425094],[113.27936909577947,37.487995820119814],[113.27876008392546,37.48813269937813],[113.27779048246941,37.48846126776341],[113.27700409145636,37.48866710420565],[113.27630852525725,37.48866265517967],[113.27599075637714,37.48871728702648],[113.27499721520273,37.48734575176586],[113.27246456110093,37.486679488655795],[113.26863753830501,37.48475100384002],[113.26316641699299,37.48185284420436],[113.2612954007645,37.47931455843459],[113.25873729646621,37.47779041604567],[113.25511046432244,37.47652498782353],[113.25193334928883,37.47429747087439],[113.24571089317499,37.47422524185521],[113.2423975768902,37.47543225761048],[113.23815044144263,37.47741957538871],[113.23243425929245,37.478290413770985],[113.22377492914606,37.47673760240249],[113.21272472426577,37.47522896954993],[113.20577817923885,37.471784543370084],[113.20599487530728,37.469348472517424],[113.20664211154707,37.4669529099845],[113.20787579332227,37.46416504705495],[113.20739384545816,37.45997911749367],[113.20656178271562,37.45608576457767],[113.20749742390795,37.4513013317702],[113.21003430220988,37.448107716820296],[113.21117052575292,37.44608434067406],[113.21216752814566,37.44339616963793],[113.21455354365925,37.43915655336417],[113.21566422134013,37.43627556681484],[113.21999544036487,37.43314341315904],[113.22313144780645,37.4300336092289],[113.22504320560958,37.429997614501],[113.22905198410365,37.42811063174229],[113.23553842284527,37.42512793502257],[113.23921094003992,37.424009679214876],[113.24192757730269,37.42290944141047],[113.24474083281319,37.421044597698106],[113.24761928449499,37.417367014534065],[113.25136220748188,37.41462629338282],[113.25597817766902,37.41310820114887],[113.26082426868977,37.411299532044396],[113.26459797271768,37.40960654523302],[113.27343279683865,37.40533745554084],[113.27756421978992,37.403637171198824],[113.2805588438653,37.403865466413],[113.28400520965796,37.403226889812366],[113.2879205655359,37.40229312694482],[113.29025418262194,37.40043652422946],[113.29313545927333,37.39694848449154],[113.29817769712511,37.393799723951126],[113.30401747024135,37.38939579355719],[113.3077569241669,37.386653359011255],[113.31274573187336,37.38569779971033],[113.31499982022177,37.38517697193954],[113.3160392812642,37.38401254848754],[113.31895981101404,37.381857829219506],[113.32084966031628,37.38115336516234],[113.32323470455326,37.38101117116697],[113.32622555949123,37.38114302779381],[113.329105860582,37.38156298601707],[113.3311267985403,37.381237118923565],[113.33668240534847,37.379315758691085],[113.33829177959332,37.377281842485615],[113.34181127286662,37.37521007696783],[113.34672755198706,37.371966450673895],[113.35169994124665,37.37053292004613],[113.35478591692488,37.36989949594056],[113.35867168416257,37.3681059966026],[113.36169478044192,37.36547156356576],[113.36702117590765,37.36012154157484],[113.36886208850099,37.3578919316592],[113.37043722102638,37.35480958378356],[113.37872190035915,37.34863697912116],[113.380729668312,37.34792920133606],[113.3876212838372,37.34683686693222],[113.3980382701253,37.343956592997195],[113.4088738542346,37.33925546340131],[113.41031848961336,37.33588922547934],[113.41142629131087,37.333197162687874],[113.41634274734926,37.333859519815995],[113.41874434547331,37.33428710262681],[113.41985489612742,37.33540840483329],[113.42121023869264,37.336715388331015],[113.41909913998329,37.33790264151301],[113.41994968988007,37.33836191943017],[113.421730362739,37.33803944127263],[113.4244502731562,37.33722100512984],[113.42708146867619,37.33735769539949],[113.43090896612799,37.33756507592833],[113.4338919809461,37.337503702408995],[113.43655706505547,37.338688188219116],[113.43786653303899,37.33856585102768],[113.4401367395887,37.3386143639306],[113.44050704383245,37.3389880587709],[113.44090202766435,37.34012394387811],[113.44031054488728,37.34167303218337],[113.43986580570328,37.34165059737557],[113.43924773059648,37.34155371400699],[113.43870336582147,37.341336132229394],[113.4382567663359,37.34118803835706],[113.43792095331818,37.34114252755925],[113.43760031493443,37.34119681031485],[113.4373053911717,37.34130776376495],[113.43679999269564,37.34155651896369],[113.43630028230648,37.3419815241565],[113.4351553324749,37.34276304893805],[113.43471290055658,37.34366831656291],[113.43456032973309,37.344305445244395],[113.4344483091042,37.34490360645033],[113.43424431194829,37.34542739299969],[113.43408592467307,37.34606941058358],[113.43410359104921,37.346431324169195],[113.43409831019586,37.34682231188024],[113.4339723317686,37.34735879117122],[113.43380439883921,37.34770546160424],[113.43367807874884,37.348046504528355],[113.43339221790976,37.34861010879594],[113.432485364281,37.3493723995792],[113.42995001755313,37.35074017767135],[113.42806823602302,37.35238050232275]]]]},"properties":{"code":"SXPR-P24","name_short":"铁桥山","name_full":"山西铁桥山省级自然保护区","zone":"experimental","area_km2":195.986,"feature_count":1}}]}