{"type":"FeatureCollection","features":[{"type":"Feature","geometry":{"type":"MultiPolygon","coordinates":[[[[111.76514593320626,35.63362076524146],[111.76656411655134,35.63301559936974],[111.76790669439472,35.632142632583545],[111.76939184969312,35.63091104981371],[111.76979001277603,35.63055081646256],[111.77058690034953,35.62988995806372],[111.77233039113999,35.62895476103217],[111.77331092590845,35.62841193700395],[111.77516905190093,35.62801249757498],[111.77677276441575,35.62773390017677],[111.77811947411679,35.62730790446937],[111.77960785578975,35.62643386593272],[111.78076881020183,35.62568116057551],[111.7821131414103,35.62501667699708],[111.78458911384035,35.624344812852215],[111.786517761639,35.62370627999941],[111.78881083936065,35.623005716758634],[111.79132730710472,35.6227507538788],[111.79337155670706,35.62273730884202],[111.79541639533328,35.62278344012102],[111.79724487163736,35.62309923565501],[111.79874511681648,35.623446986528855],[111.79958828557115,35.62379908244251],[111.80013942236711,35.624153112353696],[111.80087546790482,35.62474436997988],[111.8018646812813,35.625095477848035],[111.80277999921287,35.62535764861351],[111.80336498171111,35.625443171234934],[111.80394220859871,35.62475375085144],[111.80447993499314,35.62376651636375],[111.8046540976375,35.62293074627645],[111.80479115541974,35.62203560796279],[111.80481810211649,35.62108159105174],[111.80491865211299,35.620186696232906],[111.80494559710495,35.61923267903076],[111.80479361344975,35.61863754550247],[111.80497015219808,35.61804021806721],[111.8055476109745,35.61738059458507],[111.80594135721665,35.616602967575574],[111.80630188545524,35.61615344444193],[111.80684820833456,35.61603055722654],[111.80761413508446,35.61596581059942],[111.80852786638411,35.61607891201408],[111.80962380535902,35.61616097475469],[111.81031733057041,35.616156312344536],[111.81119155636833,35.615971584781164],[111.81195597225543,35.61575778353441],[111.81235447065723,35.615457022885515],[111.81282385681166,35.614947130602],[111.81343984267185,35.61449586260833],[111.8147882452467,35.61427809931198],[111.8158461521451,35.6142113255721],[111.81679516100358,35.61420489572653],[111.81741415106993,35.61405166065207],[111.8175537828632,35.613424757040164],[111.81740171795464,35.61282963993879],[111.81717605014087,35.61217540779742],[111.81687890292449,35.611670696125884],[111.8164713538707,35.61107730946391],[111.81635792021653,35.61069058205389],[111.81551270143974,35.61012996401077],[111.81433810248345,35.60948214407556],[111.81272102594535,35.60839018660173],[111.8118043659306,35.60797906125959],[111.81158267223935,35.60771228734679],[111.8115766518912,35.60711617912099],[111.8119349976487,35.60645800029834],[111.81214524386534,35.60559216712467],[111.81213711142624,35.604787419617644],[111.81143826892671,35.6042555927189],[111.81061110470912,35.60409984188063],[111.80946601875914,35.604050309319106],[111.80729206264951,35.6038932026991],[111.80507292887296,35.60388897243979],[111.80327346262962,35.603805597979786],[111.80026605447749,35.60388319656698],[111.79833207159831,35.603925832647086],[111.79629007487928,35.60411818920821],[111.79373829993888,35.604433099518516],[111.79213511416934,35.60471191711555],[111.78966068832112,35.605473346836156],[111.78838798350833,35.60595860134604],[111.7869321948922,35.606385422293094],[111.78569566572598,35.60684060467297],[111.78489592707795,35.60717369978745],[111.78409734503104,35.607626012281],[111.78399337810883,35.60819303126373],[111.78360294561041,35.60932825762666],[111.78302536012316,35.60998777747334],[111.78185885070872,35.61014439023609],[111.78039947556307,35.61021346630192],[111.7794870043245,35.610219372781536],[111.77887056783285,35.6106406647421],[111.77851308541608,35.61141797028237],[111.77778973250227,35.612108215358965],[111.7764435623326,35.61256401093938],[111.77473352418008,35.61314136103628],[111.77320625064813,35.61374732266401],[111.77149616224217,35.614324628215485],[111.77011484566539,35.61492961522447],[111.7686981474719,35.61565404328295],[111.76655650687665,35.61691960419305],[111.76521530010683,35.61791177899826],[111.76445583958008,35.61866178784016],[111.76325832525238,35.619414568766814],[111.76242469347638,35.62004580544708],[111.76130155960936,35.6209471330292],[111.76065013535401,35.62154739838851],[111.76014697497655,35.62238518417105],[111.76026382449335,35.62315944256396],[111.76107060388719,35.623541845445885],[111.76195662389314,35.62457950797584],[111.76229196409832,35.62529276594855],[111.76233497767022,35.62597806648212],[111.7619769860021,35.62672551901643],[111.76121599918972,35.62732647917625],[111.76034576299271,35.6279579325411],[111.7598417143413,35.62870630044056],[111.75966791864006,35.62963142808756],[111.75978957022961,35.6309123821447],[111.76030972079892,35.63186293982235],[111.76134016533938,35.63272084755823],[111.76236808568285,35.63331049585957],[111.763870647304,35.633897126278676],[111.76514593320626,35.63362076524146]]],[[[111.83653137996379,35.68854383265616],[111.83734475788664,35.688061265174326],[111.83804120161552,35.687866475032145],[111.83874366042505,35.68766999688966],[111.83991873479097,35.68823409820359],[111.84050614201821,35.688610791456895],[111.84090027759348,35.68739185510187],[111.84109629344645,35.68601697865152],[111.84094639710892,35.68510235431257],[111.84114961576374,35.684414180357315],[111.84113640055172,35.68315522374219],[111.84098470815323,35.6820689233687],[111.84096489124273,35.68018048797895],[111.84109615928315,35.679321127968876],[111.84185865088759,35.678457355489314],[111.84227044879354,35.6775960321057],[111.84261330536894,35.676849649538376],[111.84274575429862,35.676104738030645],[111.8432953896825,35.675013527373714],[111.8435705024184,35.67449653417711],[111.8444108917485,35.67437618418451],[111.84511342559513,35.674485713838216],[111.84616964668771,35.674878902234624],[111.84757775492352,35.67538406340511],[111.84869989201184,35.675376158514986],[111.85010377712264,35.67548071384527],[111.85192420938246,35.6751816984108],[111.8528999871524,35.674602495007186],[111.8528938984196,35.674030242265786],[111.85260424000121,35.67317385169567],[111.85217432548066,35.67231845214791],[111.85174381230868,35.67140582567951],[111.85122677526456,35.66894861023407],[111.85030297544421,35.667810546302114],[111.84980056323329,35.666726730245664],[111.85028416312038,35.6660365614023],[111.85104339440053,35.66488660498752],[111.85180989853092,35.66442334816185],[111.85306847697531,35.66407106038908],[111.85432338511941,35.66337540854993],[111.85564534067078,35.6623931188718],[111.85661849222247,35.66158498508396],[111.85688736104379,35.66049570868404],[111.85750498385177,35.65923226090507],[111.85770249021168,35.65802903147393],[111.85782742600725,35.65659740030779],[111.85759810921027,35.65482491371435],[111.8573785889539,35.65396803143026],[111.8567396108491,35.653228592558065],[111.85631098661278,35.65248765549402],[111.85559142434292,35.65195175628901],[111.85532146713929,35.65175070075707],[111.85456432934237,35.6517904261048],[111.85357853960556,35.65228938181637],[111.85165008013544,35.652958791611304],[111.8496457120309,35.65336044263564],[111.8490245937111,35.6533350159773],[111.84791977804446,35.65285679417925],[111.84747849765535,35.652721823717776],[111.84747003448103,35.65192066654013],[111.84774396018463,35.650932316732984],[111.84801037334415,35.649971051313365],[111.84835003802057,35.64893852344983],[111.84756975594223,35.64808557038946],[111.84636762911246,35.647121117901094],[111.84516733936474,35.646328329291585],[111.84368724413716,35.6455947185581],[111.84241809815455,35.64491684470092],[111.84066062588523,35.644471285653665],[111.83953831897408,35.64442188421096],[111.83826862813451,35.64368673926803],[111.83727759044598,35.64277795459886],[111.83593903375944,35.64215772286732],[111.8343937538815,35.64188228892022],[111.83257637869043,35.64240993438984],[111.83089859739216,35.64287935980898],[111.82985529951404,35.64368777172556],[111.82838720371855,35.64409848759478],[111.82663807578389,35.644453884092876],[111.82460673817536,35.6446394992143],[111.82291947229477,35.64419319983259],[111.82143961584434,35.643459312152906],[111.81889827533702,35.641759718203076],[111.81720818705071,35.64102720775709],[111.8148988185952,35.64144346444649],[111.8143134195854,35.641576373867196],[111.8139779093369,35.641652547604565],[111.81308015972269,35.64185636448018],[111.81243069853504,35.64263744590515],[111.81141628041223,35.64343119700777],[111.8106913063245,35.643960686851294],[111.80935355588615,35.644660395356034],[111.80904464852371,35.64491673010735],[111.80835740756451,35.64629486448404],[111.80813206910958,35.646749918496496],[111.80753280207004,35.64796006612167],[111.80754316909062,35.648990135894955],[111.80818627589963,35.65018765150472],[111.80966960477983,35.65126505685265],[111.80940358629391,35.652697593188094],[111.80836340228815,35.653849178647185],[111.80710938490043,35.654658808692666],[111.8048760006731,35.65570389459385],[111.8022149833038,35.656065030097324],[111.79871423433868,35.65660336880922],[111.79738995646733,35.657413364136616],[111.79599666711253,35.65833826078895],[111.79516998343219,35.65983170030605],[111.79546125044794,35.66091714470535],[111.79624395453797,35.6620565702809],[111.79583003187548,35.66274606578184],[111.79429298356128,35.66332851305594],[111.79458141829315,35.66412782878601],[111.7957820557024,35.66497834746609],[111.79656764643374,35.66640390044659],[111.79721756198919,35.66828818395514],[111.79652310167297,35.66897953749925],[111.79674315550206,35.66995098941508],[111.79738570717582,35.671091331656136],[111.79774376273762,35.671832947649236],[111.79754532472857,35.67303608737168],[111.79685310236378,35.67395634728759],[111.79538938896938,35.67488170233526],[111.7944188546563,35.67603270608701],[111.79352352868295,35.677698274078],[111.79353599338015,35.67895724590452],[111.79452245803085,35.67940857784668],[111.79592749225104,35.67962821663133],[111.7973986865188,35.67944679257099],[111.79991965555723,35.67902946085046],[111.80153224805409,35.67896150602075],[111.80258717618224,35.67924062607638],[111.80238421134393,35.67998596545914],[111.80190698478563,35.68136265786433],[111.80156887882526,35.682623962821744],[111.80137219167997,35.6839987844558],[111.80124621237219,35.68543036445444],[111.80111851364443,35.686690266862634],[111.80176241019404,35.68794503237647],[111.80317105478241,35.68850793823424],[111.8053484517383,35.68877953848536],[111.80773399327828,35.68882078575965],[111.81061055873388,35.6888586793743],[111.81264247158049,35.68861606096798],[111.81474742657059,35.688659062158266],[111.81600655309448,35.68830715691181],[111.81866681683059,35.68777402790077],[111.82111426424584,35.68701337522008],[111.82335241024695,35.686368562635444],[111.82551919746555,35.68560973999499],[111.82670454183369,35.68491485081553],[111.8271908120109,35.6844536741601],[111.82832018059855,35.68513266364623],[111.8296605905373,35.68586741656641],[111.83128753631856,35.68717247172717],[111.83241400491052,35.687565294249644],[111.83360705667886,35.687614267935636],[111.83480189842123,35.68783490637686],[111.83614112771102,35.68896043923268],[111.83653137996379,35.68854383265616]]]]},"properties":{"code":"SXPR-P29","name_short":"翼城翅果油树","name_full":"山西翼城翅果油树省级自然保护区","zone":"core","area_km2":30.14,"feature_count":2}},{"type":"Feature","geometry":{"type":"MultiPolygon","coordinates":[[[[111.76130593335724,35.63719635490271],[111.76143364230202,35.636802088887144],[111.76169278858977,35.63640699254507],[111.7621716772615,35.63608204314538],[111.76308698875435,35.63557548312714],[111.76452871831331,35.63513711389445],[111.7658841726361,35.63484235148477],[111.76684462518932,35.634478551441354],[111.76736831810696,35.63426060325698],[111.76880554714623,35.633357215191964],[111.76976322382646,35.63270725881876],[111.77059117024625,35.632236968673084],[111.77180962007536,35.631370714452544],[111.77290453179745,35.63132792491642],[111.77377935804785,35.63117923322842],[111.77434612969448,35.63088943949285],[111.77491462431603,35.63077847675601],[111.77561350952524,35.63055936575508],[111.77665940882798,35.62998032444225],[111.77771048939694,35.629937773922435],[111.77884745258866,35.62971581428668],[111.7801140995866,35.62931416039069],[111.78076810460475,35.628988003220805],[111.78172632870141,35.62840948633117],[111.78259622547125,35.6277599970853],[111.78377520545614,35.627358874352836],[111.78451924193845,35.627282493521676],[111.78544130674416,35.62749109827376],[111.78658031477151,35.62748366653626],[111.78815634920714,35.62736605858057],[111.78924943822065,35.62714428900501],[111.79003621829101,35.626960287126586],[111.79156948728955,35.626950221999486],[111.79319107608892,35.62701109352016],[111.79433007517738,35.627003588600346],[111.79652435958896,35.62738255834465],[111.7980608323335,35.62769430910837],[111.79915959203834,35.628044713997824],[111.80052049756108,35.62832182853517],[111.80166415531446,35.62877921888241],[111.80280675312395,35.629129298500416],[111.80403554571639,35.62933571587873],[111.80473756186181,35.62943833499826],[111.80543814570417,35.62939788357037],[111.80626584464775,35.628927352002606],[111.80674234824633,35.62838762875336],[111.8076106000148,35.62759489599612],[111.808746001102,35.62722959010462],[111.80944439892231,35.626974517478914],[111.81008175736528,35.62693432339063],[111.8107140934237,35.62689444182766],[111.81127731680327,35.62692741615833],[111.81185552750335,35.62678312967716],[111.81223842767584,35.62652301251412],[111.81235148336063,35.62615025400069],[111.8123492642469,35.625930886815745],[111.81232339290187,35.625683064088115],[111.81231934083156,35.62528248014032],[111.81222975439275,35.62451047659238],[111.81228266403618,35.62396643333915],[111.81230380864056,35.623746908540085],[111.812361673326,35.62351036005335],[111.81241599203555,35.623288310597474],[111.81242516456031,35.623040251453354],[111.81279539902394,35.622684834740504],[111.81324739882362,35.62232886406302],[111.81369833060211,35.62186797769618],[111.81396216704002,35.621389277767825],[111.81428459839357,35.6209292573128],[111.81503738524242,35.62028509611101],[111.81567548126579,35.61985155104022],[111.81643231851201,35.619607965257316],[111.81727140292635,35.61941150887223],[111.81824997169267,35.61914733036889],[111.81893938036046,35.618952020370735],[111.81914686727085,35.61889323823086],[111.8201482008065,35.61857165950111],[111.82061153267931,35.61818697002935],[111.82099290130621,35.61778376034311],[111.82145554186893,35.61733230420866],[111.82185987322188,35.61689078121622],[111.82214593122946,35.61630698967342],[111.82243237461729,35.61576134788976],[111.82291718399426,35.6151952736923],[111.82323993036732,35.61477338024597],[111.82349210400494,35.6143042771507],[111.82362149709321,35.6139294016115],[111.8236736079253,35.61377842564302],[111.82373811390008,35.61323429767954],[111.8237908417917,35.61268071121484],[111.82386937288157,35.61236540859413],[111.82391247287785,35.612012194181965],[111.82395381305611,35.61148730048376],[111.82396197122053,35.611143863006575],[111.82392272679618,35.61073398147383],[111.82391724992652,35.61019986975816],[111.82390038755489,35.609694451823096],[111.82356837761279,35.609210263531445],[111.82301280405127,35.608565449985186],[111.82271789243066,35.60828131317714],[111.82267933954422,35.60793819450563],[111.8224285130838,35.60739621925198],[111.82230752475944,35.6069868938895],[111.82224561714666,35.60664393527272],[111.822125118827,35.606282298442366],[111.82200345094641,35.605806209960924],[111.8221430802737,35.60461295858958],[111.82180503890723,35.60284634357839],[111.82178216847295,35.60272681989395],[111.82168470782327,35.60176172219053],[111.82195452080826,35.60069045177485],[111.82154485143774,35.600628531102046],[111.82122265023608,35.60057982934647],[111.82114148245604,35.6005675610943],[111.82029419498849,35.60046742964835],[111.82018878864815,35.60044801920153],[111.81977792562735,35.60037235905609],[111.8193109192296,35.60028635690128],[111.8189018333783,35.60021102054757],[111.81797536026487,35.600002385831104],[111.81796723856321,35.600000556417335],[111.81725025437416,35.59983909098653],[111.8172004747578,35.59982788067976],[111.81716325646327,35.59981949895926],[111.81664053930464,35.599693469518705],[111.81623610347143,35.5995959557069],[111.815861285196,35.59949709991293],[111.81563999282396,35.599439250584965],[111.81513034021073,35.59930601785322],[111.81453442717043,35.59915369144168],[111.8143474801981,35.599105903612994],[111.8142286467234,35.59907552735865],[111.8141792380842,35.59905520691407],[111.81371165902698,35.598862902500244],[111.81298894590066,35.59856566211807],[111.81290058375241,35.59851786661506],[111.81238473513056,35.59823883575079],[111.8121334350545,35.59810290197432],[111.81158188999895,35.59780455524233],[111.81140753424123,35.597693254203364],[111.81070171075244,35.59724267566734],[111.81016385774151,35.59697816284615],[111.81008000365826,35.5969381696298],[111.81003614504111,35.596927428456034],[111.8091487196041,35.59671009283391],[111.80821521775084,35.596657126885376],[111.80815433568313,35.596653673263866],[111.8070289528755,35.596765865417325],[111.80699133467719,35.59676961604567],[111.80628606885855,35.59686185507233],[111.80568405020428,35.596940588259955],[111.80545363175028,35.59697236239034],[111.80467093863435,35.59708029218096],[111.80457285673238,35.59709873083013],[111.80406323586094,35.59719453535827],[111.80395020321764,35.597215784262495],[111.80324464534691,35.59742102075613],[111.80258467449781,35.59770255709727],[111.80209416600117,35.597762167306044],[111.80197818386958,35.597776261727525],[111.80188630564155,35.59778742695964],[111.80180007919861,35.597797905606605],[111.80143673361142,35.59772123923518],[111.80082696334034,35.59759257439334],[111.80052511509147,35.59750047787708],[111.79991940177247,35.59731566776377],[111.79985847374098,35.59729707710415],[111.7995344521401,35.59725045712207],[111.79925966886144,35.59721092081715],[111.79909354781813,35.59742832716458],[111.79909915775505,35.597854141620196],[111.79909866341468,35.59785569777899],[111.79897945110307,35.598231216465805],[111.79862732133552,35.598400285664816],[111.79815583773483,35.5984110259658],[111.79806949139228,35.598412992091575],[111.79723982568827,35.598246641238],[111.79718755208546,35.598236160147344],[111.79705777976623,35.59821013920484],[111.79645331111256,35.598047018537955],[111.79621024416592,35.59798142367275],[111.79620117023045,35.59797897540216],[111.79572934710885,35.59785164531526],[111.79468634662035,35.59755209201456],[111.79411327807536,35.59741989390599],[111.79403377781108,35.597401554261715],[111.79392665860621,35.597376842517875],[111.79316323567868,35.59731201879764],[111.79301552766951,35.59734782302617],[111.79257083961136,35.5974556117308],[111.79231466539667,35.59784484345484],[111.79232991418652,35.59841254536085],[111.79245109951526,35.59909221066815],[111.79231791638021,35.59971496441255],[111.79178237922784,35.60010152416906],[111.79171009777046,35.60011551806422],[111.79099903700448,35.600187780739866],[111.79055415401893,35.60000721592318],[111.79038316297718,35.59993781530099],[111.79001019959134,35.59978643828234],[111.78901903291231,35.59907641649587],[111.78894292208113,35.59900950460246],[111.78841865270645,35.598548593485376],[111.78808084215947,35.59821057147457],[111.78789509274218,35.59806127007207],[111.78765262507856,35.597866379020296],[111.78728223540863,35.59774069062685],[111.7872102986497,35.59771628020519],[111.78719660969355,35.59771163437195],[111.78718567679604,35.597714268089256],[111.78683124942283,35.597799640786],[111.78655327679328,35.59807859579411],[111.78623681723289,35.59858312059969],[111.7858952034529,35.59919596057745],[111.78571135205803,35.59952324304],[111.78558268904705,35.5997522807133],[111.78523952474754,35.60020740638048],[111.78473177154864,35.60047658842835],[111.78472307013347,35.60047770317882],[111.78462051654932,35.60058622369998],[111.78450722572961,35.600944651357224],[111.78477592308558,35.60155097616517],[111.78507312267367,35.60208557660671],[111.7854039492921,35.603073031562616],[111.78523587620326,35.60380143132966],[111.78478961338438,35.604448181211815],[111.78371897541786,35.60544475984984],[111.78277900304545,35.60636894224841],[111.78215798340487,35.60706450974676],[111.78156522319554,35.6076645071064],[111.7804286947298,35.607898411240846],[111.77858920344403,35.607910311420795],[111.77756714898581,35.60790498749253],[111.77682351471208,35.60800516854985],[111.77640393995696,35.60840133209864],[111.77557535079379,35.60877628189299],[111.77436694030538,35.60912982191717],[111.773330959224,35.60919609052265],[111.7724282037872,35.60945226448644],[111.77186432235338,35.61002818271047],[111.77160462226107,35.610351767392864],[111.77064413539159,35.61067983661739],[111.76953547367152,35.61078230608319],[111.76833921085093,35.61088532490858],[111.76775727370813,35.61110364834668],[111.7664755659206,35.61143372993684],[111.76568831120758,35.61155796566011],[111.76424338018775,35.61161483159457],[111.76331125481966,35.611859200917124],[111.7629531121339,35.611945219420484],[111.76224279691786,35.61258078350517],[111.76149403258283,35.61349354906723],[111.76051251429018,35.61459704517304],[111.75952238677789,35.615376130015555],[111.75858139823364,35.61573580513914],[111.75845546075526,35.61575773448253],[111.75762822796524,35.61590177557476],[111.75671356670816,35.6158354197445],[111.75589321601767,35.61589464255161],[111.7551754338113,35.61629795570034],[111.75453915522584,35.6167863744551],[111.75323376081019,35.61779495241304],[111.75144159709812,35.61920536522191],[111.75114957335502,35.619435916716704],[111.75053832210017,35.619918492082775],[111.75033338690645,35.62006171795541],[111.750071237036,35.620209806933595],[111.74982649602468,35.620301456982595],[111.74911084650266,35.620866949585526],[111.7480103865986,35.62174576535115],[111.74709532393389,35.622458940537676],[111.74645984983579,35.62292316410928],[111.74631816909209,35.62310176335667],[111.7460176180203,35.623759391105224],[111.7462587852706,35.624568662330006],[111.74667407768582,35.62525762364826],[111.74730586344664,35.625671011790175],[111.74793399244176,35.62569095936352],[111.74882396512874,35.625601969932],[111.75003363005685,35.62534406159016],[111.75122991055977,35.62521737757912],[111.75287908447811,35.62511169876454],[111.75387461810631,35.6253797017916],[111.75431649770184,35.625782318345486],[111.7552609235221,35.62682562536222],[111.7558679357724,35.62770411997599],[111.7565624689385,35.62857013887224],[111.7569935973084,35.62937819406511],[111.75723950275294,35.63067625480305],[111.75770098239389,35.6316033462436],[111.75857070067316,35.63245632781646],[111.75939651169053,35.63329765687675],[111.76016279615986,35.634020125827824],[111.76060825691192,35.634792307196996],[111.7606758241117,35.63575764225656],[111.76071474851044,35.63678277202739],[111.76086666938619,35.63740180723012],[111.76130593335724,35.63719635490271]],[[111.76236808568285,35.63331049585957],[111.76134016533938,35.63272084755823],[111.76030972079892,35.63186293982235],[111.75978957022961,35.6309123821447],[111.75966791864006,35.62963142808756],[111.7598417143413,35.62870630044056],[111.76034576299271,35.6279579325411],[111.76121599918972,35.62732647917625],[111.7619769860021,35.62672551901643],[111.76233497767022,35.62597806648212],[111.76229196409832,35.62529276594855],[111.76195662389314,35.62457950797584],[111.76107060388719,35.623541845445885],[111.76026382449335,35.62315944256396],[111.76014697497655,35.62238518417105],[111.76065013535401,35.62154739838851],[111.76130155960936,35.6209471330292],[111.76242469347638,35.62004580544708],[111.76325832525238,35.619414568766814],[111.76445583958008,35.61866178784016],[111.76521530010683,35.61791177899826],[111.76655650687665,35.61691960419305],[111.7686981474719,35.61565404328295],[111.77011484566539,35.61492961522447],[111.77149616224217,35.614324628215485],[111.77320625064813,35.61374732266401],[111.77473352418008,35.61314136103628],[111.7764435623326,35.61256401093938],[111.77778973250227,35.612108215358965],[111.77851308541608,35.61141797028237],[111.77887056783285,35.6106406647421],[111.7794870043245,35.610219372781536],[111.78039947556307,35.61021346630192],[111.78185885070872,35.61014439023609],[111.78302536012316,35.60998777747334],[111.78360294561041,35.60932825762666],[111.78399337810883,35.60819303126373],[111.78409734503104,35.607626012281],[111.78489592707795,35.60717369978745],[111.78569566572598,35.60684060467297],[111.7869321948922,35.606385422293094],[111.78838798350833,35.60595860134604],[111.78966068832112,35.605473346836156],[111.79213511416934,35.60471191711555],[111.79373829993888,35.604433099518516],[111.79629007487928,35.60411818920821],[111.79833207159831,35.603925832647086],[111.80026605447749,35.60388319656698],[111.80327346262962,35.603805597979786],[111.80507292887296,35.60388897243979],[111.80729206264951,35.6038932026991],[111.80946601875914,35.604050309319106],[111.81061110470912,35.60409984188063],[111.81143826892671,35.6042555927189],[111.81213711142624,35.604787419617644],[111.81214524386534,35.60559216712467],[111.8119349976487,35.60645800029834],[111.8115766518912,35.60711617912099],[111.81158267223935,35.60771228734679],[111.8118043659306,35.60797906125959],[111.81272102594535,35.60839018660173],[111.81433810248345,35.60948214407556],[111.81551270143974,35.61012996401077],[111.81635792021653,35.61069058205389],[111.8164713538707,35.61107730946391],[111.81687890292449,35.611670696125884],[111.81717605014087,35.61217540779742],[111.81740171795464,35.61282963993879],[111.8175537828632,35.613424757040164],[111.81741415106993,35.61405166065207],[111.81679516100358,35.61420489572653],[111.8158461521451,35.6142113255721],[111.8147882452467,35.61427809931198],[111.81343984267185,35.61449586260833],[111.81282385681166,35.614947130602],[111.81235447065723,35.615457022885515],[111.81195597225543,35.61575778353441],[111.81119155636833,35.615971584781164],[111.81031733057041,35.616156312344536],[111.80962380535902,35.61616097475469],[111.80852786638411,35.61607891201408],[111.80761413508446,35.61596581059942],[111.80684820833456,35.61603055722654],[111.80630188545524,35.61615344444193],[111.80594135721665,35.616602967575574],[111.8055476109745,35.61738059458507],[111.80497015219808,35.61804021806721],[111.80479361344975,35.61863754550247],[111.80494559710495,35.61923267903076],[111.80491865211299,35.620186696232906],[111.80481810211649,35.62108159105174],[111.80479115541974,35.62203560796279],[111.8046540976375,35.62293074627645],[111.80447993499314,35.62376651636375],[111.80394220859871,35.62475375085144],[111.80336498171111,35.625443171234934],[111.80277999921287,35.62535764861351],[111.8018646812813,35.625095477848035],[111.80087546790482,35.62474436997988],[111.80013942236711,35.624153112353696],[111.79958828557115,35.62379908244251],[111.79874511681648,35.623446986528855],[111.79724487163736,35.62309923565501],[111.79541639533328,35.62278344012102],[111.79337155670706,35.62273730884202],[111.79132730710472,35.6227507538788],[111.78881083936065,35.623005716758634],[111.786517761639,35.62370627999941],[111.78458911384035,35.624344812852215],[111.7821131414103,35.62501667699708],[111.78076881020183,35.62568116057551],[111.77960785578975,35.62643386593272],[111.77811947411679,35.62730790446937],[111.77677276441575,35.62773390017677],[111.77516905190093,35.62801249757498],[111.77331092590845,35.62841193700395],[111.77233039113999,35.62895476103217],[111.77058690034953,35.62988995806372],[111.76979001277603,35.63055081646256],[111.76939184969312,35.63091104981371],[111.76790669439472,35.632142632583545],[111.76656411655134,35.63301559936974],[111.76514593320626,35.63362076524146],[111.763870647304,35.633897126278676],[111.76236808568285,35.63331049585957]]],[[[111.82079261667573,35.692944388913276],[111.8227782248327,35.69274006742579],[111.82499568653121,35.69234336046009],[111.82721312548516,35.69194661291023],[111.82908276333279,35.691838368291904],[111.83106930858061,35.691729286684755],[111.83200263717688,35.691532074568826],[111.8331668100576,35.691047110074],[111.83467772978892,35.690178201002645],[111.83572197177507,35.68940789670706],[111.83614112771102,35.68896043923268],[111.83480189842123,35.68783490637686],[111.83360705667886,35.687614267935636],[111.83241400491052,35.687565294249644],[111.83128753631856,35.68717247172717],[111.8296605905373,35.68586741656641],[111.82832018059855,35.68513266364623],[111.8271908120109,35.6844536741601],[111.82670454183369,35.68491485081553],[111.82551919746555,35.68560973999499],[111.82335241024695,35.686368562635444],[111.82111426424584,35.68701337522008],[111.81866681683059,35.68777402790077],[111.81600655309448,35.68830715691181],[111.81474742657059,35.688659062158266],[111.81264247158049,35.68861606096798],[111.81061055873388,35.6888586793743],[111.80773399327828,35.68882078575965],[111.8053484517383,35.68877953848536],[111.80317105478241,35.68850793823424],[111.80176241019404,35.68794503237647],[111.80111851364443,35.686690266862634],[111.80124621237219,35.68543036445444],[111.80137219167997,35.6839987844558],[111.80156887882526,35.682623962821744],[111.80190698478563,35.68136265786433],[111.80238421134393,35.67998596545914],[111.80258717618224,35.67924062607638],[111.80153224805409,35.67896150602075],[111.79991965555723,35.67902946085046],[111.7973986865188,35.67944679257099],[111.79592749225104,35.67962821663133],[111.79452245803085,35.67940857784668],[111.79353599338015,35.67895724590452],[111.79352352868295,35.677698274078],[111.7944188546563,35.67603270608701],[111.79538938896938,35.67488170233526],[111.79685310236378,35.67395634728759],[111.79754532472857,35.67303608737168],[111.79774376273762,35.671832947649236],[111.79738570717582,35.671091331656136],[111.79674315550206,35.66995098941508],[111.79652310167297,35.66897953749925],[111.79721756198919,35.66828818395514],[111.79656764643374,35.66640390044659],[111.7957820557024,35.66497834746609],[111.79458141829315,35.66412782878601],[111.79429298356128,35.66332851305594],[111.79583003187548,35.66274606578184],[111.79624395453797,35.6620565702809],[111.79546125044794,35.66091714470535],[111.79516998343219,35.65983170030605],[111.79599666711253,35.65833826078895],[111.79738995646733,35.657413364136616],[111.79871423433868,35.65660336880922],[111.8022149833038,35.656065030097324],[111.8048760006731,35.65570389459385],[111.80710938490043,35.654658808692666],[111.80836340228815,35.653849178647185],[111.80940358629391,35.652697593188094],[111.80966960477983,35.65126505685265],[111.80818627589963,35.65018765150472],[111.80754316909062,35.648990135894955],[111.80753280207004,35.64796006612167],[111.80813206910958,35.646749918496496],[111.80835740756451,35.64629486448404],[111.80904464852371,35.64491673010735],[111.80935355588615,35.644660395356034],[111.8106913063245,35.643960686851294],[111.81141628041223,35.64343119700777],[111.81243069853504,35.64263744590515],[111.81308015972269,35.64185636448018],[111.8139779093369,35.641652547604565],[111.8143134195854,35.641576373867196],[111.8148988185952,35.64144346444649],[111.81720818705071,35.64102720775709],[111.81889827533702,35.641759718203076],[111.82143961584434,35.643459312152906],[111.82291947229477,35.64419319983259],[111.82460673817536,35.6446394992143],[111.82663807578389,35.644453884092876],[111.82838720371855,35.64409848759478],[111.82985529951404,35.64368777172556],[111.83089859739216,35.64287935980898],[111.83257637869043,35.64240993438984],[111.8343937538815,35.64188228892022],[111.83593903375944,35.64215772286732],[111.83727759044598,35.64277795459886],[111.83826862813451,35.64368673926803],[111.83953831897408,35.64442188421096],[111.84066062588523,35.644471285653665],[111.84241809815455,35.64491684470092],[111.84368724413716,35.6455947185581],[111.84516733936474,35.646328329291585],[111.84636762911246,35.647121117901094],[111.84756975594223,35.64808557038946],[111.84835003802057,35.64893852344983],[111.84801037334415,35.649971051313365],[111.84774396018463,35.650932316732984],[111.84747003448103,35.65192066654013],[111.84747849765535,35.652721823717776],[111.84791977804446,35.65285679417925],[111.8490245937111,35.6533350159773],[111.8496457120309,35.65336044263564],[111.85165008013544,35.652958791611304],[111.85357853960556,35.65228938181637],[111.85456432934237,35.6517904261048],[111.85532146713929,35.65175070075707],[111.85559142434292,35.65195175628901],[111.85631098661278,35.65248765549402],[111.8567396108491,35.653228592558065],[111.8573785889539,35.65396803143026],[111.85759810921027,35.65482491371435],[111.85782742600725,35.65659740030779],[111.85770249021168,35.65802903147393],[111.85750498385177,35.65923226090507],[111.85688736104379,35.66049570868404],[111.85661849222247,35.66158498508396],[111.85564534067078,35.6623931188718],[111.85432338511941,35.66337540854993],[111.85306847697531,35.66407106038908],[111.85180989853092,35.66442334816185],[111.85104339440053,35.66488660498752],[111.85028416312038,35.6660365614023],[111.84980056323329,35.666726730245664],[111.85030297544421,35.667810546302114],[111.85122677526456,35.66894861023407],[111.85174381230868,35.67140582567951],[111.85217432548066,35.67231845214791],[111.85260424000121,35.67317385169567],[111.8528938984196,35.674030242265786],[111.8528999871524,35.674602495007186],[111.85192420938246,35.6751816984108],[111.85010377712264,35.67548071384527],[111.84869989201184,35.675376158514986],[111.84757775492352,35.67538406340511],[111.84616964668771,35.674878902234624],[111.84511342559513,35.674485713838216],[111.8444108917485,35.67437618418451],[111.8435705024184,35.67449653417711],[111.8432953896825,35.675013527373714],[111.84274575429862,35.676104738030645],[111.84261330536894,35.676849649538376],[111.84227044879354,35.6775960321057],[111.84185865088759,35.678457355489314],[111.84109615928315,35.679321127968876],[111.84096489124273,35.68018048797895],[111.84098470815323,35.6820689233687],[111.84113640055172,35.68315522374219],[111.84114961576374,35.684414180357315],[111.84094639710892,35.68510235431257],[111.84109629344645,35.68601697865152],[111.84090027759348,35.68739185510187],[111.84050614201821,35.688610791456895],[111.84081426091387,35.688808380001866],[111.8413806192776,35.68972103557193],[111.8417008507002,35.69007385025637],[111.84209035202588,35.69050297762012],[111.84244875441783,35.691044331225484],[111.84273315597554,35.691404793024496],[111.84418146759214,35.691261109517356],[111.84539271409062,35.69081050604486],[111.84647163653476,35.68876049341638],[111.84718104257765,35.68697302721503],[111.84726881792011,35.68675185488665],[111.84725066473318,35.685035099259025],[111.84723150470657,35.68322296827848],[111.84709225405592,35.68074082469052],[111.84767018276773,35.68011677075756],[111.84842344508215,35.67949147856335],[111.84876756589054,35.678869066815274],[111.84946084475077,35.678101117534005],[111.84980747976726,35.67771714052319],[111.8502135683836,35.67742812649326],[111.85172961929035,35.677083571464735],[111.8524838357692,35.67655363011964],[111.8536420794471,35.675543907304146],[111.85444454574443,35.6740597859164],[111.85495934859446,35.673006923526735],[111.8560565218226,35.671759154593936],[111.85650877206582,35.67032519914843],[111.85678670686906,35.66898786619724],[111.85776028717906,35.667120973983074],[111.85856361790634,35.66573220016127],[111.85972367539023,35.66491317086688],[111.86059306207626,35.66423928188542],[111.86158033100945,35.66365992628359],[111.86227130720125,35.66270115431617],[111.86326316500048,35.66255097313451],[111.86355322220703,35.66244836596059],[111.86477681949218,35.66201550813856],[111.86663745086145,35.6611436877828],[111.86709022802916,35.66019477132462],[111.86731818521447,35.659658987636845],[111.86758483897412,35.6583789387466],[111.86741421562436,35.657731565831725],[111.86703571707858,35.65731460744741],[111.86637696190652,35.65691874123766],[111.86541642996714,35.656715806671436],[111.86469003865427,35.656549335213874],[111.86433452118848,35.65609405039371],[111.86440806540982,35.65491214556263],[111.86463377924085,35.65387958602607],[111.86474219262783,35.65338362245008],[111.86462829734042,35.653231736480016],[111.86420863144804,35.65267208135943],[111.86344598980264,35.652391403930935],[111.86261723440529,35.65139582377135],[111.86183311682176,35.64953056554722],[111.86166153577987,35.648787806685235],[111.86129194357767,35.647016328812164],[111.86092932553358,35.64589340307332],[111.86015818403114,35.644751771355374],[111.85964695502017,35.643994904155086],[111.85821404757304,35.64249123054737],[111.8565296186985,35.64162062029855],[111.85575352097474,35.641435370969816],[111.854814741104,35.64106050530461],[111.85409529493033,35.64070792253518],[111.85355326830597,35.640556766978186],[111.85330283227532,35.64035585271122],[111.85314823032108,35.640112701343085],[111.85283470268038,35.63831250863061],[111.85256364371676,35.638143430471075],[111.85213834588805,35.6379795193503],[111.85183029340874,35.63752600257575],[111.85167769661848,35.6373937831815],[111.85120287715131,35.63669130463877],[111.85053240265141,35.635587472188014],[111.84981092116239,35.63544207537966],[111.84908855321052,35.63545206250553],[111.8482302827761,35.635801369247986],[111.84769308402241,35.636103222670094],[111.84676446412642,35.636682054006954],[111.84590784573358,35.63716498810651],[111.84532870015357,35.63764597004542],[111.84469062687566,35.638079670683425],[111.8439349594807,35.63844265471317],[111.84336688965331,35.638589708046624],[111.8425210802868,35.63871485632747],[111.84186165477975,35.63865872059622],[111.8415367481131,35.6386310612139],[111.83989541837654,35.638449027518604],[111.83862729969896,35.638108703914575],[111.8369568980507,35.63766039472275],[111.83670833856495,35.637593682831564],[111.83311911476795,35.63625361276309],[111.83187504489975,35.63603466148454],[111.83132009105753,35.6360384928357],[111.83009507600201,35.63621386133391],[111.82898873463543,35.636567245419535],[111.8275754486756,35.636898882282686],[111.82644221038547,35.63747896264258],[111.8250166213552,35.63803718969983],[111.82420219974017,35.6383766074319],[111.82281831542406,35.6387318329991],[111.8220443948853,35.63874904008419],[111.82105116099623,35.63874389187335],[111.8198663619491,35.638573118424006],[111.81828821778228,35.63850038992269],[111.81710925599694,35.63830053360787],[111.81690334611548,35.63828326882383],[111.81387413343734,35.6381845313591],[111.8123842309695,35.63817074379001],[111.81086596309542,35.63824058892242],[111.80970048691216,35.638534579830115],[111.80862406990187,35.63897103650553],[111.80769596928418,35.63963302416782],[111.80700093264105,35.64023382962807],[111.80598361643786,35.64074140425258],[111.80460331194226,35.64146600887381],[111.80412408880758,35.641743436171126],[111.80336998885358,35.6422850003969],[111.80244097186814,35.64286349366196],[111.80165561480862,35.643202565030165],[111.80092914828211,35.643588932515854],[111.80064179496203,35.644067759454856],[111.80051403069598,35.644438219425716],[111.80053327449478,35.64490308603312],[111.80071187551815,35.64523574031601],[111.80140346979499,35.645743825901675],[111.80214127491321,35.646490059093054],[111.80254124268632,35.647047771728545],[111.80280987864616,35.64761828119435],[111.80344869309137,35.648687083384694],[111.80396553301972,35.649244011225726],[111.80437714690768,35.649503567544215],[111.80473129208143,35.64985888834131],[111.80508568078534,35.65023805370328],[111.80533794414596,35.65062982276847],[111.80535638032829,35.651011232406105],[111.80530178304333,35.65139313039662],[111.80501466825456,35.651895812846874],[111.80443373343277,35.65223353570218],[111.80402667486797,35.65240174018235],[111.80105574505743,35.65331575598521],[111.80047360215661,35.65341028338018],[111.79864983106994,35.65370640335989],[111.79793555906053,35.65394597335812],[111.79715031175682,35.654308861180816],[111.796680709919,35.65445832481796],[111.7959880107832,35.654923182958065],[111.79568275719072,35.65510547784746],[111.79498277128587,35.65522932991033],[111.79428301814418,35.65537702275362],[111.79269513610987,35.655828632875846],[111.79114433790056,35.65620265151011],[111.78983831770039,35.65636368118513],[111.78930585709911,35.656429328421986],[111.78868875650318,35.65653847890581],[111.78794282636672,35.65686134543211],[111.7870717278093,35.65741549604527],[111.78663827806906,35.657907167734834],[111.78655437022127,35.65828924884668],[111.78661631124743,35.65864653178742],[111.78689685320347,35.65894890489509],[111.78757748883058,35.658944455351666],[111.7878755550208,35.658936372524416],[111.788124718383,35.659018202128145],[111.7881945557147,35.659298105503105],[111.78804409539414,35.65973410463325],[111.78784332432463,35.66011695121068],[111.78787582039745,35.66045057962588],[111.78815772026933,35.66088988227802],[111.78820541247593,35.66128302654547],[111.78817748412297,35.66141436118592],[111.78801994998648,35.66173731041587],[111.78795264518251,35.66232197359128],[111.78797404823945,35.663013361677706],[111.78794963322144,35.6635023604548],[111.78789553012429,35.66394386164457],[111.78769615238858,35.66446977316811],[111.78755321978265,35.664792627058695],[111.78751290458473,35.66515057695539],[111.78756211879292,35.66569870845118],[111.78758141213864,35.66617549835202],[111.7875842225582,35.666461629786994],[111.78755804802122,35.66677179623173],[111.78753210749413,35.66710580656545],[111.78754882493828,35.66732030888163],[111.78769021679275,35.66761939059215],[111.78813802587183,35.66775658490778],[111.78854190942505,35.66788031925652],[111.78942555339002,35.668589902924325],[111.78955056452507,35.66880948449428],[111.78955303002361,35.66905984893417],[111.78925868206804,35.66944944491901],[111.78865208508952,35.6701687923151],[111.78866826987277,35.67181404478296],[111.78902203023713,35.672476544466775],[111.78903884883907,35.67258171440106],[111.78910373573729,35.67298746963173],[111.7894026922621,35.67517148358572],[111.78929707018243,35.67600832794932],[111.7892777403895,35.67671614339577],[111.78919312176527,35.677026692782555],[111.78912194136166,35.67721792523165],[111.78898098784582,35.67774345494695],[111.7888382735771,35.678090153742104],[111.78873927482684,35.678424642372605],[111.78867653503366,35.6793216484022],[111.78902033296974,35.68086120031665],[111.79008582322976,35.682213418982265],[111.7908427147699,35.68338881234959],[111.79181775362932,35.68444712342637],[111.79234949052838,35.68502425823422],[111.79292754325226,35.68584312969802],[111.7931527611478,35.68644971161983],[111.79377679853272,35.687482885658305],[111.7945740886424,35.68830030285315],[111.79550256495253,35.68908107789707],[111.79660820619897,35.69003951690672],[111.79735636921401,35.690320712049136],[111.79832339289997,35.690564682347315],[111.79877644616411,35.69077023745247],[111.79905704487777,35.690734916193016],[111.80066364644323,35.69062885781095],[111.80284067123867,35.690566666528724],[111.8037330881096,35.690656094421314],[111.80468492048576,35.69084050068415],[111.80568251959689,35.6912153582783],[111.80637694741569,35.69196184648914],[111.80673489455626,35.69267481809707],[111.80720700337811,35.693112797547194],[111.80763070429985,35.693098032870765],[111.80827037635571,35.69275990065563],[111.80936453409926,35.69256178277431],[111.81029816921341,35.69238858273779],[111.81105860080291,35.692431152994054],[111.81306137951991,35.69247725612201],[111.8151835009741,35.69276097335263],[111.81658831043185,35.69293029397272],[111.81846091230842,35.69310834100931],[111.81952159212334,35.69347368679318],[111.82079261667573,35.692944388913276]]]]},"properties":{"code":"SXPR-P29","name_short":"翼城翅果油树","name_full":"山西翼城翅果油树省级自然保护区","zone":"buffer","area_km2":20.535,"feature_count":2}},{"type":"Feature","geometry":{"type":"MultiPolygon","coordinates":[[[[111.76182488514358,35.641000255036595],[111.76243105546652,35.64023334986499],[111.76328728084975,35.63989989736052],[111.76388010150107,35.63901994847977],[111.76451692366831,35.63840783653889],[111.76612424958515,35.63736252081205],[111.76706031765536,35.636736568965816],[111.76753319444877,35.63654875019331],[111.76877056982873,35.636123555958804],[111.76924498124028,35.63609668071171],[111.76961552237817,35.63611159278977],[111.7700976832856,35.63551077339283],[111.77044280622268,35.634948186851865],[111.77119584929916,35.63465246849097],[111.77147075584466,35.63441919190679],[111.7723533212944,35.63431219110573],[111.77285646891609,35.63423742535067],[111.77329988005388,35.634025928387125],[111.77489164126509,35.63325262852638],[111.77549487609267,35.63295663390221],[111.77598415763289,35.63295944483443],[111.7764904641598,35.63321252545833],[111.77715747307408,35.63347052907591],[111.77765475292449,35.63354481926542],[111.77814294016511,35.63343436057541],[111.77902438595625,35.63321404943327],[111.77962760376263,35.632918034313185],[111.78009416933173,35.63283751421259],[111.78075793989042,35.63276167612653],[111.78082058316635,35.63244531111001],[111.78163513418772,35.63210618569789],[111.78233302432758,35.63178569625507],[111.7829095132355,35.63174618246692],[111.7836030600779,35.63172974919188],[111.78420764801999,35.631576778531276],[111.78465650892414,35.631180397126],[111.78513830225113,35.63116533507277],[111.78576671218573,35.63120892966061],[111.78677771511414,35.63114648216083],[111.78798630362392,35.63118250801772],[111.78928365574602,35.630935555121106],[111.79074339631798,35.63086636695204],[111.79237978567812,35.63093907449357],[111.7941345362014,35.63116597844138],[111.79542340671222,35.63153900913304],[111.79599577548133,35.6318213795525],[111.79642435941628,35.63233123345386],[111.79721543568176,35.632576382542915],[111.79848712946563,35.63268718912214],[111.80047713782224,35.633067438415466],[111.80134065554518,35.63325246497363],[111.80166622161839,35.63367952391823],[111.80178852926706,35.63422716545136],[111.80176479810193,35.634775778939236],[111.80235455634165,35.63533223022442],[111.8037711478757,35.63532278591124],[111.80451678986104,35.63540126923963],[111.80507425389118,35.63564792631107],[111.80574604183072,35.63564343443993],[111.80616692657415,35.63537831299873],[111.8068778500728,35.634908558799715],[111.80848080117762,35.634552045113125],[111.80991173990421,35.63451858684032],[111.81125288556082,35.63427110304392],[111.81335305578183,35.633982713333516],[111.8145508052891,35.63399846537901],[111.81574794820628,35.63395459492768],[111.81619714897742,35.63360578756085],[111.81625156377237,35.63321196150996],[111.8162415031548,35.6322224262124],[111.81636238759924,35.63118431235577],[111.81641782569082,35.62945511060314],[111.81642133247225,35.62692742301254],[111.81625579703746,35.6250089504108],[111.81621096227195,35.623471193532914],[111.81631469005131,35.62218281168067],[111.81606919206581,35.62101602520124],[111.81701015712628,35.62021080949538],[111.8180745897923,35.62006051112128],[111.81950502085925,35.620003097470345],[111.8213148361451,35.61991923552873],[111.82335936518548,35.6199410484644],[111.8253454897641,35.619963227716276],[111.8261533362205,35.62042268519955],[111.82674425815763,35.62108631671971],[111.82668389060557,35.62231479440357],[111.82677395815185,35.62397146541939],[111.82689679413853,35.62597367560374],[111.82697337440753,35.62773774463992],[111.82696773521603,35.62860815731067],[111.82699648397316,35.628889380816005],[111.82699666565301,35.62889115775296],[111.82786145045948,35.628888169409926],[111.82876534556269,35.62873887840437],[111.82978876987387,35.62885106244159],[111.83069537417016,35.62896404339093],[111.83139852902491,35.62917380563229],[111.83232097744725,35.62940589425571],[111.83354848267425,35.62948086684813],[111.83514019488638,35.62946984235721],[111.83619259223137,35.62955792548355],[111.83693907809057,35.629719661651755],[111.83747950913991,35.62972782840633],[111.83773912757988,35.62941602732661],[111.83801222673625,35.62899682629417],[111.83818360141426,35.62862602345833],[111.8383569661428,35.628445973166365],[111.83870979622235,35.62867005203354],[111.83899036200735,35.62896617143884],[111.83969029597124,35.6288659117095],[111.84037531670555,35.62881808261275],[111.8408886887698,35.62819244275833],[111.84114716499823,35.627773336743594],[111.8413892863254,35.62718742235088],[111.84172164217134,35.62685125916738],[111.84240520092575,35.626584176140426],[111.84279400417893,35.62681734118101],[111.8435110221334,35.62695539743843],[111.84367565626818,35.6273357777486],[111.843549369038,35.627825501803166],[111.84406440848808,35.62744293588429],[111.84439637901932,35.62707099897091],[111.8450939051937,35.6267441882203],[111.845397755667,35.626750758810616],[111.84592648836896,35.626762190984756],[111.84683484941323,35.62704195832704],[111.84713583928027,35.62650331153446],[111.84728785676515,35.62630702725321],[111.84755364299617,35.62596384127361],[111.8484066550762,35.62577974014943],[111.84830854757122,35.62554122545814],[111.84799900824477,35.625269178085865],[111.84802430912471,35.62489938953454],[111.8484161689858,35.62467009471316],[111.8490204803684,35.62456787952124],[111.84998029469624,35.624191500851225],[111.85070924902841,35.6240790489764],[111.8518335884739,35.62407110408588],[111.85203271434887,35.62406766267611],[111.85337245935138,35.62384817495737],[111.85412870763237,35.62355666618662],[111.85506807940394,35.62338050737533],[111.85602962934408,35.62317098854508],[111.8567288537234,35.62301102063352],[111.85796922438976,35.62293065603411],[111.85850999223327,35.62297449453618],[111.8593280635752,35.62300443106456],[111.86019211140257,35.6232367229539],[111.86083918261158,35.62366132567511],[111.86162074669699,35.62437111215571],[111.86210479534307,35.62458288107527],[111.86329472639497,35.624492854568494],[111.86327807426073,35.62430220752638],[111.86298232275826,35.623958561930365],[111.86256540626586,35.6232104048811],[111.86317521509751,35.62288411885712],[111.86402043710203,35.62272306166104],[111.86460282944526,35.62256388602318],[111.86540449713354,35.622426978085194],[111.86579488055155,35.62206648581108],[111.86609328164322,35.62130127528604],[111.86624991027406,35.62093053904784],[111.86675490387702,35.6203665294388],[111.86713285857506,35.62020881231276],[111.86735097317714,35.62012378217237],[111.86740538634075,35.619753780263366],[111.86798478707738,35.61932038253952],[111.86863924730854,35.61907720733641],[111.87008072711433,35.618697195453066],[111.87086503136993,35.61830999581204],[111.87156784637791,35.6178731139064],[111.87218670368779,35.61765659744063],[111.87270882567493,35.617330898177386],[111.87317176606722,35.61693408829308],[111.87360783314922,35.61675208340991],[111.87401327220769,35.61643914727749],[111.87417582178578,35.61661681166784],[111.87483253562614,35.616412343405536],[111.87456654657939,35.61568141437534],[111.87391876598974,35.6138499863024],[111.87306597420834,35.611960426003606],[111.8719693059377,35.61046607915309],[111.87061015700492,35.608997464929175],[111.8699709116943,35.60794094176442],[111.86959613622159,35.6070375050744],[111.86864219897744,35.60657939106017],[111.86757688991831,35.60662283534914],[111.86650315053257,35.60723863053045],[111.86543132167658,35.608033247460384],[111.86406544046278,35.608639197120944],[111.86313379688059,35.60889625607155],[111.86250424725829,35.60873384284474],[111.862131343181,35.60799728957517],[111.8618829276961,35.6066160063211],[111.86139159003301,35.60572529880233],[111.86013809067157,35.6045538819034],[111.85892944066491,35.603477515802666],[111.85816194101747,35.60269606927464],[111.8571594937257,35.6017851367654],[111.85701423369882,35.60152796593311],[111.85682877750949,35.60138620960109],[111.85658208878601,35.60125204156823],[111.85621384682635,35.60121889029338],[111.85574088318326,35.60122224995963],[111.85526677772818,35.601118309029125],[111.85489891835111,35.60112091935989],[111.85440859008214,35.601138704504265],[111.85390256828238,35.60132828911084],[111.85329014983421,35.60139701158372],[111.85253652934017,35.60136657646792],[111.85186181408034,35.60134273306816],[111.85093173531203,35.60119192170564],[111.85053684196252,35.601123171994786],[111.8502386712107,35.6010895069317],[111.85005481645727,35.601097958246015],[111.8497752986049,35.60117146734502],[111.8495048406712,35.601273526980385],[111.84904946862208,35.60128389057821],[111.84867375509765,35.60137238240759],[111.84827939108864,35.60135369745883],[111.8479538885802,35.60122006734887],[111.84744543704709,35.60118072068176],[111.84705998298901,35.601176277502276],[111.84670005170652,35.60110011520886],[111.84637628521045,35.60113100475464],[111.84603462482104,35.60112625068928],[111.84564744004018,35.600957277180335],[111.84528354718675,35.60097429556546],[111.84494485579341,35.60083410568554],[111.84483568869388,35.600693292767055],[111.84486870309212,35.60048105205139],[111.84479720655611,35.60034563128561],[111.84448205979135,35.60023715264074],[111.84413791373592,35.6001213309438],[111.84375216436486,35.60008826324148],[111.84355034365362,35.600053907806725],[111.8433588802348,35.5999748129955],[111.84301894902809,35.60009478914451],[111.84277889906345,35.60017951324231],[111.84260988042419,35.60023916549014],[111.84224523394911,35.60044414718762],[111.84196361098215,35.60060245627719],[111.84185496377211,35.60066352961925],[111.84144729480147,35.60099563147101],[111.84115193875878,35.60123623688243],[111.84095748890158,35.601406605941825],[111.84070117617951,35.601631175597305],[111.8406550606171,35.60167157915062],[111.84048830961083,35.60181767790079],[111.84006184988048,35.60205419030866],[111.8398094261075,35.602194182666885],[111.8396954783204,35.6022171432927],[111.83944608226709,35.60226739676037],[111.83944020613701,35.60226858049552],[111.83908880549173,35.60233938686126],[111.83906815971778,35.60234354664726],[111.8390338265252,35.602346102855535],[111.8382666393862,35.60240319904099],[111.83745513490075,35.602431371320606],[111.83661797987617,35.60238085487818],[111.83565503619072,35.60223882470894],[111.83492813803466,35.602311457223294],[111.8346751601672,35.60262665894838],[111.83462445170184,35.60268983898589],[111.83438024930675,35.603018239578795],[111.83393478792746,35.60329395604335],[111.83340235131745,35.603593552049475],[111.83333477733856,35.60363157499154],[111.83275008113274,35.60383433289195],[111.83267844359722,35.60385917464932],[111.83252328058394,35.603908517479056],[111.83216421657866,35.60402270107358],[111.83181116037186,35.604297772440056],[111.83149038597833,35.604649244442626],[111.83144901405205,35.60469457591392],[111.8313140454824,35.60477189813485],[111.83103897871644,35.60492948046906],[111.83065563232981,35.60481045058185],[111.8302997799026,35.604481685603005],[111.82980325061361,35.60408854594518],[111.8295516739946,35.60394016114979],[111.82912733826188,35.603689878242385],[111.82909100203717,35.60366834023409],[111.82867392576894,35.60342112231746],[111.82846598650723,35.60329786694212],[111.82739841082059,35.60277344887323],[111.82592492637794,35.602145905611536],[111.82487341030453,35.601704722537804],[111.82459847819989,35.60158631621674],[111.82417301821376,35.601403080871755],[111.82335239936069,35.601079725025066],[111.82263746850782,35.6008390089546],[111.82224103751767,35.60075277612144],[111.82195452080826,35.60069045177485],[111.82168470782327,35.60176172219053],[111.82178216847295,35.60272681989395],[111.82180503890723,35.60284634357839],[111.8221430802737,35.60461295858958],[111.82200345094641,35.605806209960924],[111.822125118827,35.606282298442366],[111.82224561714666,35.60664393527272],[111.82230752475944,35.6069868938895],[111.8224285130838,35.60739621925198],[111.82267933954422,35.60793819450563],[111.82271789243066,35.60828131317714],[111.82301280405127,35.608565449985186],[111.82356837761279,35.609210263531445],[111.82390038755489,35.609694451823096],[111.82391724992652,35.61019986975816],[111.82392272679618,35.61073398147383],[111.82396197122053,35.611143863006575],[111.82395381305611,35.61148730048376],[111.82391247287785,35.612012194181965],[111.82386937288157,35.61236540859413],[111.8237908417917,35.61268071121484],[111.82373811390008,35.61323429767954],[111.8236736079253,35.61377842564302],[111.82362149709321,35.6139294016115],[111.82349210400494,35.6143042771507],[111.82323993036732,35.61477338024597],[111.82291718399426,35.6151952736923],[111.82243237461729,35.61576134788976],[111.82214593122946,35.61630698967342],[111.82185987322188,35.61689078121622],[111.82145554186893,35.61733230420866],[111.82099290130621,35.61778376034311],[111.82061153267931,35.61818697002935],[111.8201482008065,35.61857165950111],[111.81914686727085,35.61889323823086],[111.81893938036046,35.618952020370735],[111.81824997169267,35.61914733036889],[111.81727140292635,35.61941150887223],[111.81643231851201,35.619607965257316],[111.81567548126579,35.61985155104022],[111.81503738524242,35.62028509611101],[111.81428459839357,35.6209292573128],[111.81396216704002,35.621389277767825],[111.81369833060211,35.62186797769618],[111.81324739882362,35.62232886406302],[111.81279539902394,35.622684834740504],[111.81242516456031,35.623040251453354],[111.81241599203555,35.623288310597474],[111.812361673326,35.62351036005335],[111.81230380864056,35.623746908540085],[111.81228266403618,35.62396643333915],[111.81222975439275,35.62451047659238],[111.81231934083156,35.62528248014032],[111.81232339290187,35.625683064088115],[111.8123492642469,35.625930886815745],[111.81235148336063,35.62615025400069],[111.81223842767584,35.62652301251412],[111.81185552750335,35.62678312967716],[111.81127731680327,35.62692741615833],[111.8107140934237,35.62689444182766],[111.81008175736528,35.62693432339063],[111.80944439892231,35.626974517478914],[111.808746001102,35.62722959010462],[111.8076106000148,35.62759489599612],[111.80674234824633,35.62838762875336],[111.80626584464775,35.628927352002606],[111.80543814570417,35.62939788357037],[111.80473756186181,35.62943833499826],[111.80403554571639,35.62933571587873],[111.80280675312395,35.629129298500416],[111.80166415531446,35.62877921888241],[111.80052049756108,35.62832182853517],[111.79915959203834,35.628044713997824],[111.7980608323335,35.62769430910837],[111.79652435958896,35.62738255834465],[111.79433007517738,35.627003588600346],[111.79319107608892,35.62701109352016],[111.79156948728955,35.626950221999486],[111.79003621829101,35.626960287126586],[111.78924943822065,35.62714428900501],[111.78815634920714,35.62736605858057],[111.78658031477151,35.62748366653626],[111.78544130674416,35.62749109827376],[111.78451924193845,35.627282493521676],[111.78377520545614,35.627358874352836],[111.78259622547125,35.6277599970853],[111.78172632870141,35.62840948633117],[111.78076810460475,35.628988003220805],[111.7801140995866,35.62931416039069],[111.77884745258866,35.62971581428668],[111.77771048939694,35.629937773922435],[111.77665940882798,35.62998032444225],[111.77561350952524,35.63055936575508],[111.77491462431603,35.63077847675601],[111.77434612969448,35.63088943949285],[111.77377935804785,35.63117923322842],[111.77290453179745,35.63132792491642],[111.77180962007536,35.631370714452544],[111.77059117024625,35.632236968673084],[111.76976322382646,35.63270725881876],[111.76880554714623,35.633357215191964],[111.76736831810696,35.63426060325698],[111.76684462518932,35.634478551441354],[111.7658841726361,35.63484235148477],[111.76452871831331,35.63513711389445],[111.76308698875435,35.63557548312714],[111.7621716772615,35.63608204314538],[111.76169278858977,35.63640699254507],[111.76143364230202,35.636802088887144],[111.76130593335724,35.63719635490271],[111.76086666938619,35.63740180723012],[111.76110701186697,35.63810374488628],[111.76135437118619,35.639544860995386],[111.7614251182355,35.640844017473725],[111.76149157050071,35.64169012834794],[111.76150194911823,35.64194382111072],[111.76182488514358,35.641000255036595]]],[[[111.84252207423856,35.717833087274485],[111.84321971373679,35.7174419038859],[111.84426683812573,35.7169194997229],[111.84576687504936,35.716093450792954],[111.8474244578095,35.71523765942115],[111.84868354708028,35.714856796831356],[111.85070346435857,35.71508575920948],[111.85276259322526,35.715700705647826],[111.85496163295039,35.71627170089396],[111.85734983835275,35.7164836269355],[111.85856148886408,35.71658944650036],[111.85956094180327,35.71653939001673],[111.86023940494536,35.716005173000354],[111.86076013308104,35.71548638775047],[111.86140717943529,35.71366473381904],[111.86218624257046,35.70998695202056],[111.86332940824471,35.7075465183279],[111.86469864598038,35.70438908412667],[111.86649198301818,35.7026116196682],[111.86922168402694,35.700922752345846],[111.87095249240174,35.69990396575035],[111.87093730771558,35.69937868650017],[111.87085299742274,35.69807733196582],[111.87102091144058,35.697389366857266],[111.87122203112781,35.69652947288405],[111.87145557708385,35.69542611906614],[111.87172605892519,35.69449418544335],[111.87222218307848,35.69334600704324],[111.87262811522493,35.691969562863044],[111.87323301789426,35.691149659041315],[111.87413618615247,35.69034189389062],[111.8743571345529,35.68969646030639],[111.87446568030347,35.688393705620655],[111.87464748852307,35.68737656421086],[111.87507768269701,35.68571457096832],[111.87680931936312,35.68369894557449],[111.87873085582319,35.6830172595035],[111.88059810293876,35.68271746950296],[111.882407936187,35.68251345223757],[111.88526879041602,35.682206302928684],[111.88660625853588,35.68157647649702],[111.88783520120376,35.680736775537014],[111.88805439127597,35.68022490082026],[111.88848148746943,35.67920592979425],[111.88873704251465,35.67853159876157],[111.88915198274185,35.67799916401388],[111.88944577084482,35.677610695934284],[111.88950431537786,35.676565828664906],[111.8898459320025,35.67574778620951],[111.89043459389296,35.67507098891917],[111.89139366491436,35.67459175006355],[111.8924724292895,35.67383977764541],[111.89325391545188,35.673161537130035],[111.89380714565726,35.672456372550556],[111.89446699687885,35.67187917822942],[111.89472439525068,35.67137650909624],[111.89487100736157,35.67037390613567],[111.89486446035016,35.66978735418163],[111.89460927474717,35.66891650265552],[111.8944301271235,35.66857445715433],[111.89393796362276,35.66846365364399],[111.8935656538796,35.66809442611512],[111.89348867132057,35.66747978185931],[111.89328562513867,35.66656561817335],[111.89304592843803,35.665508651679076],[111.89303796201354,35.664793343672386],[111.89325773528863,35.66406203812178],[111.89296736747067,35.663177135710875],[111.89220257209688,35.66219559726803],[111.89145659894474,35.66132837301499],[111.89118633378084,35.660672235173045],[111.89140690967183,35.66001246322186],[111.89197743861692,35.659292869774035],[111.89268962626359,35.6587009905149],[111.89350809631894,35.65820846987939],[111.89432894788223,35.657930536112346],[111.8947829558926,35.65776978275532],[111.89460175917876,35.657241756525735],[111.89392273382202,35.65608790158298],[111.89331798638975,35.65530548430106],[111.89246737308197,35.65448196319657],[111.89175446003728,35.6534284977268],[111.8917256410358,35.652412887199425],[111.89174463630265,35.65096770081627],[111.89151073264286,35.650425752003244],[111.8906396455469,35.64933052759193],[111.88987628335212,35.64846341936922],[111.88938909086947,35.647207967956255],[111.88939551786888,35.64620640180551],[111.8897106038298,35.64458733862646],[111.8905724799571,35.64327899477214],[111.89139562082305,35.64164186070936],[111.8920284930863,35.64023504913933],[111.89236484732928,35.63895919773338],[111.89226815634161,35.638144392117624],[111.89189075104416,35.63730304954098],[111.8917958155356,35.63664561068825],[111.89171411540362,35.63560177406927],[111.89112453133312,35.634590310419675],[111.89040721659084,35.633121949233114],[111.89004293835754,35.63187989551782],[111.88971609656501,35.63085217408747],[111.88961500564201,35.629636789123225],[111.88990386271958,35.6288191313012],[111.88986041371895,35.628061157574365],[111.88946888842216,35.627520366458555],[111.88851680259665,35.626998017258096],[111.88758146200993,35.626403999018706],[111.88699737118708,35.62587892562616],[111.88648116826408,35.625153045808865],[111.88592945608288,35.624384501586356],[111.88552124225424,35.62391535687351],[111.88422193717463,35.62368167332121],[111.88297677895373,35.62359065406853],[111.88201401573554,35.62368355135494],[111.88117343384147,35.62373262502185],[111.88034692149996,35.623466826419225],[111.87993592431806,35.62274014799157],[111.87931028929792,35.621614426464646],[111.87838227290108,35.62007598866856],[111.87737293915013,35.61911043515359],[111.87649033468422,35.6185159456394],[111.87578372883276,35.61799170753454],[111.8751503328963,35.61775308253589],[111.8740474637493,35.61784693345253],[111.87317749398287,35.61841123355226],[111.87270890873634,35.61877303171917],[111.87226473421363,35.618747633496625],[111.87203267529486,35.61889238798142],[111.87185127268046,35.619399232224495],[111.871259384618,35.619756431975084],[111.87053507415176,35.61975212989761],[111.86998669785682,35.61981332095842],[111.86931272227784,35.620142489033846],[111.86910896967692,35.62074487319746],[111.86907815825673,35.621136167144215],[111.86841327149295,35.62122680644794],[111.86785402718985,35.621364372942296],[111.86746490808355,35.62211116495508],[111.867077429388,35.62301055640705],[111.86555139979838,35.62341260094436],[111.86489971150878,35.62364620160138],[111.86503139105518,35.62394094414876],[111.86575933837038,35.624279094698],[111.86682996636465,35.624977231222914],[111.86782110957036,35.62588577379399],[111.86872005892332,35.62690943234294],[111.86906492111294,35.62746970549864],[111.86889413095031,35.62788108474623],[111.86774266848747,35.62835676254524],[111.86658738361601,35.62847953849928],[111.86560080379883,35.62844663126104],[111.86529337946462,35.62837730268116],[111.86480687252404,35.62795157205761],[111.86466980249479,35.627427949046336],[111.86435801959789,35.626953270434605],[111.86389904501318,35.62642156691686],[111.86372710213763,35.62649703456088],[111.86294555117122,35.62660755726301],[111.86248918263018,35.62699051059684],[111.8619946237138,35.627172894034786],[111.86209159303931,35.62668336116702],[111.8623653219802,35.62633563839952],[111.8622824888888,35.625748041363735],[111.86199591912087,35.625599063206785],[111.86107099795453,35.62547452514558],[111.86040994766653,35.625109638301225],[111.85970305404476,35.624554308505395],[111.85928960994167,35.62412803355049],[111.85876132762472,35.623827302611176],[111.8584177827976,35.62380702314693],[111.85679763020639,35.62415239881433],[111.85530443724709,35.624353775891926],[111.85407127171892,35.62483944062018],[111.85332486933265,35.62495919062036],[111.85193087104653,35.62570350796775],[111.85070783072545,35.62604599215906],[111.85000894592444,35.62624169292073],[111.84915930325899,35.62654337324858],[111.84866031075249,35.62686165387443],[111.84849183540732,35.62750190898856],[111.84774821761962,35.62788867739144],[111.84701255291286,35.62792246720068],[111.84639079171414,35.62767884093435],[111.8456926853359,35.6279508171923],[111.84525539508797,35.62858341579719],[111.84484547585946,35.62959735476426],[111.84444482105944,35.63038230696961],[111.84400269554904,35.63055709508424],[111.84293138154904,35.630801208119024],[111.84248841049673,35.630339313033474],[111.84258462563346,35.6297663404907],[111.84254966554074,35.6292181308568],[111.84238305064893,35.62873994853602],[111.84207077503125,35.62904448315689],[111.84150214493711,35.629410912924705],[111.84100170635953,35.62959563631034],[111.84047820001655,35.62980913351603],[111.8400751072879,35.63036516805182],[111.83940131681982,35.630732322174765],[111.83886412363013,35.63075514031097],[111.83820940798027,35.63071200688107],[111.83741599601093,35.630812907969364],[111.83670227156706,35.630712945755626],[111.83609279783364,35.63052641091933],[111.83537917667223,35.63043597903269],[111.83403500533278,35.63037852433959],[111.83300705059773,35.63039517520982],[111.83231889625353,35.630267285613684],[111.83158095113065,35.63051048833307],[111.83102517054307,35.630430862734244],[111.83043833686044,35.63017260557862],[111.8295075010931,35.62978979417004],[111.82884091846229,35.62972761448898],[111.82783810624444,35.62991573801993],[111.82703398703292,35.63011202817965],[111.82645379481541,35.6304975445668],[111.82563130291302,35.63118040684656],[111.82491580379057,35.63204375960154],[111.82441097244941,35.63294381944615],[111.82371450507348,35.6333873474342],[111.82313515226124,35.6338586870347],[111.82275323104645,35.634214214747196],[111.8222828784808,35.63421742649107],[111.82135184181168,35.63457604181756],[111.8207826575407,35.63461569073764],[111.82035653865026,35.6344784018561],[111.8200590340933,35.634680888309134],[111.81936028829521,35.63490502595395],[111.81912408814324,35.634897870367745],[111.81829074703256,35.63515725319591],[111.81766411334756,35.63529266149977],[111.81696409343775,35.635392794244076],[111.81632297185925,35.635540215704914],[111.81588412384981,35.63547165156873],[111.81543043167166,35.63537934080764],[111.81492025964033,35.63547817634416],[111.8143072537582,35.63551809117857],[111.81362171031503,35.63560618390793],[111.81259894365377,35.63556539603397],[111.81208683701243,35.63547346671378],[111.81128325461695,35.63544311249886],[111.81071466030714,35.63554232462665],[111.8101896365432,35.63561739460341],[111.80956262407952,35.63571699421985],[111.80879004937437,35.635865259091325],[111.80804691960144,35.636037167920946],[111.80720263665698,35.6363170558415],[111.80651971308181,35.63666739592782],[111.8056320756871,35.636844461787895],[111.80493227011951,35.63711916307809],[111.80417057440728,35.63689771467114],[111.80389106342314,35.636696890748446],[111.80279340804992,35.63628704800904],[111.80181499173949,35.636484192218525],[111.80102398334158,35.636250996147126],[111.80017396832334,35.63595857209326],[111.79967315088838,35.63553267286772],[111.79959573662383,35.635092037064815],[111.79953257076286,35.63461553918711],[111.79964619619999,35.634292864684994],[111.79905978688168,35.63407022073014],[111.79853298200814,35.633966407418974],[111.79773166790744,35.633846408279794],[111.79752921744394,35.633824780223556],[111.79709199280441,35.63408800513902],[111.79699355390206,35.63447019069782],[111.79693845194336,35.63480439745038],[111.79685414194536,35.63513879828896],[111.79672566356969,35.63543772108564],[111.79639083477505,35.63554724204485],[111.7959819193728,35.635549944914175],[111.79576143957654,35.63540832658953],[111.79559925883785,35.6352543991291],[111.79539492108819,35.63526767227252],[111.7952361652289,35.635459487567964],[111.79491582006037,35.63555698514247],[111.79468215448387,35.63555852694526],[111.79443341305233,35.63551247572483],[111.7942573374097,35.63543017653933],[111.79412484001699,35.63532374334953],[111.79406524420938,35.63520490667344],[111.79394782180015,35.635146065908366],[111.79361145807397,35.63510059138442],[111.79328981631964,35.635066940839344],[111.79301163291512,35.63499723500383],[111.7927752609153,35.63472456252131],[111.7927000043207,35.634498522305876],[111.7927263862804,35.6342121974924],[111.79291482404466,35.6340678820825],[111.79322079782426,35.63399433002489],[111.79362958660693,35.633979713733666],[111.79413789017413,35.633690213416216],[111.79439804519725,35.633414269594944],[111.79465437908044,35.633142824277094],[111.7946230653997,35.63286792548428],[111.79416677614871,35.63255259573386],[111.79329357623742,35.632029952718376],[111.79230468717772,35.63196884483023],[111.79227577520346,35.631966552016294],[111.79206046177715,35.631949479490984],[111.79161648678563,35.631914274599154],[111.79027212359647,35.63183725570826],[111.78901132341306,35.63194090463506],[111.78784482458421,35.632129768810245],[111.78672561170733,35.63237554300244],[111.7860347363098,35.6322178999918],[111.7856356537473,35.63202973612848],[111.78515796439417,35.63216638789326],[111.78458932821624,35.63256116657996],[111.78349048533266,35.6325015496254],[111.7831544917707,35.632503734527454],[111.78219666037083,35.63281518649458],[111.782013077822,35.633159760062355],[111.78241513229663,35.63365314417749],[111.78243360191918,35.63434932535821],[111.78224056469719,35.63492288102039],[111.78217594838654,35.635486064452714],[111.78193459313641,35.63589778106585],[111.78144444853535,35.63595819195838],[111.78134763927036,35.63561543939113],[111.78127438338254,35.635291610056036],[111.780863335062,35.63507489215455],[111.78062642398864,35.63474258512435],[111.78012423177555,35.634764915585976],[111.77987749389966,35.63462343712998],[111.77973368300745,35.63425237237606],[111.77938233834747,35.634229500966825],[111.77852940888549,35.634478889014],[111.77787269211228,35.634530823761786],[111.77705089903539,35.63471801151282],[111.77675937229995,35.63477712189766],[111.7762802685752,35.6347706723863],[111.77598450014052,35.63439104329934],[111.77569131491597,35.63427847138079],[111.77525940684238,35.63431940503915],[111.7749473359445,35.634697123109355],[111.77464688587008,35.63504243736772],[111.77488533843538,35.63553689870354],[111.77544779691239,35.635704969472464],[111.77615138018677,35.635967512467275],[111.7761342837981,35.63661623179081],[111.77585609303213,35.63684694532167],[111.77517734279489,35.636736855111565],[111.77475655201866,35.63672048537094],[111.77440659950345,35.63677996587741],[111.77421561527397,35.63636150573635],[111.77416225918677,35.63567508536197],[111.77411166219711,35.63527479872122],[111.77394754422389,35.635218623187214],[111.77343439888841,35.63531730330428],[111.77303808488371,35.63541523061488],[111.77266531939239,35.63553208258744],[111.77220018781486,35.63576398675265],[111.77187415366734,35.63588053669648],[111.77150096083476,35.635926906425254],[111.77128520742434,35.63657689752264],[111.77121913849321,35.63699700938542],[111.77063660836825,35.6371724281102],[111.7698873032951,35.63701506736194],[111.76922385016027,35.637292879632874],[111.76851734413333,35.637437864590645],[111.76828117828707,35.637673931802425],[111.76806375260651,35.63815223740311],[111.76766732657146,35.6382406097791],[111.76731471661924,35.6380234740512],[111.76676567249864,35.63803650844022],[111.76615098676533,35.6385173388405],[111.76570114273962,35.63913065560513],[111.7649950612368,35.639831442647335],[111.76389406854206,35.64078273007652],[111.76341919295287,35.64122450575399],[111.76325951444429,35.641635667533734],[111.7631242915818,35.642161135274115],[111.7630303761274,35.643344488296606],[111.7624163535911,35.64390160160059],[111.7616839352708,35.644297309219134],[111.76150277401206,35.644908909753326],[111.76118510068572,35.64591244719248],[111.7609365347567,35.64681062405754],[111.761224394037,35.64759095090399],[111.76170964161487,35.64823649158233],[111.7625771576655,35.64852669106887],[111.7633515613636,35.648855627523545],[111.76390576438935,35.649376723862524],[111.76452990655837,35.64987829662464],[111.7657040035819,35.650452676884896],[111.7674655926156,35.6513571461016],[111.76920238493513,35.652109134530505],[111.77093957719288,35.65289924717698],[111.77192522773646,35.653312621162165],[111.77353107478659,35.65380784993836],[111.77462220124507,35.654249139078175],[111.77570239054992,35.654766794664916],[111.77659921625606,35.655657618495546],[111.77781529434216,35.65692790807142],[111.77821279181093,35.65814624678325],[111.77880619769917,35.65907716757661],[111.77960812795875,35.659815968839986],[111.78026936576974,35.66050798443486],[111.78055913592375,35.661459939066056],[111.78051137496827,35.66255715659802],[111.77993396872158,35.663276271827016],[111.77958028336016,35.66416562649636],[111.7789079527936,35.66594410581632],[111.77861138784925,35.66669955133864],[111.77855033644246,35.66763470184825],[111.77817342590141,35.66854327903529],[111.77807350868396,35.6690876087553],[111.77840290851336,35.669304860912646],[111.77932776308751,35.66945149178596],[111.7802405617451,35.66956003986225],[111.78117822543332,35.66982103302883],[111.7827212687865,35.66983008901502],[111.78376152756863,35.66982332215585],[111.7843936300934,35.669914588593464],[111.78539218213862,35.67042314804509],[111.78591021038173,35.67080130016176],[111.78650800503203,35.67096908687836],[111.78710238394824,35.67146954822741],[111.78778894206515,35.672342582752194],[111.78812091294589,35.67281732488139],[111.7883137468946,35.67340743742557],[111.7884607678412,35.67409323305435],[111.78857056243208,35.67470601010799],[111.78855978671054,35.674735558936916],[111.78847650588494,35.67484128173191],[111.7884478735394,35.6748776284936],[111.78842704672202,35.67490406620628],[111.78835800537571,35.67497980464471],[111.78825094811532,35.67509153751858],[111.78815882435748,35.67518768627376],[111.78814959293432,35.675199858671505],[111.78813063188363,35.67521824492373],[111.78803023225257,35.67531559955791],[111.7873645952488,35.67580343451935],[111.78706824306214,35.676005850982556],[111.78664129965478,35.676214284225324],[111.78579359579122,35.676792117747674],[111.7843425111568,35.67783171611406],[111.78387978302071,35.6783307219199],[111.78342995035608,35.67895363937713],[111.7825354347679,35.679531754625906],[111.78168971381726,35.68031938920337],[111.7811334353882,35.68081899181758],[111.78086744724538,35.68111640459419],[111.78074276011354,35.68151782097672],[111.78079435297178,35.682013478345226],[111.78140245156334,35.68323043441746],[111.78215010919138,35.684370174841675],[111.7828724509934,35.68530977032192],[111.78358995964965,35.68575340206437],[111.78458384962268,35.68576600458812],[111.78547607721417,35.686141717659375],[111.78659277701495,35.68675441568963],[111.78720519538263,35.68720825016183],[111.7876252925907,35.68748378140761],[111.78934647561333,35.68862902467977],[111.79125827777304,35.68983260337223],[111.79297307239275,35.69032207899271],[111.79573892244328,35.69068535913857],[111.79705727977468,35.69098663085001],[111.79877644616411,35.69077023745247],[111.79832339289997,35.690564682347315],[111.79735636921401,35.690320712049136],[111.79660820619897,35.69003951690672],[111.79550256495253,35.68908107789707],[111.7945740886424,35.68830030285315],[111.79377679853272,35.687482885658305],[111.7931527611478,35.68644971161983],[111.79292754325226,35.68584312969802],[111.79234949052838,35.68502425823422],[111.79181775362932,35.68444712342637],[111.7908427147699,35.68338881234959],[111.79008582322976,35.682213418982265],[111.78902033296974,35.68086120031665],[111.78867653503366,35.6793216484022],[111.78873927482684,35.678424642372605],[111.7888382735771,35.678090153742104],[111.78898098784582,35.67774345494695],[111.78912194136166,35.67721792523165],[111.78919312176527,35.677026692782555],[111.7892777403895,35.67671614339577],[111.78929707018243,35.67600832794932],[111.7894026922621,35.67517148358572],[111.78910373573729,35.67298746963173],[111.78903884883907,35.67258171440106],[111.78902203023713,35.672476544466775],[111.78866826987277,35.67181404478296],[111.78865208508952,35.6701687923151],[111.78925868206804,35.66944944491901],[111.78955303002361,35.66905984893417],[111.78955056452507,35.66880948449428],[111.78942555339002,35.668589902924325],[111.78854190942505,35.66788031925652],[111.78813802587183,35.66775658490778],[111.78769021679275,35.66761939059215],[111.78754882493828,35.66732030888163],[111.78753210749413,35.66710580656545],[111.78755804802122,35.66677179623173],[111.7875842225582,35.666461629786994],[111.78758141213864,35.66617549835202],[111.78756211879292,35.66569870845118],[111.78751290458473,35.66515057695539],[111.78755321978265,35.664792627058695],[111.78769615238858,35.66446977316811],[111.78789553012429,35.66394386164457],[111.78794963322144,35.6635023604548],[111.78797404823945,35.663013361677706],[111.78795264518251,35.66232197359128],[111.78801994998648,35.66173731041587],[111.78817748412297,35.66141436118592],[111.78820541247593,35.66128302654547],[111.78815772026933,35.66088988227802],[111.78787582039745,35.66045057962588],[111.78784332432463,35.66011695121068],[111.78804409539414,35.65973410463325],[111.7881945557147,35.659298105503105],[111.788124718383,35.659018202128145],[111.7878755550208,35.658936372524416],[111.78757748883058,35.658944455351666],[111.78689685320347,35.65894890489509],[111.78661631124743,35.65864653178742],[111.78655437022127,35.65828924884668],[111.78663827806906,35.657907167734834],[111.7870717278093,35.65741549604527],[111.78794282636672,35.65686134543211],[111.78868875650318,35.65653847890581],[111.78930585709911,35.656429328421986],[111.78983831770039,35.65636368118513],[111.79114433790056,35.65620265151011],[111.79269513610987,35.655828632875846],[111.79428301814418,35.65537702275362],[111.79498277128587,35.65522932991033],[111.79568275719072,35.65510547784746],[111.7959880107832,35.654923182958065],[111.796680709919,35.65445832481796],[111.79715031175682,35.654308861180816],[111.79793555906053,35.65394597335812],[111.79864983106994,35.65370640335989],[111.80047360215661,35.65341028338018],[111.80105574505743,35.65331575598521],[111.80402667486797,35.65240174018235],[111.80443373343277,35.65223353570218],[111.80501466825456,35.651895812846874],[111.80530178304333,35.65139313039662],[111.80535638032829,35.651011232406105],[111.80533794414596,35.65062982276847],[111.80508568078534,35.65023805370328],[111.80473129208143,35.64985888834131],[111.80437714690768,35.649503567544215],[111.80396553301972,35.649244011225726],[111.80344869309137,35.648687083384694],[111.80280987864616,35.64761828119435],[111.80254124268632,35.647047771728545],[111.80214127491321,35.646490059093054],[111.80140346979499,35.645743825901675],[111.80071187551815,35.64523574031601],[111.80053327449478,35.64490308603312],[111.80051403069598,35.644438219425716],[111.80064179496203,35.644067759454856],[111.80092914828211,35.643588932515854],[111.80165561480862,35.643202565030165],[111.80244097186814,35.64286349366196],[111.80336998885358,35.6422850003969],[111.80412408880758,35.641743436171126],[111.80460331194226,35.64146600887381],[111.80598361643786,35.64074140425258],[111.80700093264105,35.64023382962807],[111.80769596928418,35.63963302416782],[111.80862406990187,35.63897103650553],[111.80970048691216,35.638534579830115],[111.81086596309542,35.63824058892242],[111.8123842309695,35.63817074379001],[111.81387413343734,35.6381845313591],[111.81690334611548,35.63828326882383],[111.81710925599694,35.63830053360787],[111.81828821778228,35.63850038992269],[111.8198663619491,35.638573118424006],[111.82105116099623,35.63874389187335],[111.8220443948853,35.63874904008419],[111.82281831542406,35.6387318329991],[111.82420219974017,35.6383766074319],[111.8250166213552,35.63803718969983],[111.82644221038547,35.63747896264258],[111.8275754486756,35.636898882282686],[111.82898873463543,35.636567245419535],[111.83009507600201,35.63621386133391],[111.83132009105753,35.6360384928357],[111.83187504489975,35.63603466148454],[111.83311911476795,35.63625361276309],[111.83670833856495,35.637593682831564],[111.8369568980507,35.63766039472275],[111.83862729969896,35.638108703914575],[111.83989541837654,35.638449027518604],[111.8415367481131,35.6386310612139],[111.84186165477975,35.63865872059622],[111.8425210802868,35.63871485632747],[111.84336688965331,35.638589708046624],[111.8439349594807,35.63844265471317],[111.84469062687566,35.638079670683425],[111.84532870015357,35.63764597004542],[111.84590784573358,35.63716498810651],[111.84676446412642,35.636682054006954],[111.84769308402241,35.636103222670094],[111.8482302827761,35.635801369247986],[111.84908855321052,35.63545206250553],[111.84981092116239,35.63544207537966],[111.85053240265141,35.635587472188014],[111.85120287715131,35.63669130463877],[111.85167769661848,35.6373937831815],[111.85183029340874,35.63752600257575],[111.85213834588805,35.6379795193503],[111.85256364371676,35.638143430471075],[111.85283470268038,35.63831250863061],[111.85314823032108,35.640112701343085],[111.85330283227532,35.64035585271122],[111.85355326830597,35.640556766978186],[111.85409529493033,35.64070792253518],[111.854814741104,35.64106050530461],[111.85575352097474,35.641435370969816],[111.8565296186985,35.64162062029855],[111.85821404757304,35.64249123054737],[111.85964695502017,35.643994904155086],[111.86015818403114,35.644751771355374],[111.86092932553358,35.64589340307332],[111.86129194357767,35.647016328812164],[111.86166153577987,35.648787806685235],[111.86183311682176,35.64953056554722],[111.86261723440529,35.65139582377135],[111.86344598980264,35.652391403930935],[111.86420863144804,35.65267208135943],[111.86462829734042,35.653231736480016],[111.86474219262783,35.65338362245008],[111.86463377924085,35.65387958602607],[111.86440806540982,35.65491214556263],[111.86433452118848,35.65609405039371],[111.86469003865427,35.656549335213874],[111.86541642996714,35.656715806671436],[111.86637696190652,35.65691874123766],[111.86703571707858,35.65731460744741],[111.86741421562436,35.657731565831725],[111.86758483897412,35.6583789387466],[111.86731818521447,35.659658987636845],[111.86709022802916,35.66019477132462],[111.86663745086145,35.6611436877828],[111.86477681949218,35.66201550813856],[111.86355322220703,35.66244836596059],[111.86326316500048,35.66255097313451],[111.86227130720125,35.66270115431617],[111.86158033100945,35.66365992628359],[111.86059306207626,35.66423928188542],[111.85972367539023,35.66491317086688],[111.85856361790634,35.66573220016127],[111.85776028717906,35.667120973983074],[111.85678670686906,35.66898786619724],[111.85650877206582,35.67032519914843],[111.8560565218226,35.671759154593936],[111.85495934859446,35.673006923526735],[111.85444454574443,35.6740597859164],[111.8536420794471,35.675543907304146],[111.8524838357692,35.67655363011964],[111.85172961929035,35.677083571464735],[111.8502135683836,35.67742812649326],[111.84980747976726,35.67771714052319],[111.84946084475077,35.678101117534005],[111.84876756589054,35.678869066815274],[111.84842344508215,35.67949147856335],[111.84767018276773,35.68011677075756],[111.84709225405592,35.68074082469052],[111.84723150470657,35.68322296827848],[111.84725066473318,35.685035099259025],[111.84726881792011,35.68675185488665],[111.84718104257765,35.68697302721503],[111.84647163653476,35.68876049341638],[111.84539271409062,35.69081050604486],[111.84418146759214,35.691261109517356],[111.84273315597554,35.691404793024496],[111.84244875441783,35.691044331225484],[111.84209035202588,35.69050297762012],[111.8417008507002,35.69007385025637],[111.8413806192776,35.68972103557193],[111.84081426091387,35.688808380001866],[111.84050614201821,35.688610791456895],[111.83991873479097,35.68823409820359],[111.83874366042505,35.68766999688966],[111.83804120161552,35.687866475032145],[111.83734475788664,35.688061265174326],[111.83653137996379,35.68854383265616],[111.83614112771102,35.68896043923268],[111.83572197177507,35.68940789670706],[111.83467772978892,35.690178201002645],[111.8331668100576,35.691047110074],[111.83200263717688,35.691532074568826],[111.83106930858061,35.691729286684755],[111.82908276333279,35.691838368291904],[111.82721312548516,35.69194661291023],[111.82499568653121,35.69234336046009],[111.8227782248327,35.69274006742579],[111.82079261667573,35.692944388913276],[111.81952159212334,35.69347368679318],[111.81964895687089,35.693517555854974],[111.821803413611,35.69409900708591],[111.82345805785407,35.69439769206426],[111.82475925850747,35.694436474958664],[111.82615023977306,35.694677315024094],[111.82752796826342,35.695049380767884],[111.82951891700932,35.69535759220503],[111.83110165267964,35.69576397261499],[111.83223059542405,35.69610193293873],[111.83312133617625,35.6964485324286],[111.83399091694876,35.69686219228164],[111.83504599056704,35.69712194794123],[111.83570094951736,35.69713647911302],[111.8362857548274,35.69715149415214],[111.8373938853098,35.69702709995968],[111.83799041215158,35.69691072050457],[111.83843211665561,35.69665965078558],[111.83837676218336,35.69583974801872],[111.83815552894377,35.69481115985198],[111.83814200626533,35.69467328997276],[111.83775316077025,35.69493240842722],[111.83697985766446,35.69493778798412],[111.83637198353539,35.68962464351669],[111.8377269312455,35.689606266130966],[111.83791179361853,35.689395137999995],[111.83873016395151,35.6893894388064],[111.83936267682205,35.689499488787376],[111.83993325711982,35.689579172795476],[111.84053357977731,35.68966300666167],[111.84100262261383,35.68979326604555],[111.84114491771288,35.68998303652613],[111.84124385467412,35.69049741078527],[111.84113415268166,35.69118492999297],[111.84102825504247,35.69223487588045],[111.84122693512037,35.69333992263191],[111.84116720191463,35.69433231637285],[111.84131451557892,35.69499896318565],[111.84132653714661,35.69614346624643],[111.84100917626287,35.697099507386504],[111.84036050776801,35.69727049933319],[111.83981977921627,35.69741303486844],[111.83895695665255,35.69764796977397],[111.83823243911563,35.697691170041594],[111.8370640154974,35.69777560727409],[111.83568512808648,35.69786149458205],[111.83496358941149,35.698190801766366],[111.83422342833974,35.698978068759],[111.8333421487319,35.69969000233279],[111.83251059906577,35.700687732713334],[111.83195707956477,35.70143554211725],[111.83121802049483,35.70244451702771],[111.83104944997017,35.70256509283089],[111.8299728303886,35.70361695733686],[111.82963552570686,35.70492125073337],[111.82951654956955,35.70698232641703],[111.82948260431961,35.708785283930524],[111.82948640895114,35.71084551293784],[111.83009823950835,35.71232925546019],[111.83070281813504,35.7131119864704],[111.83140879629751,35.7135220234571],[111.83279430246421,35.71348382902277],[111.83536801870409,35.712993849927386],[111.83677180231774,35.71302701929061],[111.83745787350571,35.7132082416375],[111.83814393301616,35.715063415059085],[111.83863271040462,35.71650504797189],[111.83911625593736,35.717445958776935],[111.83987569364174,35.71792710880443],[111.84041461020234,35.717998709343036],[111.84252207423856,35.717833087274485]]]]},"properties":{"code":"SXPR-P29","name_short":"翼城翅果油树","name_full":"山西翼城翅果油树省级自然保护区","zone":"experimental","area_km2":58.315,"feature_count":2}}]}