{"type":"FeatureCollection","features":[{"type":"Feature","geometry":{"type":"MultiPolygon","coordinates":[[[[112.53377844146324,36.949094733381806],[112.53639944189835,36.94797615791935],[112.53893368332731,36.94697784559146],[112.54166825989844,36.945607371601334],[112.54327232999233,36.94488327456771],[112.54505656474097,36.94443429791196],[112.54724106575375,36.943776492439554],[112.54961652133679,36.94316383235083],[112.55361670627077,36.94241544438189],[112.55669450779709,36.942073161033875],[112.55876412625942,36.942198571993806],[112.55924423927813,36.94244019304118],[112.56097780941677,36.943561682987706],[112.56446144322517,36.94544201543118],[112.56536643480683,36.94554451148356],[112.56759266305448,36.945190922271266],[112.56915063481058,36.94469355731404],[112.57146242992856,36.94388105547828],[112.57302959268965,36.9426778835905],[112.57378558652738,36.941313807540254],[112.57595803911912,36.93951136314647],[112.57738505337923,36.93728015055338],[112.5799450519212,36.93354629135943],[112.5812804996737,36.93034361824467],[112.58234396601452,36.926629630544504],[112.58264792673901,36.92180055695535],[112.58310169134836,36.913879936864184],[112.58291358455028,36.90592972159342],[112.58283103757043,36.899637292428196],[112.582421882413,36.89592383891699],[112.58143862521368,36.89315252209532],[112.58057556030639,36.89160016236261],[112.57871693935286,36.888973965358524],[112.57632155055144,36.886793503688246],[112.5747232654041,36.885269924133055],[112.57289591250367,36.88414985490442],[112.57150365323325,36.88340542834337],[112.57014170397677,36.88182144358895],[112.56816000569509,36.880112125406036],[112.5670873134412,36.879897426042035],[112.56518200524064,36.87959833403909],[112.564130340514,36.87808647312177],[112.56355220420087,36.876511156861156],[112.56331296792916,36.87409223413096],[112.56329901143413,36.87107912954171],[112.56368417898737,36.869014344259014],[112.56341193505975,36.86497477845399],[112.56290938071102,36.863608245621634],[112.5613355827692,36.86208415052187],[112.55910483530552,36.86093101514981],[112.55753852340295,36.85976912853654],[112.55462383251549,36.8576522244916],[112.55360336460359,36.8564831395045],[112.55321929032358,36.85509594085332],[112.55308206158931,36.85249328031971],[112.55333098642876,36.85013588389955],[112.55432669737222,36.848036913641025],[112.55487935550464,36.84603313121237],[112.55265951629535,36.84627075451001],[112.55080311579107,36.84614600107293],[112.54652111043676,36.84524823337396],[112.54423842043649,36.84420514569264],[112.54093047581415,36.84195354028953],[112.53916030264851,36.84057591181391],[112.53755940650464,36.83839148355833],[112.53600877789933,36.836861968487284],[112.53523580450457,36.837140151755584],[112.5343784281357,36.838760393542955],[112.5329660472313,36.84229495076632],[112.5322245266667,36.84415207653758],[112.52979778241061,36.84889164693137],[112.52881978215191,36.85191397045458],[112.5287747242049,36.853374717979364],[112.52920158877194,36.85804772158578],[112.52923128235057,36.85953730511798],[112.52996755023737,36.86298454520966],[112.53125292006516,36.866067111011404],[112.5331775283618,36.87143595479119],[112.53465391424058,36.873934018008505],[112.53552312775841,36.875415431250424],[112.5372812011759,36.87740950182142],[112.53851914044769,36.87921003372992],[112.5402076072195,36.88083306634557],[112.54121340338864,36.88191022298796],[112.54297969026508,36.88380172958438],[112.54376413604354,36.885913235649994],[112.54379630247995,36.88751005056039],[112.54356383361325,36.88922950242212],[112.54293794540526,36.890572635099296],[112.54115200076433,36.89326582495339],[112.53975645467779,36.89471428394739],[112.5380152996066,36.89669166701788],[112.53626497341875,36.89821619751717],[112.53424654638971,36.89969648789093],[112.53193700442739,36.90146657142546],[112.52979922601236,36.90292448656765],[112.52803623097479,36.903829238998505],[112.52658681592115,36.90408627365044],[112.52359323479793,36.90431543298425],[112.52033821581446,36.904833936991885],[112.51709448086079,36.905924351615745],[112.51471414814056,36.90714670447046],[112.51207698264362,36.90889674494915],[112.50836830755362,36.91201918594425],[112.504926161558,36.913612417346094],[112.50233013879654,36.91445582906353],[112.49863816837636,36.915432217760184],[112.49687450617317,36.916336519610596],[112.49538539263018,36.917618768541665],[112.49284948312979,36.9200346133836],[112.49201560401072,36.921427777125245],[112.49148040036584,36.9229125400041],[112.49116040351309,36.92477602760205],[112.49043130643001,36.92850411733335],[112.48977217198728,36.92972819501074],[112.48886669634602,36.93202812786105],[112.48818013840338,36.93337173733852],[112.48760817585807,36.93417329665718],[112.4863689313647,36.937145803751044],[112.48575067588321,36.93843162467511],[112.4828793226326,36.94044618840145],[112.4808458258814,36.94125826911594],[112.47810980324735,36.94260353070009],[112.47665048475831,36.94393285406654],[112.47498574531215,36.946933463984294],[112.47517257094557,36.9504593568562],[112.47644463980201,36.951730861334596],[112.47796697282928,36.95211718334018],[112.48191795193436,36.95213943870957],[112.48318683975862,36.95193785927009],[112.48527276745384,36.951436313795796],[112.48777873137827,36.950775574019],[112.49071189139494,36.950090345468006],[112.49369734965013,36.949652314489796],[112.49650991938285,36.949488156882055],[112.50079581140945,36.94993466789107],[112.50398115075828,36.950299616447154],[112.50699445326974,36.950976572665795],[112.5100436204615,36.9519629052241],[112.51205020202023,36.95279557001935],[112.5137585885821,36.95361529453211],[112.5158885057326,36.954255284202866],[112.51933787290116,36.95518858443764],[112.52093518905788,36.95559723120657],[112.52309225650531,36.955772202995334],[112.52508052963059,36.95567515484623],[112.52577926146898,36.955324480142366],[112.52682954514583,36.95436932938597],[112.52889080511974,36.95198272440423],[112.5304281105275,36.9508782332304],[112.53377844146324,36.949094733381806]]]]},"properties":{"code":"SXPR-P35","name_short":"浊漳河源头","name_full":"山西浊漳河源头省级自然保护区","zone":"core","area_km2":57.961,"feature_count":1}},{"type":"Feature","geometry":{"type":"MultiPolygon","coordinates":[[[[112.52973843250052,36.96072252677562],[112.53130807976359,36.95784262100394],[112.53219854498089,36.95629205488295],[112.53388797935078,36.95462533631743],[112.53608647857878,36.953166559138225],[112.53788018528952,36.95226128676404],[112.53950143775363,36.95164429275068],[112.54174817933294,36.951114509700986],[112.54431864232578,36.950437439744185],[112.54600304439629,36.95001024870379],[112.54946208188089,36.94921421433532],[112.5536825920664,36.94862266686705],[112.55875075522881,36.948091359388265],[112.5607959606848,36.94788569134387],[112.56404080904716,36.94752115369956],[112.56616773853108,36.9469567312081],[112.56864141675645,36.945922828590085],[112.57081500748491,36.94546498315168],[112.57321935080492,36.945397382236344],[112.57495561404438,36.94533859995119],[112.5767662076109,36.94456363485702],[112.57989885443155,36.94309164242286],[112.58222972925353,36.941630258443766],[112.58381007879254,36.940500670753444],[112.58680214174282,36.93870854787417],[112.58899395159831,36.936998582081166],[112.590263119138,36.93590883295596],[112.59094590215979,36.93446934588567],[112.59117368736544,36.93257109396602],[112.59105637692338,36.93121384417159],[112.59125969555731,36.930281397978895],[112.59235507231587,36.92940850773107],[112.59353352464804,36.92824842398812],[112.59364551800083,36.92720992386619],[112.59352073141292,36.92549519063217],[112.59217229372044,36.92490538739261],[112.58971667191189,36.9246164665002],[112.58908885467011,36.92441031913751],[112.58889590687227,36.92369773109204],[112.58900573295527,36.92255198763447],[112.58974631913087,36.92175538624304],[112.59141891758159,36.92080325626127],[112.59291784497889,36.92006798505239],[112.59437445440706,36.91944053950866],[112.595646243448,36.91849373258235],[112.59634890903386,36.91801942616288],[112.5965150678124,36.91744505621388],[112.59601191281423,36.91680816656479],[112.59519116101573,36.915889473314714],[112.59485493925446,36.91471395811722],[112.59530964999905,36.913027196699424],[112.59563078784674,36.91134222873698],[112.59600015604153,36.90983540464504],[112.59685024522983,36.9078930125285],[112.59745706401979,36.90709816092403],[112.5989912258721,36.90593323800964],[112.60052011166542,36.904518056789684],[112.60182712219257,36.90314160724152],[112.60233585336212,36.90191895159942],[112.6023874856408,36.90013032501065],[112.60215635351456,36.897594581893685],[112.60167687159168,36.895956151823],[112.6004822945795,36.89418432474428],[112.59880714640175,36.8928480589878],[112.59789239665352,36.891680333239954],[112.59764601149132,36.890539370456274],[112.59775791277325,36.889500863657986],[112.59884295139022,36.88816318993605],[112.59975142829762,36.88689940279075],[112.60004056550821,36.885822747083644],[112.60002265268527,36.88496477974183],[112.59960720592268,36.884255201078275],[112.59813266486258,36.88398898105473],[112.59617531032914,36.884051060738365],[112.59376474986813,36.883725842949175],[112.5924066600424,36.882635537502175],[112.59096331652343,36.88172515159587],[112.58979590810358,36.881240159967874],[112.58765320354888,36.88094699034183],[112.58564327610478,36.88061625177401],[112.58353033354621,36.879607434112465],[112.58315366111057,36.878611208099215],[112.5829380169707,36.876790381843854],[112.58379401245818,36.875134065542035],[112.58407299619802,36.87355695698394],[112.58400043500153,36.87219908799281],[112.58406357881302,36.87094668590641],[112.5843454984942,36.869512572183694],[112.58468372181073,36.868649847591875],[112.58529259095613,36.867962305156695],[112.58540463835737,36.86692380299272],[112.58466912012628,36.865789332016966],[112.58268343975244,36.86445696510153],[112.58002384263085,36.86281169878953],[112.57728787688939,36.861775287096116],[112.57500935330859,36.861340650007236],[112.57268269959857,36.86072781084346],[112.5714719686738,36.860278965451215],[112.57064993854459,36.85925282615723],[112.5700875417937,36.85786565862675],[112.57000062232578,36.855792784713174],[112.57004643382066,36.8536823973293],[112.56998791727507,36.85082244859534],[112.56999144307792,36.84881989510782],[112.56982801438633,36.84735593366215],[112.56947862849631,36.84550107790517],[112.56695049454918,36.84371073086931],[112.5650138198888,36.84255620441437],[112.56147525586086,36.84138694694733],[112.55807821188742,36.84060907716741],[112.55548110451126,36.83978488244039],[112.55300157205384,36.83817239168539],[112.55133354250363,36.83708564433848],[112.55060026585238,36.83602243849644],[112.55018338553624,36.83520541617828],[112.5505168050589,36.83409253021459],[112.55182646948322,36.83285962134188],[112.55366976595168,36.831619722882],[112.55538248215802,36.83052454170803],[112.55730735828479,36.828925927491554],[112.55895880118665,36.82700903733988],[112.56013698030841,36.82588503978486],[112.56056351494964,36.82498545961931],[112.56054608349699,36.82412746710793],[112.55932729425932,36.823249482691935],[112.55676436921907,36.82188847090432],[112.55428974183356,36.82049048781738],[112.5530681898377,36.81946943722594],[112.5517233843139,36.81895061298718],[112.54827792129508,36.817922766815926],[112.5456788100349,36.81695533462151],[112.54285385401867,36.81581197969648],[112.54091179315938,36.8143352786788],[112.53762735350107,36.81244680577394],[112.53501356048427,36.81072837888399],[112.53293483150186,36.80907451127382],[112.53215671920223,36.808541888155254],[112.53071885316487,36.8074468518944],[112.52985086609489,36.80762967203763],[112.5296720393034,36.809960367196055],[112.529962592763,36.81234848187036],[112.53007160243105,36.81424948142825],[112.52902710529648,36.81629405769666],[112.52856538123429,36.817229742138146],[112.52855043101329,36.819160943001215],[112.52862384789648,36.821062399746545],[112.52813675863696,36.822513342993666],[112.52837851112331,36.82482744292785],[112.5301701420149,36.82723602534721],[112.53282317305991,36.83000536905287],[112.53392335629104,36.83163610281975],[112.53408273422673,36.833379099970784],[112.53356495444137,36.83507362197282],[112.5315237308179,36.83711677174521],[112.53073746924747,36.83963005313041],[112.529928071873,36.840985026270786],[112.52861448352171,36.84139217321371],[112.5274672873723,36.841631743765014],[112.52557335374533,36.84304353478773],[112.52375988736443,36.84539817112003],[112.52352612138303,36.84570168538658],[112.52141821518225,36.847101851819126],[112.51912069379594,36.847917951945334],[112.51844852281715,36.847854765664806],[112.51664834104507,36.84768552111632],[112.5159521239118,36.84762005871295],[112.51517305414426,36.84790592756485],[112.51489102009307,36.84856913417142],[112.51461550764806,36.850014939001056],[112.51458618930577,36.851159610976104],[112.51501035238404,36.85232501880198],[112.51508429180386,36.85232321846166],[112.51564368615722,36.85229806464684],[112.51576059117272,36.85229206772886],[112.51686523256203,36.85223517405632],[112.51786322157479,36.852206663655686],[112.51846626419861,36.85229807198018],[112.51986821309559,36.85274900722884],[112.52103889773285,36.853443251300696],[112.52231463979722,36.85345075140964],[112.52342028579443,36.853108787494506],[112.52420726884509,36.853152332532275],[112.52546798707712,36.85352354444343],[112.52538804432487,36.85509797728711],[112.52447397624539,36.85644116970952],[112.52442243957643,36.8565168996781],[112.52449454010188,36.85650288576613],[112.5240585071744,36.8572918207968],[112.52445812733319,36.86068143419655],[112.52468092264513,36.86233780254173],[112.52513966143806,36.86511636180655],[112.5263595277597,36.86677899145979],[112.5270900312503,36.86770410951285],[112.527135403073,36.868790604553936],[112.52595359596417,36.87023615696917],[112.52648059538315,36.87286125816425],[112.52702586062361,36.874017613372025],[112.52750316462026,36.87414497661963],[112.52951165841635,36.8736804875117],[112.52976001055472,36.87423036324301],[112.52944905792835,36.8753023730319],[112.53047450803903,36.87553709454392],[112.53235319835001,36.87570358940048],[112.53290358173437,36.87607156075297],[112.53295927909735,36.87663106774023],[112.52981471438927,36.87816156973323],[112.53007877472655,36.87875415259653],[112.5312610972732,36.879263383478346],[112.53512492124743,36.881049141350246],[112.53808594429415,36.88294182215489],[112.5388734776752,36.88336668970482],[112.54058218115757,36.88450255077261],[112.53967537187849,36.88589699026522],[112.53924612196239,36.8866892522002],[112.53946674516442,36.88806907293019],[112.53934185738436,36.88997783679773],[112.53844477315687,36.89186084603607],[112.53681204120173,36.894063281429446],[112.53580624068195,36.89497026634116],[112.53391526155092,36.89539997318099],[112.53232280721807,36.8963615874537],[112.53205185252403,36.89694657343781],[112.53186157487556,36.89735737279473],[112.5318031046576,36.89779962483638],[112.53176977989911,36.898237048451406],[112.53162083680807,36.89867821442277],[112.53135815241603,36.89911183735068],[112.53111214278545,36.89943261798775],[112.53008557420274,36.90026312811923],[112.52871645634472,36.90126770700215],[112.52694075225584,36.901533713282504],[112.52487445090699,36.901517353089815],[112.52282822841872,36.90161512750216],[112.52028351719395,36.90262037628353],[112.51820499560702,36.90198900145066],[112.51770661131798,36.90192999753703],[112.51739807942437,36.90189346855593],[112.51696585735,36.90225181217253],[112.51644687829324,36.90303111097977],[112.51586439747237,36.90419209572094],[112.51549150885835,36.90454967684209],[112.51464245981738,36.90484658180886],[112.5129481127052,36.90503028779128],[112.51140751672364,36.90518340640602],[112.50958802062544,36.90564519361241],[112.5081395133993,36.906254814814],[112.5076146490588,36.90661858442115],[112.5060480634028,36.90858900756991],[112.50506186576094,36.91023746033432],[112.50441511595811,36.91129878408879],[112.50354931585423,36.911958180442284],[112.50284016966636,36.91212926557088],[112.50091874796057,36.91224892498284],[112.49943192388905,36.91212467338706],[112.49769317801507,36.91187008013071],[112.49734945112566,36.911823522106324],[112.49627629373931,36.91167815657785],[112.4951048636004,36.911893162565796],[112.49400934217394,36.91295588299786],[112.4932197415278,36.915092286537856],[112.49294141630659,36.915813545548964],[112.49211285368592,36.91679402826631],[112.4911418837963,36.91755001381258],[112.49012729554822,36.917896502094],[112.48929129567772,36.91810895999401],[112.48880229034674,36.9183130047269],[112.48749612212565,36.91850044631315],[112.48626109466889,36.91911666399616],[112.48563492199315,36.919896895895555],[112.4848864502062,36.92110776298368],[112.48476564144848,36.921614668431886],[112.48500825910796,36.92248892252793],[112.4865082045604,36.923890977835896],[112.48774104210645,36.924991217019674],[112.48853474669906,36.92610648584583],[112.48826514917302,36.92690133104398],[112.48741795118526,36.92792273563011],[112.48665216702028,36.929467580142976],[112.48624059366935,36.93029280579453],[112.48498994410056,36.93133831431522],[112.48427757658962,36.931967045202335],[112.48401135524122,36.932663620470834],[112.48396759339329,36.93500042083337],[112.48344953250333,36.936616048929565],[112.48241128731566,36.93803515830287],[112.48150712686676,36.938829151890566],[112.480168175652,36.93946567602668],[112.47928437193627,36.93964882789143],[112.47839337625174,36.9398334620164],[112.47707670868927,36.94008824520949],[112.47497834846507,36.941389740234705],[112.47336953994903,36.94189842461554],[112.47206835227227,36.94218871978002],[112.47148780175847,36.94288725805761],[112.4714034915979,36.94399894086729],[112.47135750479168,36.94460530411262],[112.47157923446076,36.94686728981385],[112.47167875839988,36.94895199494074],[112.47160555858608,36.95055013506522],[112.471835450664,36.95169157017782],[112.47280983174575,36.952931046339025],[112.47378875373343,36.953634073394475],[112.47507054738588,36.953868463755406],[112.47609595330711,36.953996292764984],[112.47924914259572,36.95460410975041],[112.47966145461412,36.95472770212299],[112.48052531945336,36.95516033991682],[112.48286285985043,36.95530280161108],[112.48427917219087,36.95481308168268],[112.48638147842507,36.95385704302143],[112.48822509223575,36.95334762083463],[112.49053027163954,36.95274655406481],[112.49180366452015,36.95224423665384],[112.49315082381403,36.95186970898767],[112.4941257585461,36.951599976776386],[112.49560293076873,36.951495552360974],[112.49805792951035,36.95217976991787],[112.50072285217865,36.952661032269994],[112.5034867391369,36.95364160444047],[112.5057354526904,36.9537990438205],[112.50854471233048,36.95436412004145],[112.51024646247942,36.95480019040041],[112.51149004695017,36.95549953564286],[112.51310332605217,36.95686641770393],[112.51414560887564,36.958197653285],[112.51492262619324,36.95963238978862],[112.51501710655747,36.95990294928709],[112.51303039406481,36.95948488545484],[112.51153754578388,36.95880303573906],[112.50773480469559,36.957578394018164],[112.50562599284386,36.957290487166254],[112.50398216780202,36.95708247264756],[112.50217910784322,36.95693366378842],[112.50060825722173,36.95681049948228],[112.49971676382017,36.95679316102019],[112.49870390419856,36.95694898991263],[112.49765355289861,36.9579205834367],[112.4973124091208,36.95961270131268],[112.49741282272744,36.96109899970278],[112.49881269966247,36.962497375433216],[112.50016618445885,36.96425390868929],[112.50127036311682,36.96511245923642],[112.50147257103228,36.965424577480206],[112.50345779175586,36.964855913100784],[112.5057046520668,36.963997826134545],[112.50850077731627,36.96297537885102],[112.50979429363954,36.96258704002413],[112.51155082809416,36.96217848844523],[112.51302619173502,36.96197374397207],[112.51572458169773,36.961424387533306],[112.51792966563636,36.96116735051286],[112.52010307750615,36.96111092716959],[112.52102969028358,36.96109905520488],[112.52127033934055,36.960652563696655],[112.52161260369806,36.96015721547506],[112.52220411269464,36.95960585503484],[112.52257119356963,36.95924355995284],[112.52318972990413,36.95897816138539],[112.52377347925496,36.95875611622701],[112.52487625450846,36.95864182885319],[112.52623163038392,36.958681621163116],[112.52801008693565,36.958487096888724],[112.52865440816333,36.95889448986332],[112.52973843250052,36.96072252677562]],[[112.53377844146324,36.949094733381806],[112.5304281105275,36.9508782332304],[112.52889080511974,36.95198272440423],[112.52682954514583,36.95436932938597],[112.52577926146898,36.955324480142366],[112.52508052963059,36.95567515484623],[112.52309225650531,36.955772202995334],[112.52093518905788,36.95559723120657],[112.51933787290116,36.95518858443764],[112.5158885057326,36.954255284202866],[112.5137585885821,36.95361529453211],[112.51205020202023,36.95279557001935],[112.5100436204615,36.9519629052241],[112.50699445326974,36.950976572665795],[112.50398115075828,36.950299616447154],[112.50079581140945,36.94993466789107],[112.49650991938285,36.949488156882055],[112.49369734965013,36.949652314489796],[112.49071189139494,36.950090345468006],[112.48777873137827,36.950775574019],[112.48527276745384,36.951436313795796],[112.48318683975862,36.95193785927009],[112.48191795193436,36.95213943870957],[112.47796697282928,36.95211718334018],[112.47644463980201,36.951730861334596],[112.47517257094557,36.9504593568562],[112.47498574531215,36.946933463984294],[112.47665048475831,36.94393285406654],[112.47810980324735,36.94260353070009],[112.4808458258814,36.94125826911594],[112.4828793226326,36.94044618840145],[112.48575067588321,36.93843162467511],[112.4863689313647,36.937145803751044],[112.48760817585807,36.93417329665718],[112.48818013840338,36.93337173733852],[112.48886669634602,36.93202812786105],[112.48977217198728,36.92972819501074],[112.49043130643001,36.92850411733335],[112.49116040351309,36.92477602760205],[112.49148040036584,36.9229125400041],[112.49201560401072,36.921427777125245],[112.49284948312979,36.9200346133836],[112.49538539263018,36.917618768541665],[112.49687450617317,36.916336519610596],[112.49863816837636,36.915432217760184],[112.50233013879654,36.91445582906353],[112.504926161558,36.913612417346094],[112.50836830755362,36.91201918594425],[112.51207698264362,36.90889674494915],[112.51471414814056,36.90714670447046],[112.51709448086079,36.905924351615745],[112.52033821581446,36.904833936991885],[112.52359323479793,36.90431543298425],[112.52658681592115,36.90408627365044],[112.52803623097479,36.903829238998505],[112.52979922601236,36.90292448656765],[112.53193700442739,36.90146657142546],[112.53424654638971,36.89969648789093],[112.53626497341875,36.89821619751717],[112.5380152996066,36.89669166701788],[112.53975645467779,36.89471428394739],[112.54115200076433,36.89326582495339],[112.54293794540526,36.890572635099296],[112.54356383361325,36.88922950242212],[112.54379630247995,36.88751005056039],[112.54376413604354,36.885913235649994],[112.54297969026508,36.88380172958438],[112.54121340338864,36.88191022298796],[112.5402076072195,36.88083306634557],[112.53851914044769,36.87921003372992],[112.5372812011759,36.87740950182142],[112.53552312775841,36.875415431250424],[112.53465391424058,36.873934018008505],[112.5331775283618,36.87143595479119],[112.53125292006516,36.866067111011404],[112.52996755023737,36.86298454520966],[112.52923128235057,36.85953730511798],[112.52920158877194,36.85804772158578],[112.5287747242049,36.853374717979364],[112.52881978215191,36.85191397045458],[112.52979778241061,36.84889164693137],[112.5322245266667,36.84415207653758],[112.5329660472313,36.84229495076632],[112.5343784281357,36.838760393542955],[112.53523580450457,36.837140151755584],[112.53600877789933,36.836861968487284],[112.53755940650464,36.83839148355833],[112.53916030264851,36.84057591181391],[112.54093047581415,36.84195354028953],[112.54423842043649,36.84420514569264],[112.54652111043676,36.84524823337396],[112.55080311579107,36.84614600107293],[112.55265951629535,36.84627075451001],[112.55487935550464,36.84603313121237],[112.55432669737222,36.848036913641025],[112.55333098642876,36.85013588389955],[112.55308206158931,36.85249328031971],[112.55321929032358,36.85509594085332],[112.55360336460359,36.8564831395045],[112.55462383251549,36.8576522244916],[112.55753852340295,36.85976912853654],[112.55910483530552,36.86093101514981],[112.5613355827692,36.86208415052187],[112.56290938071102,36.863608245621634],[112.56341193505975,36.86497477845399],[112.56368417898737,36.869014344259014],[112.56329901143413,36.87107912954171],[112.56331296792916,36.87409223413096],[112.56355220420087,36.876511156861156],[112.564130340514,36.87808647312177],[112.56518200524064,36.87959833403909],[112.5670873134412,36.879897426042035],[112.56816000569509,36.880112125406036],[112.57014170397677,36.88182144358895],[112.57150365323325,36.88340542834337],[112.57289591250367,36.88414985490442],[112.5747232654041,36.885269924133055],[112.57632155055144,36.886793503688246],[112.57871693935286,36.888973965358524],[112.58057556030639,36.89160016236261],[112.58143862521368,36.89315252209532],[112.582421882413,36.89592383891699],[112.58283103757043,36.899637292428196],[112.58291358455028,36.90592972159342],[112.58310169134836,36.913879936864184],[112.58264792673901,36.92180055695535],[112.58234396601452,36.926629630544504],[112.5812804996737,36.93034361824467],[112.5799450519212,36.93354629135943],[112.57738505337923,36.93728015055338],[112.57595803911912,36.93951136314647],[112.57378558652738,36.941313807540254],[112.57302959268965,36.9426778835905],[112.57146242992856,36.94388105547828],[112.56915063481058,36.94469355731404],[112.56759266305448,36.945190922271266],[112.56536643480683,36.94554451148356],[112.56446144322517,36.94544201543118],[112.56097780941677,36.943561682987706],[112.55924423927813,36.94244019304118],[112.55876412625942,36.942198571993806],[112.55669450779709,36.942073161033875],[112.55361670627077,36.94241544438189],[112.54961652133679,36.94316383235083],[112.54724106575375,36.943776492439554],[112.54505656474097,36.94443429791196],[112.54327232999233,36.94488327456771],[112.54166825989844,36.945607371601334],[112.53893368332731,36.94697784559146],[112.53639944189835,36.94797615791935],[112.53377844146324,36.949094733381806]]]]},"properties":{"code":"SXPR-P35","name_short":"浊漳河源头","name_full":"山西浊漳河源头省级自然保护区","zone":"buffer","area_km2":34.003,"feature_count":1}},{"type":"Feature","geometry":{"type":"MultiPolygon","coordinates":[[[[112.53071885316487,36.8074468518944],[112.53215671920223,36.808541888155254],[112.53293483150186,36.80907451127382],[112.53501356048427,36.81072837888399],[112.53762735350107,36.81244680577394],[112.54091179315938,36.8143352786788],[112.54285385401867,36.81581197969648],[112.5456788100349,36.81695533462151],[112.54827792129508,36.817922766815926],[112.5517233843139,36.81895061298718],[112.5530681898377,36.81946943722594],[112.55428974183356,36.82049048781738],[112.55676436921907,36.82188847090432],[112.55932729425932,36.823249482691935],[112.56054608349699,36.82412746710793],[112.56056351494964,36.82498545961931],[112.56013698030841,36.82588503978486],[112.55895880118665,36.82700903733988],[112.55730735828479,36.828925927491554],[112.55538248215802,36.83052454170803],[112.55366976595168,36.831619722882],[112.55182646948322,36.83285962134188],[112.5505168050589,36.83409253021459],[112.55018338553624,36.83520541617828],[112.55060026585238,36.83602243849644],[112.55133354250363,36.83708564433848],[112.55300157205384,36.83817239168539],[112.55548110451126,36.83978488244039],[112.55807821188742,36.84060907716741],[112.56147525586086,36.84138694694733],[112.5650138198888,36.84255620441437],[112.56695049454918,36.84371073086931],[112.56947862849631,36.84550107790517],[112.56982801438633,36.84735593366215],[112.56999144307792,36.84881989510782],[112.56998791727507,36.85082244859534],[112.57004643382066,36.8536823973293],[112.57000062232578,36.855792784713174],[112.5700875417937,36.85786565862675],[112.57064993854459,36.85925282615723],[112.5714719686738,36.860278965451215],[112.57268269959857,36.86072781084346],[112.57500935330859,36.861340650007236],[112.57728787688939,36.861775287096116],[112.58002384263085,36.86281169878953],[112.58268343975244,36.86445696510153],[112.58466912012628,36.865789332016966],[112.58540463835737,36.86692380299272],[112.58529259095613,36.867962305156695],[112.58468372181073,36.868649847591875],[112.5843454984942,36.869512572183694],[112.58406357881302,36.87094668590641],[112.58400043500153,36.87219908799281],[112.58407299619802,36.87355695698394],[112.58379401245818,36.875134065542035],[112.5829380169707,36.876790381843854],[112.58315366111057,36.878611208099215],[112.58353033354621,36.879607434112465],[112.58564327610478,36.88061625177401],[112.58765320354888,36.88094699034183],[112.58979590810358,36.881240159967874],[112.59096331652343,36.88172515159587],[112.5924066600424,36.882635537502175],[112.59376474986813,36.883725842949175],[112.59617531032914,36.884051060738365],[112.59813266486258,36.88398898105473],[112.59960720592268,36.884255201078275],[112.60002265268527,36.88496477974183],[112.60004056550821,36.885822747083644],[112.59975142829762,36.88689940279075],[112.59884295139022,36.88816318993605],[112.59775791277325,36.889500863657986],[112.59764601149132,36.890539370456274],[112.59789239665352,36.891680333239954],[112.59880714640175,36.8928480589878],[112.6004822945795,36.89418432474428],[112.60167687159168,36.895956151823],[112.60215635351456,36.897594581893685],[112.6023874856408,36.90013032501065],[112.60233585336212,36.90191895159942],[112.60182712219257,36.90314160724152],[112.60052011166542,36.904518056789684],[112.5989912258721,36.90593323800964],[112.59745706401979,36.90709816092403],[112.59685024522983,36.9078930125285],[112.59600015604153,36.90983540464504],[112.59563078784674,36.91134222873698],[112.59530964999905,36.913027196699424],[112.59485493925446,36.91471395811722],[112.59519116101573,36.915889473314714],[112.59601191281423,36.91680816656479],[112.5965150678124,36.91744505621388],[112.59634890903386,36.91801942616288],[112.595646243448,36.91849373258235],[112.59437445440706,36.91944053950866],[112.59291784497889,36.92006798505239],[112.59141891758159,36.92080325626127],[112.58974631913087,36.92175538624304],[112.58900573295527,36.92255198763447],[112.58889590687227,36.92369773109204],[112.58908885467011,36.92441031913751],[112.58971667191189,36.9246164665002],[112.59217229372044,36.92490538739261],[112.59352073141292,36.92549519063217],[112.59364551800083,36.92720992386619],[112.59353352464804,36.92824842398812],[112.59235507231587,36.92940850773107],[112.59125969555731,36.930281397978895],[112.59105637692338,36.93121384417159],[112.59117368736544,36.93257109396602],[112.59094590215979,36.93446934588567],[112.590263119138,36.93590883295596],[112.58899395159831,36.936998582081166],[112.58680214174282,36.93870854787417],[112.58381007879254,36.940500670753444],[112.58222972925353,36.941630258443766],[112.57989885443155,36.94309164242286],[112.5767662076109,36.94456363485702],[112.57495561404438,36.94533859995119],[112.57321935080492,36.945397382236344],[112.57081500748491,36.94546498315168],[112.56864141675645,36.945922828590085],[112.56616773853108,36.9469567312081],[112.56404080904716,36.94752115369956],[112.5607959606848,36.94788569134387],[112.55875075522881,36.948091359388265],[112.5536825920664,36.94862266686705],[112.54946208188089,36.94921421433532],[112.54600304439629,36.95001024870379],[112.54431864232578,36.950437439744185],[112.54174817933294,36.951114509700986],[112.53950143775363,36.95164429275068],[112.53788018528952,36.95226128676404],[112.53608647857878,36.953166559138225],[112.53388797935078,36.95462533631743],[112.53219854498089,36.95629205488295],[112.53130807976359,36.95784262100394],[112.52973843250052,36.96072252677562],[112.529625068791,36.96218293921223],[112.5294993191093,36.96391527621013],[112.52939346641735,36.96486066794743],[112.52965812068297,36.96561533882376],[112.53245535684789,36.96555064541399],[112.53349496770196,36.96583758865025],[112.53431267991732,36.966613708666536],[112.53617983123458,36.96904974212645],[112.5369964696411,36.97065545436914],[112.53791892207522,36.97220257431525],[112.5385864297879,36.97348122832444],[112.5391990114788,36.973802262629064],[112.54086657825832,36.97428124045752],[112.54250681486094,36.97428853822496],[112.54426891570742,36.97415119318915],[112.54499500482508,36.9739128884045],[112.54659714403601,36.97291938876031],[112.54812795462,36.971926798030594],[112.54974393420791,36.97161963749456],[112.55245902799888,36.97101201522466],[112.55546183803845,36.970529290053086],[112.55752503672504,36.970301981795885],[112.56055319733609,36.97019068349152],[112.5625602729652,36.96983529626359],[112.56374299606856,36.96959386885075],[112.56702304750729,36.96840332952997],[112.568177876084,36.968216434682034],[112.5697592209153,36.96796667439264],[112.57084594896854,36.96533478109845],[112.57215513858281,36.96225652668191],[112.57300768427436,36.96124399443015],[112.5744576531806,36.96068124077049],[112.57871755238179,36.95981889623641],[112.58070286962855,36.95957792143232],[112.5840402251812,36.9584201446596],[112.58408416056103,36.958322500817985],[112.58439342792579,36.95776530947989],[112.58449917481789,36.957134550381944],[112.58519005517242,36.95592861113055],[112.58571525354888,36.95504193934485],[112.58630235694608,36.95413298277499],[112.58663109151846,36.95365657788255],[112.5866976115046,36.95342683581321],[112.58653726400995,36.95299987904017],[112.58621923408951,36.95270375819488],[112.58580677538845,36.952580539658975],[112.58529943632202,36.95260877136111],[112.58481304298023,36.9523578071537],[112.58480578059482,36.95200747179552],[112.58516405940449,36.95166655793051],[112.58500056219123,36.95108707208476],[112.5847414914158,36.95076870457147],[112.58392193732222,36.95063661096594],[112.58305710550152,36.9504693558519],[112.58213091591806,36.950207557165704],[112.58121391167172,36.949671480700786],[112.58088882143237,36.94903215942926],[112.58103710726436,36.948303096118266],[112.58149938336344,36.94767712479452],[112.58222765653495,36.94698800920843],[112.5838590690305,36.94616764615552],[112.58506040461577,36.945376844338234],[112.5862678939143,36.94488393497773],[112.58769756183007,36.94436420331902],[112.58867268244909,36.944124687224935],[112.58961934608935,36.94394514039024],[112.59077533226785,36.94383429815706],[112.59222946746385,36.94377904401786],[112.59504517773632,36.943502852852056],[112.59645352111853,36.94338856419468],[112.598145918237,36.94336579158356],[112.59973140399724,36.94320140183793],[112.60105041094685,36.94307634311503],[112.6025503044883,36.943079942720225],[112.60411867760423,36.94280845063651],[112.60546485717433,36.942563781833954],[112.60634531806674,36.94206317282251],[112.60669892781284,36.94122402567188],[112.60679741026773,36.94025721688066],[112.60684101983568,36.93950570106266],[112.60653319075709,36.938282163288896],[112.60638332547424,36.93750942642022],[112.60587444763485,36.936610432592204],[112.60462363151791,36.935733385738814],[112.60405306134145,36.93543119085241],[112.60335039850412,36.93520229406388],[112.60268578063764,36.93466297206643],[112.60212782411769,36.934253322462254],[112.60184816158501,36.93366112318211],[112.60194083919757,36.933123495157666],[112.60279252858369,36.93267097959091],[112.60369048720736,36.93230126874853],[112.60475421233197,36.932048505388444],[112.60600964208929,36.93173354199213],[112.60659686628347,36.93141569024487],[112.60783800483142,36.93042149072535],[112.6081024914497,36.92958354526507],[112.60818360169445,36.928497774911094],[112.60806542868553,36.92781996555258],[112.6079932884443,36.92721304997266],[112.60838276300208,36.92667139686462],[112.60896242249855,36.92599605237185],[112.6101526508739,36.92470453307052],[112.61049130276338,36.92386557553648],[112.61087346950222,36.92297834976202],[112.61112431158926,36.922200179454855],[112.6115429197673,36.92163428321535],[112.61191398641196,36.92092599705509],[112.6125157237278,36.919892750011805],[112.612504177241,36.919344611163524],[112.61246043849285,36.91867771408028],[112.61191312573538,36.91806533238644],[112.61116913405714,36.917276824708836],[112.61056222995954,36.916653324667166],[112.61024005604446,36.916157075950025],[112.61015783500157,36.91577676788018],[112.61004598993335,36.914693611042864],[112.61011472943422,36.9137271986059],[112.61009643623368,36.91285732365081],[112.61004821392007,36.91197593411431],[112.61017099336212,36.91146173102351],[112.61056012457799,36.91090815583084],[112.61114316186924,36.910399628130605],[112.61174253464092,36.909962391582525],[112.61257606058328,36.909367019981055],[112.61289426431759,36.908266103653034],[112.61301174772683,36.90750166020737],[112.61316342452524,36.9069513027853],[112.61348083188936,36.90651788765711],[112.61396145546809,36.90608225402362],[112.61459095792593,36.90566843337697],[112.61566635531486,36.90458105120699],[112.61575765243846,36.90398383374199],[112.61584567760907,36.903231706441716],[112.6160642235833,36.902334770148364],[112.61625132995113,36.901354823495026],[112.61647338738965,36.90062471118554],[112.61691698932091,36.89984390312198],[112.61758539956026,36.89916730853913],[112.61882237872257,36.898709430498286],[112.61966076840824,36.89835233385516],[112.62082504991261,36.89796694474694],[112.62219551879947,36.89750721038989],[112.62389085609134,36.89697150135494],[112.62536438267236,36.89647456402312],[112.62702848257778,36.895867720525715],[112.6288560042088,36.8952705333788],[112.63115139605027,36.89434506644246],[112.63206766415139,36.894165605411665],[112.63285827801317,36.89435736910819],[112.63351019189548,36.89500397685131],[112.6338236827718,36.89578635053227],[112.63402748102203,36.896296085544215],[112.63413327356527,36.89708131500375],[112.63406026946559,36.89783324796169],[112.63375394208677,36.898779101815244],[112.63311703139782,36.90023011988765],[112.63263517842572,36.90129757909701],[112.63230041748861,36.90230341880969],[112.6322693651582,36.90293557766338],[112.63259441404317,36.90356284162312],[112.63343421460732,36.90396847507609],[112.63482971934151,36.90398502863053],[112.63612907065479,36.90366914781319],[112.63791040380089,36.902989020444416],[112.63917851929206,36.902602019072965],[112.64084646291812,36.90217372132997],[112.64239773322534,36.90184237111566],[112.64430584760804,36.90154181832089],[112.6453180901992,36.900991421634956],[112.64569463663987,36.900557102997595],[112.64554702542983,36.89990357922332],[112.64524669872769,36.89904953891455],[112.64457239608468,36.89805764315275],[112.6440891938911,36.896979661937],[112.64387254386764,36.89587414974447],[112.64424447025881,36.895225349436],[112.64490594706784,36.89493012170845],[112.64641587277706,36.89475424575224],[112.64734747794675,36.89528962259694],[112.64799823910211,36.89587656725847],[112.64875927193113,36.89675996492395],[112.64973188221639,36.89781920857241],[112.65052314287573,36.89872601288113],[112.65104736000464,36.899636523649384],[112.65182433268973,36.90056735570121],[112.65265270232281,36.901127964164885],[112.65386890557325,36.901778521038345],[112.65507817767066,36.90210733750813],[112.65671516177741,36.90231098010711],[112.65831860983377,36.90233627738132],[112.66006655516306,36.90218074188823],[112.66114268843121,36.901843868716874],[112.66147075762647,36.9012313872447],[112.661728775241,36.900810596699294],[112.66207994609583,36.900579213102816],[112.66271741301902,36.900546450497444],[112.66294048251956,36.90056716529286],[112.66382465309641,36.90096004213302],[112.66433739268234,36.90133427880668],[112.66530282917131,36.901368421612496],[112.66584946373479,36.90125348025279],[112.66625349239321,36.90072335684025],[112.66662628639747,36.900122154219986],[112.66699570332162,36.899366045518946],[112.66702236420443,36.8979997041445],[112.66682752778111,36.89723006050822],[112.66653508910312,36.896476088094765],[112.66596422296296,36.895611595012376],[112.6641559124701,36.893527206806006],[112.66294727310931,36.891992224694114],[112.66251139244788,36.89119018899339],[112.6622955023074,36.89067828956654],[112.66199460646405,36.8895310810808],[112.66187561008674,36.888560119106806],[112.66186342570232,36.8875876618008],[112.6617193746088,36.88710336333689],[112.66127510028626,36.886322893894],[112.66046792411541,36.88481802521354],[112.66026096556313,36.88430599730365],[112.66028386722446,36.88371923872738],[112.66055114037003,36.88276909712192],[112.6609219924269,36.88235388178672],[112.6616558631948,36.882257797519514],[112.66262409032379,36.88256845776531],[112.66315904723531,36.88315217289841],[112.66382778699277,36.884430109099846],[112.66443659537947,36.885680274195636],[112.66521763233328,36.886661025248735],[112.66592608978596,36.88703251240744],[112.66661729828942,36.887156313049005],[112.66718547909393,36.88708158986431],[112.66755776600779,36.88673308409598],[112.66779536146556,36.886195756064346],[112.66834049968513,36.88506290329476],[112.66842256918301,36.88447054583361],[112.66893474919972,36.88400564330625],[112.66935365081535,36.883618333639625],[112.66986932169723,36.883859009010514],[112.67022903948295,36.88456911745024],[112.67021504437643,36.885561013445916],[112.67015438612326,36.88713523381029],[112.67023174958221,36.88905079195379],[112.67045324032226,36.889953554991514],[112.67089480200507,36.89114882206741],[112.67138345096159,36.8917808288839],[112.67214652168025,36.89301924439389],[112.67245820986851,36.89370141399696],[112.67279968032612,36.89411616920872],[112.67320383013455,36.894139082854046],[112.67368668587915,36.89396063845615],[112.6748460233884,36.89322912946107],[112.67548480941153,36.892581237499094],[112.67594328802888,36.892374522329185],[112.67645257202444,36.89231965668706],[112.67702954268098,36.89264525392484],[112.67784763946189,36.89313908315579],[112.67853519611081,36.89363475031831],[112.67894418737552,36.89442041860373],[112.6796939109807,36.89612621335865],[112.67991595417125,36.89704801791947],[112.68001701359886,36.89786664442722],[112.68006751251316,36.899086477122175],[112.68008904801545,36.90006833207449],[112.68004830987427,36.90091757003177],[112.68007084313213,36.90140356249552],[112.68026456962873,36.90211598616768],[112.68047267842091,36.902942631414554],[112.68060371691918,36.90350337327135],[112.68103317776446,36.90413617394668],[112.68195161791071,36.904866938206666],[112.68316578077464,36.9055458272564],[112.68456527545206,36.90601229297479],[112.68561047764719,36.90602606730122],[112.68694014391508,36.906016721406374],[112.68788082575931,36.90613685122593],[112.68909851987945,36.90643420756619],[112.69017651445355,36.90685750241002],[112.69110062888005,36.90730204951241],[112.69214640589652,36.90787835239961],[112.69314408277316,36.908426723442226],[112.69347365196913,36.90883205079396],[112.69448828342338,36.90960902144603],[112.69579949569783,36.91037221287124],[112.69689071993412,36.91085246908461],[112.69799382915257,36.911332545161684],[112.6988103555967,36.91174042754271],[112.69954231359043,36.912082765846215],[112.70049601505936,36.91225028558072],[112.70133271563834,36.911961770173804],[112.70222452461375,36.91148175052117],[112.70258230836446,36.91090556673421],[112.70264862069016,36.910789430707084],[112.70299314315831,36.9101860566948],[112.70287930822964,36.907470076874546],[112.70252386182135,36.90518404128896],[112.70284244225768,36.90455966704613],[112.70331087277886,36.903732896529725],[112.70409235539154,36.90310187811068],[112.7046480924246,36.90246455948157],[112.70487381246016,36.90193686732467],[112.70491544668553,36.90178242924251],[112.70545132738862,36.900596223479056],[112.70542076608417,36.899223551773375],[112.70467967041965,36.89793259719087],[112.70431417130845,36.896528740746014],[112.70479355974282,36.89566366542717],[112.7050987322959,36.8949727286433],[112.7055081669678,36.8941658680467],[112.70589339962957,36.8928565880261],[112.70563055601652,36.89104861759631],[112.7050088008018,36.88978217228653],[112.70388455758362,36.887938882828664],[112.70268937650546,36.88623963099937],[112.70224497460802,36.885687940489234],[112.70250774870213,36.88522646966705],[112.7024512644717,36.88487231430352],[112.70322631614646,36.884360587449486],[112.70360059324511,36.88451017187069],[112.70444954081232,36.884652944070474],[112.70559860736678,36.88494635266962],[112.70648227134467,36.88531507941998],[112.70762923148173,36.88551314424125],[112.70815865591636,36.885195892725136],[112.70826141620518,36.88453358177088],[112.70844827479895,36.883863408427814],[112.70858660402943,36.883146256072045],[112.70868507964192,36.88223896564019],[112.708718520012,36.88160914145818],[112.7088132028029,36.88106425540482],[112.70904515178114,36.879002150809704],[112.7092383957247,36.877825829844426],[112.70908724333266,36.87503886531718],[112.70846689932662,36.87383201066768],[112.70782741365902,36.87311269835685],[112.70711994458576,36.8725221293064],[112.7057471768863,36.87228581560791],[112.70437954670388,36.87282990041202],[112.703405185571,36.87371399477803],[112.70279391479379,36.87424721274033],[112.70217337648388,36.87436338167185],[112.70075698905,36.87404992600651],[112.69902197930068,36.87408667466934],[112.6986408512043,36.87429475583693],[112.6973383205613,36.87443256978505],[112.69498993866138,36.87423963388329],[112.6922635201131,36.8730508060419],[112.68704758861995,36.86996634626241],[112.68520446211748,36.868454899020875],[112.68447745765235,36.86698100467373],[112.68543393475785,36.86595190033422],[112.68657243206337,36.86510614733534],[112.68753829725574,36.86450599345571],[112.68847485174577,36.86419231522708],[112.6903912387544,36.863106614385245],[112.69171074262799,36.86240127209085],[112.69336642975232,36.86160530191663],[112.69501039098421,36.860280253290675],[112.69559622117593,36.85911951487361],[112.69550909652834,36.8578620636999],[112.69474799238223,36.85778710386656],[112.69226281176081,36.85755553287983],[112.68937326744619,36.857281982870745],[112.68806041184801,36.85693829237653],[112.68760717339795,36.85630919059108],[112.68848300900187,36.85566739820888],[112.69056499892145,36.854836803133914],[112.69279446044993,36.853431935222396],[112.69449669309961,36.85233491703533],[112.69579028224585,36.8512723149499],[112.69680169148519,36.850328157083474],[112.69731869471084,36.849562693911096],[112.697547025273,36.84902305604797],[112.69823850564715,36.84772143550266],[112.69812740104628,36.84672178865894],[112.6964998522497,36.84635884688072],[112.69587873730616,36.846439230571484],[112.69190090723568,36.848424180293634],[112.68729150866203,36.84899306118886],[112.68518647259212,36.84930900466612],[112.68265545117876,36.84967862198604],[112.67977195553748,36.850300339129674],[112.67964427501369,36.85031448738867],[112.67863574033335,36.850586201971446],[112.67702444065375,36.850966541276364],[112.67627902830307,36.85106288028825],[112.67578801915187,36.8513987856335],[112.6757667983475,36.85205704065164],[112.67633899257278,36.85299299345315],[112.67640518013881,36.85357849884843],[112.67649291146428,36.8543353407348],[112.67601125339918,36.85510021686252],[112.67500233083143,36.85617289605326],[112.67432491369823,36.85694052541947],[112.67334685362974,36.8577982055265],[112.67290260215357,36.85864836227109],[112.67241308867453,36.85905574940838],[112.67136321720412,36.859070523950024],[112.66975766802594,36.85890715557314],[112.66886016920414,36.858562181451845],[112.66716007049655,36.85814264503929],[112.66634029209459,36.858096932610295],[112.6657383910685,36.858248407952836],[112.66537464345285,36.85871121676432],[112.66531588159305,36.859284176415514],[112.66511279671118,36.86058863358001],[112.66496909245384,36.86134872708255],[112.66451200572499,36.86161259378602],[112.6640649565418,36.86151873272833],[112.66366416103936,36.86109524443306],[112.66296315233068,36.859960786091804],[112.66217505033829,36.8589133622552],[112.66152236911363,36.85836465935434],[112.66111093071984,36.85827028806676],[112.66049555578766,36.85862217274716],[112.65998090660858,36.85951617720607],[112.65933827861392,36.86025462912766],[112.65843303955329,36.86119699130877],[112.65773885120076,36.862021975122374],[112.6566144687841,36.86270991990877],[112.65570176037113,36.863309084158594],[112.65464544021322,36.86385302804241],[112.65402382148986,36.86391889832168],[112.65341198487228,36.863612740028316],[112.65295014608446,36.86283247858115],[112.65228517361417,36.86171175889917],[112.65147355215937,36.860392824702835],[112.6506147298019,36.85936060959179],[112.64939788636728,36.8582332342224],[112.64843450211283,36.85730257803195],[112.64756625091992,36.85665666274943],[112.64650381585628,36.85608495008965],[112.64556626154781,36.8555258018848],[112.64457564405205,36.854981683784864],[112.64372310100205,36.85423539857182],[112.64334484304318,36.854026078389275],[112.64252082887567,36.85378001131874],[112.64183855684034,36.85350337176053],[112.6409501090806,36.85357285988786],[112.64013955572169,36.85395594245938],[112.63978331039192,36.8547761581967],[112.63955314307776,36.85566614943728],[112.63971077456647,36.856379147691],[112.64006781569134,36.85726103415383],[112.64078014307483,36.85810940581358],[112.64214258341606,36.85939219598781],[112.64333848352767,36.8603769016422],[112.64473046602492,36.86137318341575],[112.64551161165014,36.8621061449615],[112.64618415764474,36.86275478557856],[112.64615470400082,36.86304126319451],[112.64578437273617,36.86320373146812],[112.64512532019442,36.86318425357442],[112.64445368262307,36.86340810307764],[112.64416280453665,36.86395566072552],[112.64414897521382,36.86497139586324],[112.64433059990294,36.86597012292868],[112.64439625231138,36.86654135071541],[112.64434039586294,36.867257296048734],[112.64395622669538,36.867605896375025],[112.64314064383923,36.86776021349956],[112.64219006726074,36.867430075386835],[112.64159512548598,36.867080712630944],[112.6409738258237,36.86633121531461],[112.64013256266011,36.86528437777733],[112.63891607736923,36.86417119468234],[112.63818064173466,36.86390957200863],[112.63709387139372,36.8638673395705],[112.63583829328078,36.864256525648685],[112.63457374361322,36.86506062221389],[112.63366265632072,36.86574541688451],[112.63317197111954,36.86610974968197],[112.63271504805877,36.866387797298046],[112.63232200390446,36.86632168043457],[112.63218951459204,36.86595161108766],[112.6320304085991,36.86516710677701],[112.63154296548332,36.86456828917498],[112.63079532718793,36.86456901867402],[112.63000266360821,36.86468478898756],[112.62919517769551,36.86522032679124],[112.62820890832752,36.86572016705275],[112.62653819627683,36.86696361579117],[112.62578115335663,36.86764147485044],[112.62519337798248,36.867906979851995],[112.6246858256962,36.86803788572868],[112.6229578239366,36.868261755690156],[112.62156565171553,36.86865265772773],[112.62004315467324,36.86905485669608],[112.61878247241283,36.86949161088163],[112.61681389050152,36.87069130675659],[112.61565672012657,36.871536652393885],[112.61319143010195,36.87395407078107],[112.6118963919801,36.87502057276286],[112.61155159938536,36.87541621386772],[112.611522463661,36.87572413318708],[112.61149028957523,36.876311011942335],[112.61130532070878,36.876828447770855],[112.61111568936867,36.87712424093521],[112.61012629390802,36.87748809184977],[112.60900958691079,36.877300591208375],[112.60777172411422,36.876995524315355],[112.60720108867108,36.876669498618746],[112.60603540968323,36.87626807948979],[112.60477276437813,36.87548653300846],[112.60397094222363,36.874746429220686],[112.6034607937635,36.873763991450396],[112.60249374883546,36.872215575968795],[112.6017621585606,36.87128379568745],[112.60121652587881,36.87073093165602],[112.60024750586544,36.87050559694071],[112.59908642734625,36.87031859900161],[112.59773775992694,36.87038442437991],[112.59663135631887,36.870685371302535],[112.59413523222881,36.87121951779822],[112.5924889210272,36.87124160005094],[112.59183360683879,36.871119267871855],[112.5908430988348,36.870572315363745],[112.59017543824841,36.86985415837476],[112.59008719665486,36.86917592174362],[112.59002639549853,36.868390040593724],[112.59035194371897,36.867634747222674],[112.59070937218475,36.866271125632935],[112.59089747463582,36.86532695668995],[112.5907635065058,36.86458973441745],[112.59042686013503,36.86409361799527],[112.58961640561027,36.86292442238566],[112.58873972430108,36.86213753423574],[112.5871769469676,36.86116909458097],[112.58649359016825,36.86040344483077],[112.58584611170384,36.85922012647501],[112.58527698528627,36.858238391704724],[112.58476325354266,36.85706520094577],[112.58432761764438,36.85608168076943],[112.58399825432465,36.855215937403194],[112.58362662611626,36.854458033645805],[112.58325876825883,36.85316369428561],[112.58315062167723,36.852235402591425],[112.58324638066983,36.85112559845646],[112.58350991337187,36.850240032483164],[112.58370355433262,36.84884285082005],[112.58378177053022,36.847602163068125],[112.58355270372584,36.845125926356495],[112.58344341559838,36.84342286979997],[112.5833936065133,36.84244612000623],[112.58294988627536,36.84178453057246],[112.58190380758704,36.840678011458266],[112.58094170284079,36.84004715290158],[112.57992914014696,36.83984606647457],[112.578491048286,36.839865178930346],[112.57714656119816,36.84010950441824],[112.5759697971392,36.84057806618216],[112.5749490136271,36.84069887714985],[112.57430783475284,36.840528577692695],[112.57385230981389,36.84001014578138],[112.57377712874191,36.839236361533715],[112.57392090993477,36.83829280084134],[112.57393443617529,36.83750592144894],[112.57358002186233,36.83685503313709],[112.57300567997744,36.836326249930686],[112.57207969410328,36.83600475252092],[112.57117244435298,36.83587371448363],[112.57023505973531,36.83571922951858],[112.5692830952143,36.83557684818136],[112.56859798280045,36.83543093796799],[112.5683678207024,36.835052544405315],[112.56835516356769,36.83443288652502],[112.56838793167827,36.83313320498937],[112.56842824375981,36.83220293502075],[112.56844472739503,36.83083195005583],[112.56848649851901,36.82997317926068],[112.57089723103684,36.82853514225601],[112.57368000885135,36.826853404667176],[112.57392676663572,36.82552804470378],[112.5740740703648,36.82478574235998],[112.5740584412422,36.82402308727192],[112.5736884676118,36.822609539250514],[112.57305903164843,36.82155701718999],[112.57196915487012,36.82046290175321],[112.57108271647134,36.81989055574589],[112.56961291352205,36.81979077816002],[112.56805418308485,36.8196921562174],[112.56535490059962,36.819644300031264],[112.56431445711718,36.8195149617446],[112.56353401841129,36.81904844129553],[112.56279857477061,36.81787805870131],[112.56029355602325,36.81410618284223],[112.55973479618217,36.81345554511494],[112.55924950617519,36.81291837189982],[112.55907970468348,36.81214819734028],[112.55968781963995,36.8093848374434],[112.55946008452368,36.808661377464475],[112.55763760294911,36.80694736971214],[112.55557622412617,36.805729938420235],[112.55248915736144,36.8039251133623],[112.5504613417529,36.80259987399292],[112.54934836810818,36.8012126171043],[112.54833220217127,36.80082660825023],[112.54796398551613,36.80138448290806],[112.5471776631229,36.80296813371279],[112.5466932165816,36.80423316937372],[112.54599042184653,36.806706069692076],[112.5454988334643,36.80747056205585],[112.54485490524101,36.80773639993301],[112.5433448716219,36.80783468621418],[112.54246199494426,36.80771741258901],[112.54056946951516,36.807370057000625],[112.53815792563444,36.80730831323637],[112.53752172034716,36.80751679699174],[112.53668499977522,36.80792812239523],[112.534816376837,36.808331314481606],[112.5336572834507,36.80818893413629],[112.53244348306768,36.80788446659894],[112.53071885316487,36.8074468518944]]]]},"properties":{"code":"SXPR-P35","name_short":"浊漳河源头","name_full":"山西浊漳河源头省级自然保护区","zone":"experimental","area_km2":67.321,"feature_count":1}}]}