{"type":"FeatureCollection","features":[{"type":"Feature","geometry":{"type":"MultiPolygon","coordinates":[[[[111.87435558596057,36.74325789832785],[111.87430494498375,36.742342329048455],[111.87349699374661,36.74245680076294],[111.87183630151156,36.74230210170048],[111.87080062396349,36.74240503675872],[111.86920619287379,36.74286966985813],[111.86796180988107,36.742854921638326],[111.8655835165454,36.74210929036748],[111.8640995114475,36.74185783524398],[111.86146190248317,36.741757721683484],[111.85808509068927,36.74178211024396],[111.85657174920676,36.74155458124059],[111.85449905635518,36.74164101320785],[111.85005430639713,36.741529765588126],[111.84314916651019,36.741268917379415],[111.83828997456133,36.74118399427884],[111.83642072214634,36.740911046401095],[111.833546260378,36.74083601478224],[111.83225013806816,36.74151263163863],[111.83154668266315,36.74220894371425],[111.83072318193318,36.74276304189469],[111.83046456519746,36.74350392902972],[111.83042103358196,36.74495853924435],[111.83067503599898,36.74927201926535],[111.83090922469665,36.751749859997034],[111.83135417161644,36.754536153951],[111.83138050671052,36.759709492203115],[111.83117954029109,36.76095703040856],[111.83113058180425,36.76126090511726],[111.83123388112298,36.76259529728408],[111.8314835101614,36.76376178528576],[111.83181768589739,36.76727368203189],[111.83193807445812,36.770530569274314],[111.83192255448179,36.77184197191894],[111.8315526803693,36.77327506955061],[111.83129749492012,36.774349729140795],[111.83125898089101,36.776281185218764],[111.83157686881577,36.77828167907634],[111.83191544998691,36.77944755268045],[111.83217644533906,36.78199679986209],[111.83229258348028,36.78452320447152],[111.83263634349842,36.786165872393525],[111.8329126138547,36.78704608042839],[111.83359869841728,36.78744657789041],[111.83442769065664,36.78734523908637],[111.83498725860574,36.787007482783686],[111.83524524152067,36.78619507028234],[111.83538673098953,36.78557420407513],[111.83630164210409,36.78521016480913],[111.83688897720724,36.784705351742126],[111.83780207413233,36.78417441698575],[111.83833633404511,36.78424218381076],[111.83863763018532,36.78469305016905],[111.83852658456756,36.78538523118553],[111.83779055213097,36.785843396117876],[111.83740913381813,36.78620371640113],[111.83709242104445,36.78706423504674],[111.83682876361395,36.787352180999356],[111.83594734335526,36.78807361065893],[111.83436404166211,36.789682171541244],[111.83304529140719,36.79109821751431],[111.83240529013368,36.792223250368345],[111.8324434172436,36.793009759344365],[111.83284240783935,36.79427055629219],[111.8338724411405,36.79631370058651],[111.8349537495278,36.797593282336734],[111.83640044917105,36.799776525305845],[111.83792261177372,36.80343738271381],[111.83943660336442,36.80633535159974],[111.8398163087631,36.8085260680467],[111.84079161963645,36.81095099124732],[111.84169718577563,36.812650042906],[111.84218414948135,36.81356368051332],[111.8432703523446,36.81527254095387],[111.84388900042191,36.81760458874787],[111.84447516736371,36.819674619219136],[111.84582996657821,36.821524610577534],[111.8469258354765,36.82409166881788],[111.84882797400944,36.82715363038955],[111.85106950281863,36.828711128756],[111.8550848697323,36.8297551978459],[111.85892481593115,36.83101495484725],[111.86419038884593,36.8324430427792],[111.87062493554139,36.834899496478165],[111.87477311304718,36.83583462754576],[111.87690559026501,36.835568581827715],[111.87867519825816,36.834697231603506],[111.88018289415642,36.83287338938007],[111.87702958418814,36.82782602033791],[111.87658331497234,36.82790120217043],[111.87559504619246,36.82901114502459],[111.87419730608067,36.82997505725081],[111.87257201349911,36.830493628990425],[111.87097667031485,36.83038610966348],[111.8689712154787,36.83007297004236],[111.86744970037255,36.829935058679474],[111.86426108553329,36.82989866855668],[111.86333502747091,36.829965004904125],[111.86244269738579,36.82973306823403],[111.86184424361532,36.82926058552226],[111.86112957812153,36.82834191140894],[111.86056285581651,36.82739236604053],[111.86047436942572,36.82611154385346],[111.86046869558947,36.825604961699085],[111.86039122255845,36.82530750724067],[111.8593082690048,36.82460009303742],[111.85781827672697,36.82395520897054],[111.85747835538201,36.823391442618934],[111.85694813893065,36.822382000901854],[111.85648241650787,36.82050787696008],[111.8563986588982,36.81964422901128],[111.85613289429102,36.81907990609712],[111.85538795938493,36.818757465683795],[111.8543025139019,36.81781160958081],[111.85392161377048,36.81689049806547],[111.85383919806408,36.816146052911776],[111.85405561429435,36.81560807294437],[111.8545294825962,36.81488943829145],[111.85489380390946,36.81432058776351],[111.85511054261288,36.81381240045116],[111.85514229934405,36.81333534732647],[111.85487723066844,36.812830635046815],[111.85405692374817,36.812389507003964],[111.85327105095112,36.81170970690131],[111.85226545460333,36.81126988397453],[111.85184953830723,36.81052782273642],[111.85172779604957,36.80957504536737],[111.85214312269808,36.806919739730056],[111.85153567188014,36.805612818933795],[111.85097420455138,36.80511020547653],[111.84959683888069,36.804553810620746],[111.84747669116987,36.80385370722811],[111.8466958788515,36.80362084560779],[111.84595147328942,36.80332811943738],[111.8454608821254,36.802526962317664],[111.84498874948969,36.8000269829592],[111.84453066724853,36.79880836641064],[111.84350932119774,36.796908313569446],[111.84279419366706,36.79590011714541],[111.84137544513634,36.79492671724648],[111.84021771717418,36.7941004437591],[111.83894853721233,36.79324514332415],[111.83856764397387,36.79229417548383],[111.838701575997,36.79098196100859],[111.8394321996546,36.790023160665555],[111.84038705493539,36.789241562622],[111.84137439440423,36.788042527530905],[111.84132597642889,36.786999810495516],[111.84123106280703,36.78509317758708],[111.8412925005941,36.78393048087165],[111.84120865021569,36.78303702291726],[111.84072022038858,36.782414631915486],[111.83934076428746,36.78161971568706],[111.83780635390441,36.78020002113343],[111.83715849145747,36.77853567195375],[111.83651841394426,36.777586514842525],[111.83587447512359,36.77627976059754],[111.8357478727818,36.77485016575755],[111.83634761988151,36.77207437371373],[111.83640719050467,36.77073287844405],[111.83664356807758,36.76861527514411],[111.83700320548756,36.764202086412176],[111.83672031549614,36.762028545509644],[111.83696339634415,36.760536749063654],[111.8372834174541,36.75931265359121],[111.8368627620586,36.75809373839527],[111.83561503654518,36.75574815306213],[111.83556600411055,36.75464584176238],[111.83540492513049,36.753454915991334],[111.83515358672366,36.750774513298325],[111.83471289454887,36.74770803830652],[111.83491663626441,36.746007905436954],[111.83605190638609,36.74483767517011],[111.8374917979595,36.744440142785386],[111.83889919516837,36.74446004554827],[111.8402013634858,36.74501710820821],[111.84280640859816,36.746190761043515],[111.84525717594269,36.7467992415469],[111.84781415562097,36.74695989158514],[111.85018268962011,36.746823781531354],[111.851632405545,36.74732006202585],[111.85305042393759,36.748293377419735],[111.85383298927876,36.74873480084002],[111.85513001937798,36.74881490482432],[111.85676064938272,36.74892237239869],[111.85780412154412,36.74951090140752],[111.85974166031066,36.750569803072686],[111.86145504713151,36.7514514760376],[111.86282754127495,36.75165013666481],[111.86419232716067,36.75116341908924],[111.86514007968057,36.74981546360823],[111.86649711636039,36.748643307129065],[111.86748785774024,36.74783145011778],[111.86836246059447,36.74657340742652],[111.86876205085179,36.74588505312812],[111.87011930900945,36.74474265727918],[111.87214404344392,36.743684792738556],[111.87328748588232,36.743288969948146],[111.87435558596057,36.74325789832785]]],[[[111.88248643582813,36.82479514789893],[111.88326311993022,36.82464038100042],[111.88422685130485,36.82463321419743],[111.88600672920171,36.824679575071556],[111.88667668325952,36.8249129971428],[111.88809139960743,36.825438850399436],[111.8895799501732,36.82593436083833],[111.89058455429006,36.82625464962767],[111.89228929254121,36.82621207584558],[111.89403213982682,36.82625857527345],[111.89499102752235,36.82583415497478],[111.89627481960328,36.824662219443184],[111.89693366006551,36.82394202612214],[111.89869622267497,36.82314195258183],[111.8996708490755,36.82280081734345],[111.90165727733665,36.82276192321793],[111.90296057324207,36.8226328139136],[111.90426164545826,36.8223130077202],[111.9057070069636,36.821658286877444],[111.9063514806913,36.82098583254167],[111.90687312593757,36.81995667836941],[111.90689209213139,36.819050572135296],[111.90703274581865,36.818405786388965],[111.9082360343972,36.817347605262185],[111.91018364067762,36.8165459522137],[111.91160486027627,36.81636816458216],[111.9122828448883,36.81602919664367],[111.91298481761531,36.815213220886534],[111.91400271056067,36.8135365118904],[111.91482124366856,36.81255273422229],[111.91599468923137,36.81149468631548],[111.9163447905197,36.81101517076884],[111.91695829855867,36.81024753454825],[111.91775252697606,36.80971689255135],[111.9197571365716,36.80874774755902],[111.92051997180847,36.80807430358106],[111.92092475064518,36.807212895911555],[111.92150996924065,36.80656465174387],[111.92254071210527,36.80598446610841],[111.92286109720821,36.805505161865895],[111.92362244137496,36.80471248062471],[111.92429969002374,36.80432576418879],[111.92491536285986,36.803748797797724],[111.92538308738307,36.80319682029266],[111.92590894808708,36.80254900731984],[111.92664518408789,36.80213797034932],[111.92755897569629,36.80170171599375],[111.92793716495582,36.80110274434999],[111.92854875307061,36.80019199532756],[111.92966801393756,36.799587228863516],[111.93052160883222,36.799079896542395],[111.9313475771795,36.79873963989696],[111.93261790104756,36.79837208280756],[111.93296783067998,36.79789251963206],[111.9332855019511,36.79719862738267],[111.93330415482193,36.79629252606169],[111.93328680030395,36.79486220053683],[111.93377306540708,36.79340408279228],[111.93396374595395,36.79201980211035],[111.9339887530311,36.791638149788334],[111.93403849055196,36.790851001953335],[111.93399899973937,36.79004071484668],[111.93514364873694,36.78910192854261],[111.93534098400093,36.78826593871438],[111.93527155597508,36.78743204729655],[111.9343121198449,36.78653363949815],[111.93353226342401,36.78577683934883],[111.93287270798551,36.785162160480105],[111.9326600480046,36.78473468743423],[111.93227015200924,36.78435628393566],[111.93140920827854,36.7842438111459],[111.92999324535843,36.78480325063912],[111.92848373993496,36.784981924516686],[111.92676733928282,36.785209879416854],[111.92563708663218,36.784884911781745],[111.92500925020897,36.78443681413829],[111.92402949499606,36.78430137184473],[111.92236236869793,36.78369445063722],[111.92111447274742,36.78344185994527],[111.92060780570426,36.783332547955524],[111.92046024121564,36.78289024670405],[111.9199914072908,36.78235028959619],[111.91888550279225,36.78207274875802],[111.91808361117701,36.78193589745557],[111.91722718473522,36.781699314940866],[111.91709981621617,36.78145711644553],[111.9168924604209,36.78047169508353],[111.91700670931326,36.779612527553695],[111.9169494475687,36.77928396286395],[111.91622865558672,36.77848846668661],[111.9145135089857,36.77781502248482],[111.91347424136988,36.777150697667985],[111.91227783226381,36.77673072625243],[111.91138558595749,36.77646578881849],[111.91057971347986,36.77598559487799],[111.9095933220889,36.77527789417014],[111.90894799610476,36.77483939429231],[111.90878104148524,36.774254179347594],[111.90895159160112,36.773637768212765],[111.9089081052253,36.77296577885463],[111.90856506027689,36.77252495224133],[111.90759617771707,36.77178849101898],[111.90381311893029,36.76912801408133],[111.90210129426124,36.76769620809414],[111.90152095892745,36.76748604970249],[111.89835984259213,36.76704504606737],[111.89648728076034,36.76655849741762],[111.8948290616317,36.765390845501784],[111.8939256472979,36.76414596089914],[111.89303477567952,36.760147300724825],[111.89251650755027,36.757612100207],[111.89216732605338,36.75432461992576],[111.89151830028547,36.752004950845254],[111.89091417073415,36.749720697980486],[111.89063762816487,36.74886447619062],[111.89089681439339,36.74821882018305],[111.89182871128742,36.748104548411],[111.89538561363709,36.7482566495219],[111.8973839518011,36.74813431821526],[111.89831083025419,36.747590886353215],[111.89825390707942,36.746518453288964],[111.89783983430445,36.7453056646814],[111.89729872393026,36.74463026263843],[111.89635855792618,36.74402940844915],[111.89519872826105,36.74364474527267],[111.89261709439717,36.74327075522507],[111.88901929615581,36.74340496429482],[111.88551034523014,36.74353840351193],[111.88395847098903,36.74383605050276],[111.88187013599521,36.74385154978842],[111.88040753056623,36.74418422352303],[111.8785482613963,36.74480592923808],[111.8763379706252,36.74582354030526],[111.8754965671072,36.746080086662175],[111.87438413231031,36.74661950971965],[111.87033078471302,36.78140909289912],[111.86974399479149,36.79154488149246],[111.86816018499928,36.801455336101526],[111.86774980179432,36.804235825561946],[111.86735280478769,36.805311571414116],[111.86800246412253,36.80703806569095],[111.86832598575731,36.80798796300182],[111.87148544792265,36.814949123968134],[111.87587465700199,36.825574953669104],[111.87670206689235,36.827229293314886],[111.87961026291694,36.82612771765048],[111.8810843988965,36.825371784592754],[111.88248643582813,36.82479514789893]]],[[[111.87435558596057,36.74325789832785],[111.87438413231031,36.74661950971965],[111.8754965671072,36.746080086662175],[111.8763379706252,36.74582354030526],[111.8785482613963,36.74480592923808],[111.88040753056623,36.74418422352303],[111.88187013599521,36.74385154978842],[111.88395847098903,36.74383605050276],[111.88551034523014,36.74353840351193],[111.88901929615581,36.74340496429482],[111.89261709439717,36.74327075522507],[111.89519872826105,36.74364474527267],[111.89635855792618,36.74402940844915],[111.89729872393026,36.74463026263843],[111.89783983430445,36.7453056646814],[111.89825390707942,36.746518453288964],[111.89831083025419,36.747590886353215],[111.8973839518011,36.74813431821526],[111.89538561363709,36.7482566495219],[111.89182871128742,36.748104548411],[111.89089681439339,36.74821882018305],[111.89063762816487,36.74886447619062],[111.89091417073415,36.749720697980486],[111.89151830028547,36.752004950845254],[111.89216732605338,36.75432461992576],[111.89251650755027,36.757612100207],[111.89303477567952,36.760147300724825],[111.8939256472979,36.76414596089914],[111.8948290616317,36.765390845501784],[111.89648728076034,36.76655849741762],[111.89835984259213,36.76704504606737],[111.90152095892745,36.76748604970249],[111.90210129426124,36.76769620809414],[111.90381311893029,36.76912801408133],[111.90759617771707,36.77178849101898],[111.90856506027689,36.77252495224133],[111.9089081052253,36.77296577885463],[111.90895159160112,36.773637768212765],[111.90878104148524,36.774254179347594],[111.90894799610476,36.77483939429231],[111.9095933220889,36.77527789417014],[111.91057971347986,36.77598559487799],[111.91138558595749,36.77646578881849],[111.91227783226381,36.77673072625243],[111.91347424136988,36.777150697667985],[111.9145135089857,36.77781502248482],[111.91622865558672,36.77848846668661],[111.9169494475687,36.77928396286395],[111.91700670931326,36.779612527553695],[111.9168924604209,36.78047169508353],[111.91709981621617,36.78145711644553],[111.91722718473522,36.781699314940866],[111.91808361117701,36.78193589745557],[111.91888550279225,36.78207274875802],[111.9199914072908,36.78235028959619],[111.92046024121564,36.78289024670405],[111.92060780570426,36.783332547955524],[111.92111447274742,36.78344185994527],[111.92236236869793,36.78369445063722],[111.92402949499606,36.78430137184473],[111.92500925020897,36.78443681413829],[111.92563708663218,36.784884911781745],[111.92676733928282,36.785209879416854],[111.92848373993496,36.784981924516686],[111.92999324535843,36.78480325063912],[111.93140920827854,36.7842438111459],[111.93227015200924,36.78435628393566],[111.9326600480046,36.78473468743423],[111.93287270798551,36.785162160480105],[111.93353226342401,36.78577683934883],[111.9343121198449,36.78653363949815],[111.93527155597508,36.78743204729655],[111.93534098400093,36.78826593871438],[111.93514364873694,36.78910192854261],[111.93399899973937,36.79004071484668],[111.93403849055196,36.790851001953335],[111.9339887530311,36.791638149788334],[111.93396374595395,36.79201980211035],[111.93377306540708,36.79340408279228],[111.93328680030395,36.79486220053683],[111.93330415482193,36.79629252606169],[111.9332855019511,36.79719862738267],[111.93296783067998,36.79789251963206],[111.93261790104756,36.79837208280756],[111.9313475771795,36.79873963989696],[111.93052160883222,36.799079896542395],[111.92966801393756,36.799587228863516],[111.92854875307061,36.80019199532756],[111.92793716495582,36.80110274434999],[111.92755897569629,36.80170171599375],[111.92664518408789,36.80213797034932],[111.92590894808708,36.80254900731984],[111.92538308738307,36.80319682029266],[111.92491536285986,36.803748797797724],[111.92429969002374,36.80432576418879],[111.92362244137496,36.80471248062471],[111.92286109720821,36.805505161865895],[111.92254071210527,36.80598446610841],[111.92150996924065,36.80656465174387],[111.92092475064518,36.807212895911555],[111.92051997180847,36.80807430358106],[111.9197571365716,36.80874774755902],[111.91775252697606,36.80971689255135],[111.91695829855867,36.81024753454825],[111.9163447905197,36.81101517076884],[111.91599468923137,36.81149468631548],[111.91482124366856,36.81255273422229],[111.91400271056067,36.8135365118904],[111.91298481761531,36.815213220886534],[111.9122828448883,36.81602919664367],[111.91160486027627,36.81636816458216],[111.91018364067762,36.8165459522137],[111.9082360343972,36.817347605262185],[111.90703274581865,36.818405786388965],[111.90689209213139,36.819050572135296],[111.90687312593757,36.81995667836941],[111.9063514806913,36.82098583254167],[111.9057070069636,36.821658286877444],[111.90426164545826,36.8223130077202],[111.90296057324207,36.8226328139136],[111.90165727733665,36.82276192321793],[111.8996708490755,36.82280081734345],[111.89869622267497,36.82314195258183],[111.89693366006551,36.82394202612214],[111.89627481960328,36.824662219443184],[111.89499102752235,36.82583415497478],[111.89403213982682,36.82625857527345],[111.89228929254121,36.82621207584558],[111.89058455429006,36.82625464962767],[111.8895799501732,36.82593436083833],[111.88809139960743,36.825438850399436],[111.88667668325952,36.8249129971428],[111.88600672920171,36.824679575071556],[111.88422685130485,36.82463321419743],[111.88326311993022,36.82464038100042],[111.88248643582813,36.82479514789893],[111.8810843988965,36.825371784592754],[111.87961026291694,36.82612771765048],[111.87670206689235,36.827229293314886],[111.87702958418814,36.82782602033791],[111.87750831824778,36.827745372776775],[111.87899137817142,36.82776423171805],[111.87984838741187,36.82814529786918],[111.88081215594987,36.82813817263741],[111.88229453677874,36.82809738902599],[111.88373915967712,36.82799724866618],[111.88547757160536,36.82765649138645],[111.88628825464335,36.82723324107013],[111.8872880509591,36.827136388073974],[111.88740946729273,36.827164684945906],[111.88877490484275,36.82748289079362],[111.89056140012448,36.82809536716554],[111.8922706731999,36.828440161491386],[111.89348558316982,36.82829613645616],[111.89441786785166,36.82818561272965],[111.8957450122414,36.82754979984653],[111.89728028754477,36.82569053980467],[111.89918894619872,36.82406684375306],[111.90096427108915,36.8237255806355],[111.90270531891741,36.823622969203285],[111.90348740122273,36.82368682366251],[111.90504292403617,36.82381381428062],[111.90600689380035,36.82415499227716],[111.9061946433872,36.82403153130704],[111.90654872867059,36.823614746606886],[111.90686737878237,36.823239652739154],[111.90703627893691,36.822475450231565],[111.90739742997101,36.822216481415424],[111.90844775992589,36.821463342303794],[111.90935572664297,36.82093137906565],[111.91122861198778,36.81983404753569],[111.91133386512847,36.819772376699326],[111.91226968122658,36.81866850458448],[111.91296318643438,36.817137361075176],[111.91305230229422,36.81704262953535],[111.91385499639937,36.81618928706081],[111.91409534152426,36.81593377907826],[111.91454444365148,36.81545632465995],[111.91594491350554,36.813538250865655],[111.91882372291896,36.811274987378],[111.91999994023818,36.810455277003385],[111.92147032742311,36.80944255909483],[111.92146461451969,36.80896578070251],[111.9214623278877,36.808775074392344],[111.92216126826091,36.80772065164971],[111.92345542339365,36.80685233000742],[111.92492282334186,36.80560118535457],[111.92568672430993,36.80502306931061],[111.9268541646569,36.803488138394876],[111.9294415905183,36.801703700165],[111.93197424351412,36.80030109779132],[111.93424667957156,36.798480947443764],[111.93449926077378,36.79827863066004],[111.93584485985816,36.79678990649336],[111.93634880838111,36.794354159784255],[111.9369172393217,36.79234704319885],[111.9370587882786,36.790343828028426],[111.93706348266093,36.790277334600226],[111.93717007496069,36.78876888701736],[111.93747353814818,36.786060225278945],[111.93694752722747,36.78509913152397],[111.93574520179423,36.783725813896694],[111.93407105169935,36.78254690704309],[111.93264733299965,36.78246272621483],[111.93134273889426,36.782425255659035],[111.92968597371697,36.782676631645636],[111.92903165065374,36.78249101022226],[111.92842972132716,36.78173281276051],[111.9266475094006,36.78141292946515],[111.92521407549683,36.78051811984207],[111.92478599598837,36.77942474956474],[111.92388206472012,36.778192048108515],[111.9222749156876,36.77763231486988],[111.91948865841775,36.77760620469496],[111.91741138839308,36.77738383385054],[111.91502359065409,36.775971751576556],[111.91393412561756,36.774072842372846],[111.91333071610737,36.773171507856105],[111.91136533904609,36.772375982714486],[111.9100535905352,36.771718458170525],[111.90920756561054,36.7703421405913],[111.90722263790637,36.767877796279215],[111.90608152335561,36.7665990794544],[111.90577707883871,36.765964254489],[111.9057169803972,36.76583893037754],[111.90464302079255,36.765227215821184],[111.90273383262988,36.76414502759309],[111.89974581254167,36.762021942117606],[111.89609449496311,36.758902440472],[111.89440657288743,36.75643564689211],[111.89373265591855,36.75453339752568],[111.89342644742976,36.753677404213626],[111.89344161068165,36.75353525718994],[111.89342423922065,36.753486691006785],[111.89353114489826,36.75248455630354],[111.89400071505645,36.75209956946298],[111.89512813292028,36.75223413657062],[111.89702913661542,36.752648977013],[111.89892348566754,36.75249162367791],[111.90021862862778,36.75176660491029],[111.9009716167014,36.750282727036165],[111.90117256713997,36.74809341002938],[111.90098849566932,36.74665871073775],[111.9009930120179,36.746520563933984],[111.90103214099787,36.74532326546484],[111.90102990908437,36.74513255603344],[111.90102697117548,36.74488107527762],[111.90101988782978,36.7442743381171],[111.90077343168653,36.74346559571927],[111.89975961354975,36.74290106128393],[111.89851217946102,36.74262440347318],[111.89691096082504,36.74249342417598],[111.8937639192417,36.741897214679334],[111.89215112127104,36.74076493948807],[111.89188327764279,36.738096709254066],[111.89316224853846,36.735989057429165],[111.89415436984409,36.734694182314634],[111.89473069779824,36.73330704957989],[111.89641805573694,36.730671788193696],[111.89806604158349,36.729753382976696],[111.90049237628938,36.72954431792598],[111.90279575099339,36.72895467003341],[111.91256906486129,36.72888012747854],[111.92026240778088,36.72824869582506],[111.92339025854282,36.72727080392314],[111.9250953700508,36.726208539461496],[111.92548768744884,36.724345843491434],[111.92634806236812,36.72200267721212],[111.927216401165,36.72032702437344],[111.9270158121417,36.71842125179944],[111.92727298934422,36.7151768105835],[111.9261277753765,36.71351681783475],[111.92410115764056,36.712435854645086],[111.92249483729219,36.7118284301877],[111.91988748248205,36.71170556056855],[111.9166327147007,36.7119214200405],[111.91357891464061,36.712230994826],[111.91132751036501,36.712784689935404],[111.90767589387858,36.713885471440406],[111.90442957268931,36.714834053175274],[111.90044430804969,36.71590734374275],[111.89889180579009,36.716097873067135],[111.89748247797137,36.715870104448875],[111.8944010065877,36.7150886416039],[111.89213939350738,36.7147777976115],[111.88936372582752,36.71482836892553],[111.88614319981127,36.71482258163549],[111.8841523204334,36.715522831977566],[111.88297435337905,36.71609782936788],[111.88213325363694,36.71699811209928],[111.88140112233373,36.71771877330414],[111.88033108413298,36.71802472645845],[111.8790053273357,36.7186305462534],[111.87797568952644,36.71923420168595],[111.87717047898575,36.72004477808819],[111.87706585688808,36.72061178514649],[111.87719486920842,36.72219033476613],[111.8775901224627,36.7243927640695],[111.87807132233588,36.727637620490555],[111.87823837955702,36.72930529362651],[111.87873934453917,36.73103010563582],[111.87885890903996,36.73177426967277],[111.87799303472195,36.73309233265455],[111.87740312088921,36.73399034901618],[111.87693808530567,36.735424266220214],[111.87723047256007,36.73834269032564],[111.87741248581847,36.74132152963708],[111.87694775127427,36.742785235067856],[111.87606351432188,36.74317917049655],[111.87465716015011,36.7432491239261],[111.87435558596057,36.74325789832785]]],[[[111.71821639758744,36.81319697352264],[111.71933729178467,36.812472402158996],[111.72055425725902,36.81197391653708],[111.72111274485185,36.81140383883196],[111.72125121502579,36.811138535240175],[111.72134128695745,36.81072240853056],[111.72171324924396,36.81030458299661],[111.7220827139614,36.80962231477927],[111.7226425790066,36.809203347916856],[111.72474748259744,36.808208295208246],[111.72648577886109,36.80819768331928],[111.72812722772167,36.807885427576885],[111.72892196875831,36.807464989330526],[111.72914790499838,36.80651911586359],[111.72889584100231,36.80470725922447],[111.72878006849423,36.802403401121424],[111.72870984006695,36.799948173240814],[111.7288616509681,36.796131522534615],[111.7287564231303,36.78997411809216],[111.72886732756406,36.78679996566186],[111.72847662164304,36.785215617074066],[111.72832929908516,36.78453648678182],[111.72737893012068,36.783371127041406],[111.72647876139446,36.78254546916784],[111.7262350475449,36.78160246668309],[111.72622937462465,36.78099802879573],[111.72696975520059,36.77982234953736],[111.72817370063864,36.778001581265045],[111.72914384002128,36.776295571832485],[111.72923384509794,36.77587944656611],[111.72922670152634,36.77512388470403],[111.72925654766989,36.773310283299615],[111.72913875742898,36.770779760364235],[111.72902882134866,36.76908035336166],[111.72896548386878,36.767342879051654],[111.73008133372647,36.766164882849466],[111.73077600872526,36.76514057514724],[111.73160615109833,36.76354873839905],[111.73225167439928,36.76229804761538],[111.73228536540434,36.76089999555101],[111.73231405443306,36.75897305650721],[111.73262799079117,36.75742216153994],[111.73284443296566,36.75549406960892],[111.73307306731334,36.754850409572704],[111.73335223199642,36.75458423401249],[111.73457282874926,36.75457671831246],[111.73593498291928,36.75464384830634],[111.7378204348766,36.75542556439456],[111.73951958432478,36.756359524303996],[111.74051272374211,36.75710894865481],[111.74089338181055,36.75763548544615],[111.7414600282725,36.75797196498574],[111.74225453274536,36.75758922426466],[111.74243687126499,36.75702139355386],[111.74294238464012,36.75588485367269],[111.74378159960611,36.75527514792261],[111.7446211817672,36.754703182751534],[111.74579192572146,36.75439362578945],[111.74747798111011,36.75396748386745],[111.74873966588288,36.753355067805145],[111.74913086120735,36.75254501188236],[111.74912672796674,36.75212001522803],[111.7491234212267,36.75178001932546],[111.749047226668,36.75118546969015],[111.74897268686249,36.75076091612183],[111.7488568890063,36.74971325853561],[111.74853066278396,36.748751926960324],[111.74782101880726,36.74818968617331],[111.74763893223842,36.747567462892476],[111.74766232004966,36.74634892217215],[111.74783010363306,36.745497827834484],[111.7479613214258,36.74450528767941],[111.7481620969779,36.743427299323834],[111.7473350891393,36.741647394347325],[111.74531253810291,36.74001664655992],[111.74407220482105,36.73917434998814],[111.74177801236846,36.73856531078991],[111.73902701423674,36.73804405476176],[111.73635267091792,36.73817394938711],[111.73452429182667,36.73841193572953],[111.73340075649963,36.73873053606659],[111.73266149019092,36.738735081574035],[111.73209636398454,36.73854021180512],[111.73170347612421,36.73794759593049],[111.73081587118793,36.737159675424344],[111.72943627073812,36.736459764704236],[111.72689529754935,36.73579525591637],[111.72590562999106,36.73537628290881],[111.72498664147524,36.734985187274184],[111.723855935897,36.73453870026993],[111.72142252002804,36.73407178017215],[111.71959204767936,36.734082846727915],[111.71818398866962,36.73409133949246],[111.7167746100184,36.733958170222344],[111.7143811574063,36.73400087933001],[111.71328991396221,36.734007432757764],[111.71122061188952,36.73484150474832],[111.71058959291175,36.73512861686941],[111.70946493185666,36.73533368556896],[111.70745580899123,36.735062275941864],[111.7065754990326,36.735039180407995],[111.70503255938515,36.73570002399768],[111.70337545597307,36.735426477549666],[111.70217882991555,36.73546187814712],[111.70031387969455,36.73555785641027],[111.69879888703933,36.73542509298004],[111.69742138316394,36.734923148821586],[111.69607706616232,36.73419430834595],[111.69522610744139,36.733519242807475],[111.69507714376786,36.73261339962134],[111.69531230019942,36.73136530438029],[111.69593544195212,36.73019992173018],[111.69603236312925,36.72923596626246],[111.69584769186024,36.7282736743669],[111.69474836918708,36.7273733662077],[111.69343841065606,36.72653095903636],[111.6917433277353,36.72591744912582],[111.69078994467698,36.72558297314032],[111.68923921941689,36.725365276680996],[111.68832256440095,36.72520057789137],[111.68743962049564,36.724865663933585],[111.68634221444351,36.72416361184492],[111.68580822175207,36.72348666948048],[111.68506558538837,36.72309424959167],[111.68425958502532,36.72349557977768],[111.68342012496387,36.72409544356776],[111.68226662376156,36.725008767474606],[111.68146107715575,36.725466756593626],[111.68030080772043,36.72561506049141],[111.67864926080625,36.72593618227424],[111.67763150388016,36.726281991735455],[111.67682741003777,36.72690992681412],[111.67560339754522,36.72782360253374],[111.67459473433763,36.72921773938185],[111.67347624861983,36.73013078056368],[111.67211697858407,36.73169687229092],[111.6702308622056,36.73340759273884],[111.66949875151595,36.73423341591403],[111.66911570227163,36.73471727388193],[111.66905264439823,36.73556767768623],[111.66906171417291,36.73661601984722],[111.6697719138554,36.73732038703067],[111.67174872069647,36.7379326203228],[111.67330506418111,36.73877387745075],[111.67458155508906,36.73981502821206],[111.67473697665216,36.74148590745014],[111.67446449088175,36.74253583938901],[111.67356174837388,36.74398603145421],[111.67219955334676,36.74524047448028],[111.67133095992614,36.74657710933302],[111.6705307547079,36.74768669339089],[111.66973473284777,36.74927792305588],[111.66918023431529,36.750301097338],[111.66890960662893,36.75157768551174],[111.66810591044157,36.752290562000084],[111.6677599274299,36.75300090040693],[111.66699139767059,36.7537136638664],[111.66640064078514,36.75462370267272],[111.66563307982146,36.75544970238663],[111.6649364140803,36.75633197214836],[111.66469674653149,36.75712668561629],[111.66456100815448,36.75772247385557],[111.6643264683985,36.759112189486665],[111.66348962864419,36.76008023303963],[111.6633582727271,36.761186022258165],[111.66343893180853,36.762375638094966],[111.66373697780514,36.76427241277934],[111.66449577809237,36.766506633903056],[111.66609739918515,36.76845276884873],[111.66723613365701,36.769806448675084],[111.66869115271786,36.771073216484346],[111.67060727578367,36.772705841602786],[111.67238380613794,36.7744809138103],[111.67359787375172,36.77637246784281],[111.6740988939399,36.77727634757634],[111.67509628339107,36.77854576455367],[111.67591458586507,36.77947615753858],[111.67663047169168,36.780775480718894],[111.67745180382362,36.78204587722572],[111.67799161796466,36.78334620487193],[111.6785691909286,36.7849296606775],[111.67921273217193,36.7860026994693],[111.67964043250744,36.78656694182907],[111.68067098414215,36.78758110753428],[111.68152192135697,36.788199609038415],[111.68275637405347,36.788362550289065],[111.68417172945311,36.78906277116113],[111.68487978788772,36.78945539032884],[111.68654302953094,36.79029585330204],[111.68887819111917,36.79141574265815],[111.69008684510203,36.79262713983119],[111.69150642086267,36.79378062382892],[111.69225489150126,36.79473963408217],[111.69254309166128,36.79544632584591],[111.69279810252047,36.79637988588276],[111.69287595090468,36.79720113686276],[111.69296094799303,36.79881571625592],[111.69300179776367,36.799438839847895],[111.6926639999126,36.80105588708865],[111.69180286564585,36.80194406049228],[111.6915730652825,36.80251208675321],[111.69129899853355,36.8033826047598],[111.69088128980408,36.803951718106035],[111.68961625303338,36.804336842919255],[111.68910219571073,36.80464206835762],[111.68905758455531,36.804906784271516],[111.68925227491518,36.80566124183344],[111.69019964729873,36.806524672507926],[111.69095403594795,36.80682253561921],[111.6925098285627,36.807417974489724],[111.69401421952169,36.80752253056471],[111.69603368945305,36.807435192203975],[111.69748905010157,36.807313337609386],[111.69870951890415,36.80719282659245],[111.69932025993394,36.80718924123612],[111.6999337585246,36.80748787466406],[111.70068956586944,36.807936784195526],[111.70135314384798,36.80857513059548],[111.70215665667197,36.809099307651366],[111.70338403834198,36.809734298685065],[111.7039519590731,36.810184290167875],[111.70419309724325,36.81086289305983],[111.70429225319396,36.811428997933795],[111.70448744296063,36.81222121057505],[111.70500910520731,36.8127470362724],[111.70660654784275,36.81273757202875],[111.70787476345576,36.81269226381952],[111.70890770227942,36.8126105360148],[111.70985084751214,36.812982713006285],[111.71089427234088,36.8140343129406],[111.71098893998595,36.81410930613807],[111.71165649685332,36.815163142178974],[111.71232688842858,36.81651919108379],[111.71294436230771,36.81723330548138],[111.71346191298514,36.8173057487227],[111.71500790117798,36.81680533703523],[111.71575192433377,36.815969723158624],[111.71654364032429,36.81520937814983],[111.71766106173402,36.814107032508204],[111.71821639758744,36.81319697352264]],[[111.725836814398,36.74262178958247],[111.72708634266569,36.7428213462873],[111.7285741276074,36.743083213052266],[111.7294484707351,36.74339663181011],[111.73111357438782,36.74356175486891],[111.73178869435978,36.7437488717705],[111.73232686396868,36.74411214214435],[111.73279086249636,36.744420972688474],[111.73311607607822,36.745727885783374],[111.73312807420125,36.74698713665897],[111.73188921568631,36.74835482404485],[111.7309628077681,36.749670204417015],[111.72954135095964,36.751593084557236],[111.72886187939896,36.75255432489843],[111.7281198147612,36.75351594703427],[111.72743983320035,36.754426810809676],[111.72745172330366,36.75568606155207],[111.72770970308777,36.75649045278916],[111.7287828802659,36.75744098067289],[111.72910347925047,36.75824498588844],[111.72842771967254,36.75960918574816],[111.72743608092014,36.760673071518084],[111.72613943492915,36.762595144855496],[111.72578130575248,36.76446112166988],[111.72567545051062,36.766527077101614],[111.72545006724897,36.769198208339304],[111.72527450880465,36.7705089705621],[111.72505099072852,36.77338157675392],[111.72538060145807,36.77514261681599],[111.72514054162274,36.77625227779136],[111.72365714320225,36.778326603281776],[111.72285868534438,36.77999375014869],[111.7228102116611,36.78150522376407],[111.72264453796176,36.783873744710796],[111.72315636997135,36.78502921030754],[111.7243608240167,36.786583447641185],[111.72487128030319,36.78758779642135],[111.7247559777486,36.788646323044986],[111.7237012899893,36.78971055697989],[111.72296064934564,36.790873623463455],[111.72184139205635,36.79173677302757],[111.72103195000722,36.79224539944862],[111.72147694451533,36.79294792294652],[111.72160927491687,36.793702710436115],[111.7209278977353,36.79451279564818],[111.71955992355224,36.79557889011817],[111.71769415017494,36.79700060304413],[111.71639199789074,36.79841887054106],[111.71495658667101,36.79898159103075],[111.71483926281063,36.79983862826692],[111.71428396277956,36.80074868923142],[111.71229269397031,36.802171044780664],[111.71079872771553,36.80318743531307],[111.70999187786059,36.80399821730259],[111.70943370600384,36.8046060128183],[111.70762785048,36.80577532060958],[111.70669567267909,36.8065868294451],[111.70594815213222,36.80704462673759],[111.70500947340688,36.80715093100601],[111.70463224518902,36.80700204363194],[111.70462717706862,36.80644797574296],[111.70430753380016,36.80574464990425],[111.70354941664395,36.805043914261205],[111.70319247409748,36.804757560345266],[111.7022608268287,36.80474711605775],[111.7014281365039,36.80472016756044],[111.70067341758221,36.804549292673656],[111.70011471963888,36.80413818388201],[111.6995163891804,36.80372730553001],[111.69944924586555,36.80288297425659],[111.69960011779456,36.80203736415118],[111.6994161096174,36.801416854183785],[111.6993079063678,36.80041338302317],[111.69876732910274,36.79981090285334],[111.69804780109838,36.7991457136751],[111.6978846383256,36.79863664754943],[111.6978797310197,36.798094776440585],[111.6973199405669,36.7975561553797],[111.69620470601002,36.7969570345491],[111.69538975676572,36.796690861123295],[111.69486759295137,36.795928872936656],[111.69412719454728,36.795136276315155],[111.69386441256555,36.79456402945376],[111.69340304164386,36.79394512596217],[111.69323992443114,36.79343604986106],[111.69283887141938,36.79291242024931],[111.69219902508677,36.79227860915223],[111.69082456820207,36.79148969030805],[111.6896497394459,36.79085897661524],[111.68827535047419,36.79007001037078],[111.6868998279229,36.7891535366875],[111.68580361697956,36.7884426491806],[111.68458797116273,36.78766866466002],[111.6837918462029,36.78727477920207],[111.68221814277172,36.78634346539778],[111.68140025761761,36.7857265535417],[111.68066094000079,36.78502949697508],[111.68010024192618,36.78436328905638],[111.67949697375813,36.78336262432316],[111.67885155021354,36.782075324397326],[111.67872579455985,36.78129506618628],[111.67856336206933,36.7808497197731],[111.67832083884045,36.78030919812371],[111.67629668001976,36.777690883902984],[111.67591522019468,36.777119282994626],[111.67523616042513,36.77650155268229],[111.67463564950266,36.77580366807621],[111.67429439152806,36.7752955738191],[111.67407339931466,36.77494618167443],[111.67410995866042,36.774595332640835],[111.6734714022762,36.77407297971925],[111.67316713771919,36.77326186365199],[111.67262473412912,36.77240426388659],[111.67192552534975,36.77173879924975],[111.67178338012839,36.771341143056524],[111.67136097765798,36.770610359629494],[111.67074006611202,36.76983289689695],[111.67012221171454,36.76940604681295],[111.6693233108742,36.76866143454164],[111.6687606192199,36.767740170256694],[111.66845559220964,36.76683340695597],[111.66846739394724,36.76590891801173],[111.66809690127208,36.76430124150813],[111.66818973746553,36.76358349533661],[111.66861834619829,36.76275229814212],[111.66873194642261,36.76214600362109],[111.66923977533305,36.76131436146448],[111.67008709158009,36.76079955930128],[111.67069656404703,36.76027015430671],[111.67134550653803,36.75972459741674],[111.67153609413369,36.758862853941594],[111.67152929862168,36.75808191313876],[111.67142277627579,36.75722184250998],[111.67102151227283,36.756634390100544],[111.6706216373683,36.75620631891009],[111.6705584772313,36.75577634109521],[111.67057371538968,36.75525029196827],[111.67120128634338,36.7545295358364],[111.67241830691853,36.75326351946983],[111.67367225688089,36.7516944814017],[111.67483008285376,36.75046067249203],[111.6761278748708,36.74938542690871],[111.67796049659856,36.748323059907314],[111.67890635387752,36.747775773885515],[111.67965822376817,36.747691796453175],[111.68052484417282,36.74714493572328],[111.68158583697313,36.746182560044204],[111.6815740197688,36.74484380345845],[111.68093271086796,36.74398681249044],[111.68043088322322,36.74322464729904],[111.67868306124234,36.74039760395764],[111.678222282962,36.73979456750559],[111.67772176859336,36.73917581584652],[111.6777546594004,36.738410593046574],[111.67756944944746,36.737614731933434],[111.67730687092005,36.737026512481314],[111.6772424465964,36.73645310093894],[111.67798665323642,36.73550850796714],[111.67914554391601,36.73443401215356],[111.68074142534135,36.73351642069102],[111.6825542286263,36.732501913534506],[111.68338204739078,36.73206683420867],[111.68496650589428,36.73210553919539],[111.68577875025153,36.7321486779038],[111.68706804745537,36.73239626967225],[111.6881609059802,36.732820276161355],[111.68889748703661,36.73326229570562],[111.68967499210696,36.733847495903504],[111.69037558336478,36.73468817565342],[111.69109327174864,36.73522592416734],[111.69192849111838,36.73561951936558],[111.69341330308274,36.73557900981779],[111.69446793274349,36.736146629890335],[111.69610100977684,36.73717309650536],[111.69778977404054,36.73778479383745],[111.69955418687957,36.73799756546533],[111.70131814966723,36.738162523541675],[111.70290494181668,36.73844004139964],[111.70431424980761,36.738798308210185],[111.70550354487999,36.73891875612635],[111.70669666042184,36.73945359272435],[111.70820940907599,36.74028932364705],[111.70902660355453,36.74085824692645],[111.70960148596774,36.74091857873226],[111.71094909545602,36.74102210179151],[111.7119419001228,36.741303058305675],[111.71305543663253,36.7417904923504],[111.71436762153164,36.742340460251405],[111.7157169005859,36.742619250007735],[111.71749843857758,36.7425288473596],[111.7198949130749,36.7425462505111],[111.7218938126804,36.74240665543998],[111.72434920245178,36.74237582249531],[111.725836814398,36.74262178958247]]],[[[111.71229269397031,36.802171044780664],[111.71428396277956,36.80074868923142],[111.71483926281063,36.79983862826692],[111.71495658667101,36.79898159103075],[111.71639199789074,36.79841887054106],[111.71769415017494,36.79700060304413],[111.71955992355224,36.79557889011817],[111.7209278977353,36.79451279564818],[111.72160927491687,36.793702710436115],[111.72147694451533,36.79294792294652],[111.72103195000722,36.79224539944862],[111.72184139205635,36.79173677302757],[111.72296064934564,36.790873623463455],[111.7237012899893,36.78971055697989],[111.7247559777486,36.788646323044986],[111.72487128030319,36.78758779642135],[111.7243608240167,36.786583447641185],[111.72315636997135,36.78502921030754],[111.72264453796176,36.783873744710796],[111.7228102116611,36.78150522376407],[111.72285868534438,36.77999375014869],[111.72365714320225,36.778326603281776],[111.72514054162274,36.77625227779136],[111.72538060145807,36.77514261681599],[111.72505099072852,36.77338157675392],[111.72527450880465,36.7705089705621],[111.72545006724897,36.769198208339304],[111.72567545051062,36.766527077101614],[111.72578130575248,36.76446112166988],[111.72613943492915,36.762595144855496],[111.72743608092014,36.760673071518084],[111.72842771967254,36.75960918574816],[111.72910347925047,36.75824498588844],[111.7287828802659,36.75744098067289],[111.72770970308777,36.75649045278916],[111.72745172330366,36.75568606155207],[111.72743983320035,36.754426810809676],[111.7281198147612,36.75351594703427],[111.72886187939896,36.75255432489843],[111.72954135095964,36.751593084557236],[111.7309628077681,36.749670204417015],[111.73188921568631,36.74835482404485],[111.73312807420125,36.74698713665897],[111.73311607607822,36.745727885783374],[111.73279086249636,36.744420972688474],[111.73232686396868,36.74411214214435],[111.73178869435978,36.7437488717705],[111.73111357438782,36.74356175486891],[111.7294484707351,36.74339663181011],[111.7285741276074,36.743083213052266],[111.72708634266569,36.7428213462873],[111.725836814398,36.74262178958247],[111.72434920245178,36.74237582249531],[111.7218938126804,36.74240665543998],[111.7198949130749,36.7425462505111],[111.71749843857758,36.7425288473596],[111.7157169005859,36.742619250007735],[111.71436762153164,36.742340460251405],[111.71305543663253,36.7417904923504],[111.7119419001228,36.741303058305675],[111.71094909545602,36.74102210179151],[111.70960148596774,36.74091857873226],[111.70902660355453,36.74085824692645],[111.70820940907599,36.74028932364705],[111.70669666042184,36.73945359272435],[111.70550354487999,36.73891875612635],[111.70431424980761,36.738798308210185],[111.70290494181668,36.73844004139964],[111.70131814966723,36.738162523541675],[111.69955418687957,36.73799756546533],[111.69778977404054,36.73778479383745],[111.69610100977684,36.73717309650536],[111.69446793274349,36.736146629890335],[111.69341330308274,36.73557900981779],[111.69192849111838,36.73561951936558],[111.69109327174864,36.73522592416734],[111.69037558336478,36.73468817565342],[111.68967499210696,36.733847495903504],[111.68889748703661,36.73326229570562],[111.6881609059802,36.732820276161355],[111.68706804745537,36.73239626967225],[111.68577875025153,36.7321486779038],[111.68496650589428,36.73210553919539],[111.68338204739078,36.73206683420867],[111.6825542286263,36.732501913534506],[111.68074142534135,36.73351642069102],[111.67914554391601,36.73443401215356],[111.67798665323642,36.73550850796714],[111.6772424465964,36.73645310093894],[111.67730687092005,36.737026512481314],[111.67756944944746,36.737614731933434],[111.6777546594004,36.738410593046574],[111.67772176859336,36.73917581584652],[111.678222282962,36.73979456750559],[111.67868306124234,36.74039760395764],[111.68043088322322,36.74322464729904],[111.68093271086796,36.74398681249044],[111.6815740197688,36.74484380345845],[111.68158583697313,36.746182560044204],[111.68052484417282,36.74714493572328],[111.67965822376817,36.747691796453175],[111.67890635387752,36.747775773885515],[111.67796049659856,36.748323059907314],[111.6761278748708,36.74938542690871],[111.67483008285376,36.75046067249203],[111.67367225688089,36.7516944814017],[111.67241830691853,36.75326351946983],[111.67120128634338,36.7545295358364],[111.67057371538968,36.75525029196827],[111.6705584772313,36.75577634109521],[111.6706216373683,36.75620631891009],[111.67102151227283,36.756634390100544],[111.67142277627579,36.75722184250998],[111.67152929862168,36.75808191313876],[111.67153609413369,36.758862853941594],[111.67134550653803,36.75972459741674],[111.67069656404703,36.76027015430671],[111.67008709158009,36.76079955930128],[111.66923977533305,36.76131436146448],[111.66873194642261,36.76214600362109],[111.66861834619829,36.76275229814212],[111.66818973746553,36.76358349533661],[111.66809690127208,36.76430124150813],[111.66846739394724,36.76590891801173],[111.66845559220964,36.76683340695597],[111.6687606192199,36.767740170256694],[111.6693233108742,36.76866143454164],[111.67012221171454,36.76940604681295],[111.67074006611202,36.76983289689695],[111.67136097765798,36.770610359629494],[111.67178338012839,36.771341143056524],[111.67192552534975,36.77173879924975],[111.67262473412912,36.77240426388659],[111.67316713771919,36.77326186365199],[111.6734714022762,36.77407297971925],[111.67410995866042,36.774595332640835],[111.67407339931466,36.77494618167443],[111.67429439152806,36.7752955738191],[111.67463564950266,36.77580366807621],[111.67523616042513,36.77650155268229],[111.67591522019468,36.777119282994626],[111.67629668001976,36.777690883902984],[111.67832083884045,36.78030919812371],[111.67856336206933,36.7808497197731],[111.67872579455985,36.78129506618628],[111.67885155021354,36.782075324397326],[111.67949697375813,36.78336262432316],[111.68010024192618,36.78436328905638],[111.68066094000079,36.78502949697508],[111.68140025761761,36.7857265535417],[111.68221814277172,36.78634346539778],[111.6837918462029,36.78727477920207],[111.68458797116273,36.78766866466002],[111.68580361697956,36.7884426491806],[111.6868998279229,36.7891535366875],[111.68827535047419,36.79007001037078],[111.6896497394459,36.79085897661524],[111.69082456820207,36.79148969030805],[111.69219902508677,36.79227860915223],[111.69283887141938,36.79291242024931],[111.69323992443114,36.79343604986106],[111.69340304164386,36.79394512596217],[111.69386441256555,36.79456402945376],[111.69412719454728,36.795136276315155],[111.69486759295137,36.795928872936656],[111.69538975676572,36.796690861123295],[111.69620470601002,36.7969570345491],[111.6973199405669,36.7975561553797],[111.6978797310197,36.798094776440585],[111.6978846383256,36.79863664754943],[111.69804780109838,36.7991457136751],[111.69876732910274,36.79981090285334],[111.6993079063678,36.80041338302317],[111.6994161096174,36.801416854183785],[111.69960011779456,36.80203736415118],[111.69944924586555,36.80288297425659],[111.6995163891804,36.80372730553001],[111.70011471963888,36.80413818388201],[111.70067341758221,36.804549292673656],[111.7014281365039,36.80472016756044],[111.7022608268287,36.80474711605775],[111.70319247409748,36.804757560345266],[111.70354941664395,36.805043914261205],[111.70430753380016,36.80574464990425],[111.70462717706862,36.80644797574296],[111.70463224518902,36.80700204363194],[111.70500947340688,36.80715093100601],[111.70594815213222,36.80704462673759],[111.70669567267909,36.8065868294451],[111.70762785048,36.80577532060958],[111.70943370600384,36.8046060128183],[111.70999187786059,36.80399821730259],[111.71079872771553,36.80318743531307],[111.71229269397031,36.802171044780664]],[[111.70651351854512,36.79372263668934],[111.70643892945493,36.794233103544016],[111.70689452941633,36.79493168208557],[111.70788034071467,36.79581836954258],[111.70886169231008,36.79621630213834],[111.70918288241478,36.79666064863125],[111.70929561650479,36.797425009310516],[111.70977298832061,36.79761341401074],[111.71019908500716,36.79797214397409],[111.7102286411778,36.798311985140685],[111.7101852552449,36.798383082768034],[111.70994151157088,36.798696224351204],[111.70867846746931,36.79927753003681],[111.70725842372153,36.80002975002727],[111.7067866953394,36.80045756758522],[111.70681604339458,36.80077615667963],[111.70716521010482,36.80139036201721],[111.70661302896787,36.80169115252399],[111.70545094202602,36.80176181807386],[111.70410213466498,36.80164229021383],[111.70285824169683,36.80143712602171],[111.70226856075105,36.80052681161459],[111.70173079432935,36.79950993533023],[111.70084837628494,36.79836759206594],[111.70002210096285,36.79758617719766],[111.69911695875582,36.79684770841471],[111.6980278557262,36.79621656399849],[111.69714899021749,36.795456675175544],[111.69713649140259,36.79407543533977],[111.69712455314792,36.79275794436077],[111.69664320891847,36.7921232300188],[111.69549981368364,36.791322372605165],[111.69454311126293,36.790711702097],[111.6940943429266,36.79075681739715],[111.69322111653923,36.7906131444824],[111.6927976144017,36.79053060353019],[111.69181813293358,36.79032378301888],[111.69041632186368,36.79016193290381],[111.68903656943417,36.7895111390566],[111.68823826246675,36.788878221152174],[111.688096283754,36.787773989779836],[111.68784845564373,36.78664911690921],[111.68668051655598,36.78603958814681],[111.68538390404389,36.78581330474653],[111.68413900550215,36.7854591901502],[111.68350249361161,36.785186578502234],[111.68249461089675,36.78474609836462],[111.68164151118437,36.783879701401624],[111.68073653197942,36.78311983707614],[111.68043749583386,36.78216524860751],[111.68061491794225,36.781314195057696],[111.68086858649949,36.780122686380366],[111.68007006449558,36.779447212862415],[111.6792157277699,36.77843204846093],[111.6782033033602,36.77746027932919],[111.67722068018217,36.776870837093625],[111.6763701515686,36.776280637445446],[111.67630595477257,36.774984685652804],[111.67606355760242,36.77445479367014],[111.67545135842411,36.77392700767501],[111.67483654304262,36.773101697607956],[111.6746687554793,36.77204009304383],[111.67460477704692,36.770765391365735],[111.67406963014524,36.76998212892645],[111.67297981159454,36.769202023584],[111.6726552547321,36.76833256137446],[111.67280724740122,36.767587916045436],[111.67285525567787,36.76703511616134],[111.67258538585878,36.76637785595976],[111.6720549164931,36.7661258369041],[111.67178265161901,36.7651923316281],[111.67198562084945,36.76423488086571],[111.67268873357149,36.76308335509699],[111.67328914723703,36.76227242040262],[111.6742293598301,36.761055792283365],[111.6749357664415,36.76028674348795],[111.67521885202027,36.759435100816674],[111.67515450579954,36.75811790110933],[111.67535574817167,36.756969201984326],[111.67619172243138,36.755923133122195],[111.67642046369916,36.75490180040502],[111.67633136883268,36.75377599816927],[111.67642638836412,36.75256414188199],[111.67697498521595,36.75188097289732],[111.67745013318014,36.75185701708661],[111.67853152901367,36.7517021105346],[111.67977323415124,36.75175876190488],[111.68101177517836,36.75145417838028],[111.68256718289165,36.75114774765562],[111.68351576990322,36.75090854227213],[111.68398883563857,36.75065081300114],[111.68493516097332,36.750156594792834],[111.68551063920698,36.749536986633366],[111.68560550116204,36.74832512735978],[111.68551326049636,36.746859353649135],[111.68500457824071,36.746075986379694],[111.68459756970265,36.74484575719065],[111.68379713169178,36.743915327344226],[111.6831279739696,36.74289910754568],[111.68222196681404,36.74196924285922],[111.68155586467297,36.74129303389134],[111.68162494846302,36.74014508201053],[111.68153561246753,36.73899803003132],[111.6814189393144,36.737744877911126],[111.68164868595495,36.73685101507182],[111.6824624692228,36.73631508002646],[111.68322718129599,36.73620443681349],[111.68375221178323,36.73586138895331],[111.68469516949727,36.73500592904903],[111.68553943498118,36.734937325604605],[111.6863307278447,36.73484776733593],[111.68733379000412,36.734820711539136],[111.68820485684985,36.7347944349824],[111.68923643384703,36.73500097436039],[111.69000796451519,36.73565528533809],[111.69065110802337,36.73671412086565],[111.69168954367628,36.73768562768754],[111.6929338923081,36.738060924311476],[111.6940225369897,36.73873460166574],[111.69490147867201,36.73957952811247],[111.69580302178436,36.739999281739834],[111.69635750508998,36.739996028548966],[111.69754373335324,36.739776584246265],[111.6987058576956,36.73981226281073],[111.7003442279533,36.739951397990986],[111.70174960775026,36.740601897893136],[111.70262480984124,36.74102176116506],[111.70403120972341,36.74177847855025],[111.70535607754537,36.7422806748573],[111.70652256192479,36.742783766998265],[111.70739781446643,36.74320360077711],[111.70837909592828,36.743665293776566],[111.71012926868968,36.74446240169639],[111.71137424644374,36.744880000794275],[111.71229960111668,36.74500195590688],[111.71367366066941,36.74509999357873],[111.71470644064955,36.745412574943074],[111.71608565243515,36.74606305923379],[111.7176469456624,36.746414934616595],[111.7191536494711,36.74657586346102],[111.72031568443106,36.7465900991923],[111.72168935163107,36.74664554425406],[111.72311602512346,36.74672190289794],[111.7240986216114,36.74731096930275],[111.72492239946672,36.747858475796306],[111.725226090446,36.74925918911306],[111.72542095397229,36.75032055737454],[111.72580086041867,36.75140205077968],[111.7258915086162,36.75261280964085],[111.72508189531298,36.753574035705974],[111.72469119882795,36.75415019256118],[111.72477640799858,36.75478720564741],[111.72414741923947,36.755301053757364],[111.723388560373,36.756049449454984],[111.72344535961618,36.756474126320136],[111.72440522784797,36.757445845896356],[111.72475392290804,36.75801750413938],[111.72446801129219,36.75850801561028],[111.72439734273043,36.75942224166324],[111.72440391839875,36.760123485870366],[111.72390611319734,36.76055153129586],[111.72373158384735,36.76165764572799],[111.72376832237703,36.762762477411606],[111.72372543072234,36.76382529121799],[111.72326114520757,36.76501819332774],[111.72319064149896,36.76595366645321],[111.72296027711661,36.76674135239167],[111.72278332485382,36.767592466849436],[111.72263080042448,36.76823092233353],[111.72240141281888,36.76912485657672],[111.72185588077018,36.77010570761804],[111.72127933895416,36.77059797205046],[111.72123106626734,36.77108703764118],[111.72121316496019,36.772000942926404],[111.72095694091769,36.77285254724648],[111.72064491524259,36.77338572069434],[111.72057162518328,36.77402369395991],[111.7203441824122,36.775130120925034],[111.71997694134629,36.77540860308334],[111.71974850854377,36.7764087792641],[111.71954726984833,36.77749379616676],[111.71921376280544,36.778558359983414],[111.71874775471808,36.77958123131807],[111.71841559860322,36.78079455532779],[111.71815973469928,36.781688638944175],[111.71816646499224,36.782411130768516],[111.71872698011475,36.78302402960516],[111.71915757728144,36.78387147058725],[111.71913966995413,36.78478537199015],[111.71862278903511,36.78602104567414],[111.7179179889068,36.78693908548996],[111.7160822345138,36.78841647719217],[111.71500828904637,36.789421719880785],[111.71419694545928,36.79025537407573],[111.71346307462233,36.79089729806258],[111.7128129738286,36.79202750231735],[111.71221275295447,36.79283864312394],[111.7118250704508,36.79377600121974],[111.71183115437616,36.79443474551729],[111.71159767480455,36.79490365982887],[111.71091403438666,36.79526900645105],[111.71027755342263,36.7950177914842],[111.7092419871807,36.79447144747721],[111.70778292573635,36.793842610514545],[111.70698832657843,36.79363481690876],[111.70651351854512,36.79372263668934]]],[[[111.70651351854512,36.79372263668934],[111.70698832657843,36.79363481690876],[111.70778292573635,36.793842610514545],[111.7092419871807,36.79447144747721],[111.71027755342263,36.7950177914842],[111.71091403438666,36.79526900645105],[111.71159767480455,36.79490365982887],[111.71183115437616,36.79443474551729],[111.7118250704508,36.79377600121974],[111.71221275295447,36.79283864312394],[111.7128129738286,36.79202750231735],[111.71346307462233,36.79089729806258],[111.71419694545928,36.79025537407573],[111.71500828904637,36.789421719880785],[111.7160822345138,36.78841647719217],[111.7179179889068,36.78693908548996],[111.71862278903511,36.78602104567414],[111.71913966995413,36.78478537199015],[111.71915757728144,36.78387147058725],[111.71872698011475,36.78302402960516],[111.71816646499224,36.782411130768516],[111.71815973469928,36.781688638944175],[111.71841559860322,36.78079455532779],[111.71874775471808,36.77958123131807],[111.71921376280544,36.778558359983414],[111.71954726984833,36.77749379616676],[111.71974850854377,36.7764087792641],[111.71997694134629,36.77540860308334],[111.7203441824122,36.775130120925034],[111.72057162518328,36.77402369395991],[111.72064491524259,36.77338572069434],[111.72095694091769,36.77285254724648],[111.72121316496019,36.772000942926404],[111.72123106626734,36.77108703764118],[111.72127933895416,36.77059797205046],[111.72185588077018,36.77010570761804],[111.72240141281888,36.76912485657672],[111.72263080042448,36.76823092233353],[111.72278332485382,36.767592466849436],[111.72296027711661,36.76674135239167],[111.72319064149896,36.76595366645321],[111.72326114520757,36.76501819332774],[111.72372543072234,36.76382529121799],[111.72376832237703,36.762762477411606],[111.72373158384735,36.76165764572799],[111.72390611319734,36.76055153129586],[111.72440391839875,36.760123485870366],[111.72439734273043,36.75942224166324],[111.72446801129219,36.75850801561028],[111.72475392290804,36.75801750413938],[111.72440522784797,36.757445845896356],[111.72344535961618,36.756474126320136],[111.723388560373,36.756049449454984],[111.72414741923947,36.755301053757364],[111.72477640799858,36.75478720564741],[111.72469119882795,36.75415019256118],[111.72508189531298,36.753574035705974],[111.7258915086162,36.75261280964085],[111.72580086041867,36.75140205077968],[111.72542095397229,36.75032055737454],[111.725226090446,36.74925918911306],[111.72492239946672,36.747858475796306],[111.7240986216114,36.74731096930275],[111.72311602512346,36.74672190289794],[111.72168935163107,36.74664554425406],[111.72031568443106,36.7465900991923],[111.7191536494711,36.74657586346102],[111.7176469456624,36.746414934616595],[111.71608565243515,36.74606305923379],[111.71470644064955,36.745412574943074],[111.71367366066941,36.74509999357873],[111.71229960111668,36.74500195590688],[111.71137424644374,36.744880000794275],[111.71012926868968,36.74446240169639],[111.70837909592828,36.743665293776566],[111.70739781446643,36.74320360077711],[111.70652256192479,36.742783766998265],[111.70535607754537,36.7422806748573],[111.70403120972341,36.74177847855025],[111.70262480984124,36.74102176116506],[111.70174960775026,36.740601897893136],[111.7003442279533,36.739951397990986],[111.6987058576956,36.73981226281073],[111.69754373335324,36.739776584246265],[111.69635750508998,36.739996028548966],[111.69580302178436,36.739999281739834],[111.69490147867201,36.73957952811247],[111.6940225369897,36.73873460166574],[111.6929338923081,36.738060924311476],[111.69168954367628,36.73768562768754],[111.69065110802337,36.73671412086565],[111.69000796451519,36.73565528533809],[111.68923643384703,36.73500097436039],[111.68820485684985,36.7347944349824],[111.68733379000412,36.734820711539136],[111.6863307278447,36.73484776733593],[111.68553943498118,36.734937325604605],[111.68469516949727,36.73500592904903],[111.68375221178323,36.73586138895331],[111.68322718129599,36.73620443681349],[111.6824624692228,36.73631508002646],[111.68164868595495,36.73685101507182],[111.6814189393144,36.737744877911126],[111.68153561246753,36.73899803003132],[111.68162494846302,36.74014508201053],[111.68155586467297,36.74129303389134],[111.68222196681404,36.74196924285922],[111.6831279739696,36.74289910754568],[111.68379713169178,36.743915327344226],[111.68459756970265,36.74484575719065],[111.68500457824071,36.746075986379694],[111.68551326049636,36.746859353649135],[111.68560550116204,36.74832512735978],[111.68551063920698,36.749536986633366],[111.68493516097332,36.750156594792834],[111.68398883563857,36.75065081300114],[111.68351576990322,36.75090854227213],[111.68256718289165,36.75114774765562],[111.68101177517836,36.75145417838028],[111.67977323415124,36.75175876190488],[111.67853152901367,36.7517021105346],[111.67745013318014,36.75185701708661],[111.67697498521595,36.75188097289732],[111.67642638836412,36.75256414188199],[111.67633136883268,36.75377599816927],[111.67642046369916,36.75490180040502],[111.67619172243138,36.755923133122195],[111.67535574817167,36.756969201984326],[111.67515450579954,36.75811790110933],[111.67521885202027,36.759435100816674],[111.6749357664415,36.76028674348795],[111.6742293598301,36.761055792283365],[111.67328914723703,36.76227242040262],[111.67268873357149,36.76308335509699],[111.67198562084945,36.76423488086571],[111.67178265161901,36.7651923316281],[111.6720549164931,36.7661258369041],[111.67258538585878,36.76637785595976],[111.67285525567787,36.76703511616134],[111.67280724740122,36.767587916045436],[111.6726552547321,36.76833256137446],[111.67297981159454,36.769202023584],[111.67406963014524,36.76998212892645],[111.67460477704692,36.770765391365735],[111.6746687554793,36.77204009304383],[111.67483654304262,36.773101697607956],[111.67545135842411,36.77392700767501],[111.67606355760242,36.77445479367014],[111.67630595477257,36.774984685652804],[111.6763701515686,36.776280637445446],[111.67722068018217,36.776870837093625],[111.6782033033602,36.77746027932919],[111.6792157277699,36.77843204846093],[111.68007006449558,36.779447212862415],[111.68086858649949,36.780122686380366],[111.68061491794225,36.781314195057696],[111.68043749583386,36.78216524860751],[111.68073653197942,36.78311983707614],[111.68164151118437,36.783879701401624],[111.68249461089675,36.78474609836462],[111.68350249361161,36.785186578502234],[111.68413900550215,36.7854591901502],[111.68538390404389,36.78581330474653],[111.68668051655598,36.78603958814681],[111.68784845564373,36.78664911690921],[111.688096283754,36.787773989779836],[111.68823826246675,36.788878221152174],[111.68903656943417,36.7895111390566],[111.69041632186368,36.79016193290381],[111.69181813293358,36.79032378301888],[111.6927976144017,36.79053060353019],[111.69322111653923,36.7906131444824],[111.6940943429266,36.79075681739715],[111.69454311126293,36.790711702097],[111.69549981368364,36.791322372605165],[111.69664320891847,36.7921232300188],[111.69712455314792,36.79275794436077],[111.69713649140259,36.79407543533977],[111.69714899021749,36.795456675175544],[111.6980278557262,36.79621656399849],[111.69911695875582,36.79684770841471],[111.70002210096285,36.79758617719766],[111.70084837628494,36.79836759206594],[111.70173079432935,36.79950993533023],[111.70226856075105,36.80052681161459],[111.70285824169683,36.80143712602171],[111.70410213466498,36.80164229021383],[111.70545094202602,36.80176181807386],[111.70661302896787,36.80169115252399],[111.70716521010482,36.80139036201721],[111.70681604339458,36.80077615667963],[111.7067866953394,36.80045756758522],[111.70725842372153,36.80002975002727],[111.70867846746931,36.79927753003681],[111.70994151157088,36.798696224351204],[111.7101852552449,36.798383082768034],[111.7102286411778,36.798311985140685],[111.71019908500716,36.79797214397409],[111.70977298832061,36.79761341401074],[111.70929561650479,36.797425009310516],[111.70918288241478,36.79666064863125],[111.70886169231008,36.79621630213834],[111.70788034071467,36.79581836954258],[111.70689452941633,36.79493168208557],[111.70643892945493,36.794233103544016],[111.70651351854512,36.79372263668934]]],[[[111.87702958418814,36.82782602033791],[111.87670206689235,36.827229293314886],[111.87591917694924,36.82752582813978],[111.8732590828519,36.82832023430158],[111.87185590613223,36.82880734970727],[111.871039723284,36.828753721164915],[111.86929277728126,36.82834929462349],[111.86780802202571,36.828181318350275],[111.86591955917163,36.828373886556655],[111.86432696397519,36.828504678716364],[111.86343530877484,36.82833233914601],[111.86304042865582,36.8281611617904],[111.86303472961455,36.8276545784082],[111.86317562495937,36.82699792647765],[111.86301932584655,36.826283826373235],[111.86241721808524,36.825483552591734],[111.86144812329808,36.82501376690707],[111.86073883892115,36.82457187427127],[111.86028570064894,36.82383011990902],[111.86027869755344,36.82320434143733],[111.86045834970227,36.82269641800903],[111.86015547797633,36.8221323803385],[111.85989234661523,36.82180646595007],[111.85936577420308,36.82112483252474],[111.85894773086048,36.82020400739938],[111.85830032728039,36.818658999518995],[111.85709665868102,36.81708819068968],[111.85686033675081,36.81583823201983],[111.85703169085272,36.81458533862504],[111.8573562730282,36.813778361474185],[111.85845846504175,36.812906170106636],[111.85925781593687,36.8114699180797],[111.85946786798978,36.81036574570692],[111.85946120583705,36.8097697647894],[111.85874675785011,36.808851076034195],[111.85725043600665,36.80761021665645],[111.85668326420664,36.806601048598424],[111.85582596318558,36.80616018946944],[111.85504807966169,36.80619557754004],[111.85419476008057,36.80611229898222],[111.8535968748454,36.805669566319345],[111.85292057742923,36.804839989212155],[111.85179731708564,36.80380497514219],[111.85093512457841,36.802917091972944],[111.85003985412851,36.80238705653507],[111.84843624142131,36.80147466653359],[111.8474639479956,36.80067695211528],[111.84693140653356,36.799429075068105],[111.84519614245768,36.79664005143094],[111.84316425768077,36.79382330203773],[111.84263086618544,36.7924860048194],[111.84254340386856,36.79126475779663],[111.84273833275246,36.78876004316539],[111.84305355237046,36.787088925417216],[111.84344119474045,36.785268268432596],[111.84327868487384,36.78395813054181],[111.84267355060359,36.78282995394525],[111.84214839568861,36.782237631585154],[111.84217764539542,36.781522185200295],[111.84209185083346,36.78044993303331],[111.84186308242595,36.77985551682986],[111.8412599629712,36.77890612336604],[111.83983283981166,36.77712809122131],[111.83915471353663,36.776089810782096],[111.83911119834532,36.77549408080455],[111.84002789044038,36.774623349710566],[111.84119799652734,36.77321441326508],[111.8420730248403,36.77192675937338],[111.84221567489652,36.771419122924534],[111.84175170322892,36.76963430015324],[111.84084815077566,36.76829960070652],[111.84009862091919,36.76750021539586],[111.83964280250005,36.76646036831283],[111.839817307219,36.76547568037435],[111.83995767255358,36.76475945076206],[111.83975658894055,36.76330058274038],[111.83963443936948,36.76228818362472],[111.83957530774914,36.760262100472744],[111.83937324495375,36.75871383934855],[111.83899344742498,36.754454858948144],[111.83898662266984,36.75382907789947],[111.83889725582068,36.75242904033118],[111.83859255623423,36.75165633971224],[111.83769081649916,36.750470608151296],[111.83727015304744,36.74925168973697],[111.83710451987864,36.74764358130441],[111.83746798923583,36.747015187515764],[111.838354090442,36.746770544761794],[111.83920576387276,36.746764549469376],[111.84098284322577,36.74672219513955],[111.84224542510037,36.74704109812252],[111.84310102076013,36.74739267018797],[111.84543943351179,36.74788273436583],[111.8470359658187,36.74825882030256],[111.84897168975198,36.749168876309206],[111.85056990423068,36.74969391246403],[111.85269581081862,36.75104960077169],[111.85407486359095,36.75184437224451],[111.85641644264746,36.75260238725708],[111.8577145263144,36.75277186038998],[111.86027035941454,36.7528130397066],[111.86238149331598,36.75282755379346],[111.86375265801136,36.75290702863237],[111.86463806141118,36.752602590156954],[111.86607560012628,36.75199609723063],[111.86735725978849,36.750705290774675],[111.86871026558167,36.7491755462359],[111.86962659372878,36.748334386910905],[111.8712885443629,36.747934823246545],[111.87280067214093,36.747387326599046],[111.87438413231031,36.74661950971965],[111.87435558596057,36.74325789832785],[111.87328748588232,36.743288969948146],[111.87214404344392,36.743684792738556],[111.87011930900945,36.74474265727918],[111.86876205085179,36.74588505312812],[111.86836246059447,36.74657340742652],[111.86748785774024,36.74783145011778],[111.86649711636039,36.748643307129065],[111.86514007968057,36.74981546360823],[111.86419232716067,36.75116341908924],[111.86282754127495,36.75165013666481],[111.86145504713151,36.7514514760376],[111.85974166031066,36.750569803072686],[111.85780412154412,36.74951090140752],[111.85676064938272,36.74892237239869],[111.85513001937798,36.74881490482432],[111.85383298927876,36.74873480084002],[111.85305042393759,36.748293377419735],[111.851632405545,36.74732006202585],[111.85018268962011,36.746823781531354],[111.84781415562097,36.74695989158514],[111.84525717594269,36.7467992415469],[111.84280640859816,36.746190761043515],[111.8402013634858,36.74501710820821],[111.83889919516837,36.74446004554827],[111.8374917979595,36.744440142785386],[111.83605190638609,36.74483767517011],[111.83491663626441,36.746007905436954],[111.83471289454887,36.74770803830652],[111.83515358672366,36.750774513298325],[111.83540492513049,36.753454915991334],[111.83556600411055,36.75464584176238],[111.83561503654518,36.75574815306213],[111.8368627620586,36.75809373839527],[111.8372834174541,36.75931265359121],[111.83696339634415,36.760536749063654],[111.83672031549614,36.762028545509644],[111.83700320548756,36.764202086412176],[111.83664356807758,36.76861527514411],[111.83640719050467,36.77073287844405],[111.83634761988151,36.77207437371373],[111.8357478727818,36.77485016575755],[111.83587447512359,36.77627976059754],[111.83651841394426,36.777586514842525],[111.83715849145747,36.77853567195375],[111.83780635390441,36.78020002113343],[111.83934076428746,36.78161971568706],[111.84072022038858,36.782414631915486],[111.84120865021569,36.78303702291726],[111.8412925005941,36.78393048087165],[111.84123106280703,36.78509317758708],[111.84132597642889,36.786999810495516],[111.84137439440423,36.788042527530905],[111.84038705493539,36.789241562622],[111.8394321996546,36.790023160665555],[111.838701575997,36.79098196100859],[111.83856764397387,36.79229417548383],[111.83894853721233,36.79324514332415],[111.84021771717418,36.7941004437591],[111.84137544513634,36.79492671724648],[111.84279419366706,36.79590011714541],[111.84350932119774,36.796908313569446],[111.84453066724853,36.79880836641064],[111.84498874948969,36.8000269829592],[111.8454608821254,36.802526962317664],[111.84595147328942,36.80332811943738],[111.8466958788515,36.80362084560779],[111.84747669116987,36.80385370722811],[111.84959683888069,36.804553810620746],[111.85097420455138,36.80511020547653],[111.85153567188014,36.805612818933795],[111.85214312269808,36.806919739730056],[111.85172779604957,36.80957504536737],[111.85184953830723,36.81052782273642],[111.85226545460333,36.81126988397453],[111.85327105095112,36.81170970690131],[111.85405692374817,36.812389507003964],[111.85487723066844,36.812830635046815],[111.85514229934405,36.81333534732647],[111.85511054261288,36.81381240045116],[111.85489380390946,36.81432058776351],[111.8545294825962,36.81488943829145],[111.85405561429435,36.81560807294437],[111.85383919806408,36.816146052911776],[111.85392161377048,36.81689049806547],[111.8543025139019,36.81781160958081],[111.85538795938493,36.818757465683795],[111.85613289429102,36.81907990609712],[111.8563986588982,36.81964422901128],[111.85648241650787,36.82050787696008],[111.85694813893065,36.822382000901854],[111.85747835538201,36.823391442618934],[111.85781827672697,36.82395520897054],[111.8593082690048,36.82460009303742],[111.86039122255845,36.82530750724067],[111.86046869558947,36.825604961699085],[111.86047436942572,36.82611154385346],[111.86056285581651,36.82739236604053],[111.86112957812153,36.82834191140894],[111.86184424361532,36.82926058552226],[111.86244269738579,36.82973306823403],[111.86333502747091,36.829965004904125],[111.86426108553329,36.82989866855668],[111.86744970037255,36.829935058679474],[111.8689712154787,36.83007297004236],[111.87097667031485,36.83038610966348],[111.87257201349911,36.830493628990425],[111.87419730608067,36.82997505725081],[111.87559504619246,36.82901114502459],[111.87658331497234,36.82790120217043],[111.87702958418814,36.82782602033791]]],[[[111.87587465700199,36.825574953669104],[111.87148544792265,36.814949123968134],[111.86832598575731,36.80798796300182],[111.86800246412253,36.80703806569095],[111.86735280478769,36.805311571414116],[111.86774980179432,36.804235825561946],[111.86816018499928,36.801455336101526],[111.86974399479149,36.79154488149246],[111.87033078471302,36.78140909289912],[111.87438413231031,36.74661950971965],[111.87280067214093,36.747387326599046],[111.8712885443629,36.747934823246545],[111.86962659372878,36.748334386910905],[111.86871026558167,36.7491755462359],[111.86735725978849,36.750705290774675],[111.86607560012628,36.75199609723063],[111.86463806141118,36.752602590156954],[111.86375265801136,36.75290702863237],[111.86238149331598,36.75282755379346],[111.86027035941454,36.7528130397066],[111.8577145263144,36.75277186038998],[111.85641644264746,36.75260238725708],[111.85407486359095,36.75184437224451],[111.85269581081862,36.75104960077169],[111.85056990423068,36.74969391246403],[111.84897168975198,36.749168876309206],[111.8470359658187,36.74825882030256],[111.84543943351179,36.74788273436583],[111.84310102076013,36.74739267018797],[111.84224542510037,36.74704109812252],[111.84098284322577,36.74672219513955],[111.83920576387276,36.746764549469376],[111.838354090442,36.746770544761794],[111.83746798923583,36.747015187515764],[111.83710451987864,36.74764358130441],[111.83727015304744,36.74925168973697],[111.83769081649916,36.750470608151296],[111.83859255623423,36.75165633971224],[111.83889725582068,36.75242904033118],[111.83898662266984,36.75382907789947],[111.83899344742498,36.754454858948144],[111.83937324495375,36.75871383934855],[111.83957530774914,36.760262100472744],[111.83963443936948,36.76228818362472],[111.83975658894055,36.76330058274038],[111.83995767255358,36.76475945076206],[111.839817307219,36.76547568037435],[111.83964280250005,36.76646036831283],[111.84009862091919,36.76750021539586],[111.84084815077566,36.76829960070652],[111.84175170322892,36.76963430015324],[111.84221567489652,36.771419122924534],[111.8420730248403,36.77192675937338],[111.84119799652734,36.77321441326508],[111.84002789044038,36.774623349710566],[111.83911119834532,36.77549408080455],[111.83915471353663,36.776089810782096],[111.83983283981166,36.77712809122131],[111.8412599629712,36.77890612336604],[111.84186308242595,36.77985551682986],[111.84209185083346,36.78044993303331],[111.84217764539542,36.781522185200295],[111.84214839568861,36.782237631585154],[111.84267355060359,36.78282995394525],[111.84327868487384,36.78395813054181],[111.84344119474045,36.785268268432596],[111.84305355237046,36.787088925417216],[111.84273833275246,36.78876004316539],[111.84254340386856,36.79126475779663],[111.84263086618544,36.7924860048194],[111.84316425768077,36.79382330203773],[111.84519614245768,36.79664005143094],[111.84693140653356,36.799429075068105],[111.8474639479956,36.80067695211528],[111.84843624142131,36.80147466653359],[111.85003985412851,36.80238705653507],[111.85093512457841,36.802917091972944],[111.85179731708564,36.80380497514219],[111.85292057742923,36.804839989212155],[111.8535968748454,36.805669566319345],[111.85419476008057,36.80611229898222],[111.85504807966169,36.80619557754004],[111.85582596318558,36.80616018946944],[111.85668326420664,36.806601048598424],[111.85725043600665,36.80761021665645],[111.85874675785011,36.808851076034195],[111.85946120583705,36.8097697647894],[111.85946786798978,36.81036574570692],[111.85925781593687,36.8114699180797],[111.85845846504175,36.812906170106636],[111.8573562730282,36.813778361474185],[111.85703169085272,36.81458533862504],[111.85686033675081,36.81583823201983],[111.85709665868102,36.81708819068968],[111.85830032728039,36.818658999518995],[111.85894773086048,36.82020400739938],[111.85936577420308,36.82112483252474],[111.85989234661523,36.82180646595007],[111.86015547797633,36.8221323803385],[111.86045834970227,36.82269641800903],[111.86027869755344,36.82320434143733],[111.86028570064894,36.82383011990902],[111.86073883892115,36.82457187427127],[111.86144812329808,36.82501376690707],[111.86241721808524,36.825483552591734],[111.86301932584655,36.826283826373235],[111.86317562495937,36.82699792647765],[111.86303472961455,36.8276545784082],[111.86304042865582,36.8281611617904],[111.86343530877484,36.82833233914601],[111.86432696397519,36.828504678716364],[111.86591955917163,36.828373886556655],[111.86780802202571,36.828181318350275],[111.86929277728126,36.82834929462349],[111.871039723284,36.828753721164915],[111.87185590613223,36.82880734970727],[111.8732590828519,36.82832023430158],[111.87591917694924,36.82752582813978],[111.87670206689235,36.827229293314886],[111.87587465700199,36.825574953669104]]],[[[111.87430494498375,36.742342329048455],[111.87435558596057,36.74325789832785],[111.87465716015011,36.7432491239261],[111.87606351432188,36.74317917049655],[111.87694775127427,36.742785235067856],[111.87741248581847,36.74132152963708],[111.87723047256007,36.73834269032564],[111.87693808530567,36.735424266220214],[111.87740312088921,36.73399034901618],[111.87799303472195,36.73309233265455],[111.87885890903996,36.73177426967277],[111.87873934453917,36.73103010563582],[111.87823837955702,36.72930529362651],[111.87807132233588,36.727637620490555],[111.8775901224627,36.7243927640695],[111.87719486920842,36.72219033476613],[111.87706585688808,36.72061178514649],[111.87717047898575,36.72004477808819],[111.87797568952644,36.71923420168595],[111.8790053273357,36.7186305462534],[111.88033108413298,36.71802472645845],[111.88140112233373,36.71771877330414],[111.88213325363694,36.71699811209928],[111.88297435337905,36.71609782936788],[111.8841523204334,36.715522831977566],[111.88614319981127,36.71482258163549],[111.88936372582752,36.71482836892553],[111.89213939350738,36.7147777976115],[111.8944010065877,36.7150886416039],[111.89748247797137,36.715870104448875],[111.89889180579009,36.716097873067135],[111.90044430804969,36.71590734374275],[111.90442957268931,36.714834053175274],[111.90767589387858,36.713885471440406],[111.91132751036501,36.712784689935404],[111.91357891464061,36.712230994826],[111.9166327147007,36.7119214200405],[111.91988748248205,36.71170556056855],[111.92249483729219,36.7118284301877],[111.92410115764056,36.712435854645086],[111.9261277753765,36.71351681783475],[111.92727298934422,36.7151768105835],[111.9270158121417,36.71842125179944],[111.927216401165,36.72032702437344],[111.92634806236812,36.72200267721212],[111.92548768744884,36.724345843491434],[111.9250953700508,36.726208539461496],[111.92339025854282,36.72727080392314],[111.92026240778088,36.72824869582506],[111.91256906486129,36.72888012747854],[111.90279575099339,36.72895467003341],[111.90049237628938,36.72954431792598],[111.89806604158349,36.729753382976696],[111.89641805573694,36.730671788193696],[111.89473069779824,36.73330704957989],[111.89415436984409,36.734694182314634],[111.89316224853846,36.735989057429165],[111.89188327764279,36.738096709254066],[111.89215112127104,36.74076493948807],[111.8937639192417,36.741897214679334],[111.89691096082504,36.74249342417598],[111.89851217946102,36.74262440347318],[111.89975961354975,36.74290106128393],[111.90077343168653,36.74346559571927],[111.90077120280286,36.74327488619768],[111.90082471829068,36.74293810528699],[111.90084059612069,36.742266585065565],[111.89940041583618,36.740703935431476],[111.89814054019409,36.739354495265935],[111.89673782132306,36.73718357514431],[111.89684242058921,36.734715204662116],[111.89811125608156,36.73302480375208],[111.90044790362835,36.73146937025963],[111.90163695714382,36.73056632585649],[111.90345796538574,36.73051675163012],[111.90550277456114,36.73060849246366],[111.90719135055859,36.730631402645855],[111.90990591799269,36.73100406579659],[111.91194694368629,36.73077387137408],[111.9172805200341,36.73094745626848],[111.91945862905195,36.73103793320078],[111.92132320888662,36.73091622221537],[111.92563029481308,36.73070398161618],[111.92758198698887,36.730438450751286],[111.92837388800422,36.729788557549725],[111.92894365566826,36.729140394937936],[111.92915803109082,36.728494990297534],[111.9291438051982,36.72731494960764],[111.92897437826619,36.72431225076932],[111.92913016317709,36.72299865165174],[111.92913569300589,36.72295202210887],[111.92983565217745,36.72205249659326],[111.93022035731089,36.72079780635883],[111.93047823460728,36.720080541808976],[111.9322817040039,36.71860017820775],[111.93386430529127,36.71722879981581],[111.93478926602718,36.716577803453255],[111.93552918637894,36.71532032525743],[111.93538034980712,36.71403403300679],[111.93474942938496,36.71328799538983],[111.93331778870777,36.71244092604527],[111.932720953939,36.710836301071055],[111.93248464685476,36.70965798950055],[111.93282785562003,36.70865394824866],[111.93265935917229,36.708302199845015],[111.93258081750122,36.70832414043899],[111.9322123880754,36.70849570712839],[111.93198053780421,36.708603680255315],[111.9318255855657,36.70868409302358],[111.93166902698754,36.708765337256246],[111.93139872806546,36.708905604357355],[111.93069171150093,36.70914991739961],[111.93021498372349,36.709234744743775],[111.92976201456108,36.70920224801066],[111.92906314100757,36.7092527556433],[111.92838511483708,36.70952387866113],[111.92785767805165,36.70987041067901],[111.92740516007063,36.710108217503056],[111.92698373889168,36.71031425213177],[111.92660189495074,36.71049519716195],[111.92628971374508,36.710535925070104],[111.92603761015386,36.7103373889862],[111.92596804903638,36.710216149261825],[111.92580470573111,36.70993144994081],[111.92547747358414,36.70947443007368],[111.92494744418079,36.709057460054936],[111.92493587492221,36.7090483579024],[111.92431438827131,36.708667967198906],[111.92383305934393,36.708367592014575],[111.92349655216108,36.708246298305426],[111.92315534115694,36.708199381191136],[111.92266177138674,36.70816265864926],[111.92202679208857,36.708291489747396],[111.92142990414943,36.70850561205345],[111.92095740153805,36.70859261608079],[111.92056893789864,36.70852807400412],[111.92047801149353,36.70851296655579],[111.92043453968493,36.70849770657722],[111.91985637902847,36.708294759301594],[111.91913960913999,36.7080750180468],[111.91847814008798,36.70797649247741],[111.91827203807871,36.70796964108889],[111.91781828188006,36.7079545527549],[111.91751639020211,36.70794494954304],[111.9170772679984,36.70793097828284],[111.91636365958412,36.70797701577285],[111.91518831524577,36.708134749924355],[111.91359608064816,36.70829116098181],[111.91249969851742,36.708265766772726],[111.91249220408285,36.708263536344305],[111.91212344949987,36.708153756364254],[111.91185138846397,36.70809727409236],[111.91170489979763,36.70806937278557],[111.91132841141656,36.70799766310597],[111.91100909340697,36.70795397036513],[111.91072029476206,36.70791445323227],[111.91033773753846,36.70797819963932],[111.91031346114328,36.707995185283686],[111.91007868963878,36.70815945123976],[111.91004150399503,36.70818546986884],[111.9091862057164,36.70873267177272],[111.90777457514854,36.70955893605459],[111.90663930967358,36.710272696856556],[111.90606923518367,36.710643854764264],[111.90575004872078,36.710851671127195],[111.9044811618727,36.71156867991841],[111.90438534824312,36.7116187698367],[111.90333064667105,36.71217011730811],[111.90328660912027,36.71219313653122],[111.90277569916832,36.712460204853585],[111.90098504830122,36.7133658594941],[111.90044169627357,36.71356722134799],[111.89941510663857,36.713947685070046],[111.89922260361753,36.713948549261005],[111.89901642992568,36.7139494758427],[111.89884258123386,36.713950256196924],[111.89707446915403,36.71454949845189],[111.89651926566187,36.714553675103275],[111.89536978269312,36.71438353119887],[111.8943268445721,36.71382512589817],[111.89317979147758,36.71386354220941],[111.89246895700491,36.713213229514594],[111.89127870510184,36.71271551079157],[111.88920360762832,36.71252242493706],[111.88757951257394,36.71292196552749],[111.88487616340389,36.71355654371316],[111.88377709547449,36.71381451142372],[111.8805743011195,36.71535813680448],[111.87977052861267,36.716287953157206],[111.87738458279637,36.718063875275064],[111.87515537245085,36.72061344146283],[111.87494410132149,36.72156866720927],[111.87491856341924,36.72258212208045],[111.87525088378517,36.72576848309238],[111.87537749522654,36.72713843358047],[111.87494475288334,36.72815487375019],[111.8746617817848,36.729319222742866],[111.87490281375709,36.73098635682597],[111.87537076044946,36.73306905134745],[111.87558159105298,36.7353324398162],[111.87563779465059,36.7379350365581],[111.87588061721205,36.74105648860595],[111.87582813806905,36.74165291353755],[111.87491665612227,36.74225565717534],[111.87430494498375,36.742342329048455]]],[[[111.87702958418814,36.82782602033791],[111.88018289415642,36.83287338938007],[111.88043003020458,36.8325742723358],[111.8821455784298,36.83088075101559],[111.88373917116412,36.83018943963353],[111.88435534254165,36.82961267626484],[111.88597992213786,36.82916386924993],[111.88635086201747,36.82906138488676],[111.88746333530868,36.82908885984527],[111.88818002203973,36.82951265076594],[111.88872497953444,36.83047413879841],[111.89056576809708,36.83192659268466],[111.892132796117,36.83277312804195],[111.89338139924435,36.833014112585744],[111.89413501938493,36.832793870152265],[111.89475308307703,36.832395826368256],[111.89580694455803,36.83120775202697],[111.8957940273029,36.83009924277324],[111.89573619444165,36.8289553025581],[111.89639884497029,36.828556917879524],[111.89813530593865,36.828686869005594],[111.90040094433323,36.828419401613246],[111.90164224203345,36.82805236889574],[111.90313613328689,36.8264675304041],[111.90464673484676,36.82504942182579],[111.90600689380035,36.82415499227716],[111.90504292403617,36.82381381428062],[111.90348740122273,36.82368682366251],[111.90270531891741,36.823622969203285],[111.90096427108915,36.8237255806355],[111.89918894619872,36.82406684375306],[111.89728028754477,36.82569053980467],[111.8957450122414,36.82754979984653],[111.89441786785166,36.82818561272965],[111.89348558316982,36.82829613645616],[111.8922706731999,36.828440161491386],[111.89056140012448,36.82809536716554],[111.88877490484275,36.82748289079362],[111.88740946729273,36.827164684945906],[111.8872880509591,36.827136388073974],[111.88628825464335,36.82723324107013],[111.88547757160536,36.82765649138645],[111.88373915967712,36.82799724866618],[111.88229453677874,36.82809738902599],[111.88081215594987,36.82813817263741],[111.87984838741187,36.82814529786918],[111.87899137817142,36.82776423171805],[111.87750831824778,36.827745372776775],[111.87702958418814,36.82782602033791]]]]},"properties":{"code":"SXPR-P06","name_short":"韩信岭","merged":true,"area_km2":128.028}}]}